{
  "type": "FeatureCollection",
  "features": [
    {
      "type": "Feature",
      "geometry": {
        "type": "Point",
        "coordinates": [
          -110.9445085,
          32.2294832
        ]
      },
      "properties": {
        "brand": "Flock Safety",
        "osmId": 5322312866,
        "osmType": "node",
        "startDate": null
      }
    },
    {
      "type": "Feature",
      "geometry": {
        "type": "Point",
        "coordinates": [
          -110.9788378,
          32.3519476
        ]
      },
      "properties": {
        "brand": "Flock Safety",
        "osmId": 7235993722,
        "osmType": "node",
        "startDate": null
      }
    },
    {
      "type": "Feature",
      "geometry": {
        "type": "Point",
        "coordinates": [
          -110.9462221,
          32.4270347
        ]
      },
      "properties": {
        "brand": "Flock Safety",
        "osmId": 12671295110,
        "osmType": "node",
        "startDate": null
      }
    },
    {
      "type": "Feature",
      "geometry": {
        "type": "Point",
        "coordinates": [
          -110.9546226,
          32.4003813
        ]
      },
      "properties": {
        "brand": "Flock Safety",
        "osmId": 12772756695,
        "osmType": "node",
        "startDate": null
      }
    },
    {
      "type": "Feature",
      "geometry": {
        "type": "Point",
        "coordinates": [
          -110.9280185,
          32.4611814
        ]
      },
      "properties": {
        "brand": "Flock Safety",
        "osmId": 12772756792,
        "osmType": "node",
        "startDate": null
      }
    },
    {
      "type": "Feature",
      "geometry": {
        "type": "Point",
        "coordinates": [
          -110.9555865,
          32.2317578
        ]
      },
      "properties": {
        "brand": "Flock Safety",
        "osmId": 12772788276,
        "osmType": "node",
        "startDate": null
      }
    },
    {
      "type": "Feature",
      "geometry": {
        "type": "Point",
        "coordinates": [
          -110.9470873,
          32.2281594
        ]
      },
      "properties": {
        "brand": "Flock Safety",
        "osmId": 12786914474,
        "osmType": "node",
        "startDate": null
      }
    },
    {
      "type": "Feature",
      "geometry": {
        "type": "Point",
        "coordinates": [
          -110.947252,
          32.2284382
        ]
      },
      "properties": {
        "brand": "Flock Safety",
        "osmId": 12786975241,
        "osmType": "node",
        "startDate": null
      }
    },
    {
      "type": "Feature",
      "geometry": {
        "type": "Point",
        "coordinates": [
          -110.9448945,
          32.2321485
        ]
      },
      "properties": {
        "brand": "Flock Safety",
        "osmId": 12786979947,
        "osmType": "node",
        "startDate": null
      }
    },
    {
      "type": "Feature",
      "geometry": {
        "type": "Point",
        "coordinates": [
          -110.9446007,
          32.2296652
        ]
      },
      "properties": {
        "brand": "Flock Safety",
        "osmId": 12786995098,
        "osmType": "node",
        "startDate": null
      }
    },
    {
      "type": "Feature",
      "geometry": {
        "type": "Point",
        "coordinates": [
          -110.9477851,
          32.2316839
        ]
      },
      "properties": {
        "brand": "Flock Safety",
        "osmId": 12786995940,
        "osmType": "node",
        "startDate": null
      }
    },
    {
      "type": "Feature",
      "geometry": {
        "type": "Point",
        "coordinates": [
          -110.9565295,
          32.2317403
        ]
      },
      "properties": {
        "brand": "Flock Safety",
        "osmId": 12787015001,
        "osmType": "node",
        "startDate": null
      }
    },
    {
      "type": "Feature",
      "geometry": {
        "type": "Point",
        "coordinates": [
          -110.9472367,
          32.227498
        ]
      },
      "properties": {
        "brand": "Flock Safety",
        "osmId": 12859458388,
        "osmType": "node",
        "startDate": null
      }
    },
    {
      "type": "Feature",
      "geometry": {
        "type": "Point",
        "coordinates": [
          -110.946641,
          32.2267134
        ]
      },
      "properties": {
        "brand": "Flock Safety",
        "osmId": 12859469476,
        "osmType": "node",
        "startDate": null
      }
    },
    {
      "type": "Feature",
      "geometry": {
        "type": "Point",
        "coordinates": [
          -110.9444312,
          32.2339047
        ]
      },
      "properties": {
        "brand": "Flock Safety",
        "osmId": 12859585167,
        "osmType": "node",
        "startDate": null
      }
    },
    {
      "type": "Feature",
      "geometry": {
        "type": "Point",
        "coordinates": [
          -110.9482425,
          32.2356386
        ]
      },
      "properties": {
        "brand": "Flock Safety",
        "osmId": 12859620738,
        "osmType": "node",
        "startDate": null
      }
    },
    {
      "type": "Feature",
      "geometry": {
        "type": "Point",
        "coordinates": [
          -110.9479705,
          32.2356179
        ]
      },
      "properties": {
        "brand": "Flock Safety",
        "osmId": 12859622238,
        "osmType": "node",
        "startDate": null
      }
    },
    {
      "type": "Feature",
      "geometry": {
        "type": "Point",
        "coordinates": [
          -110.9448724,
          32.2337838
        ]
      },
      "properties": {
        "brand": "Flock Safety",
        "osmId": 12859633109,
        "osmType": "node",
        "startDate": null
      }
    },
    {
      "type": "Feature",
      "geometry": {
        "type": "Point",
        "coordinates": [
          -110.9506178,
          32.2264093
        ]
      },
      "properties": {
        "brand": "Flock Safety",
        "osmId": 13027144168,
        "osmType": "node",
        "startDate": null
      }
    },
    {
      "type": "Feature",
      "geometry": {
        "type": "Point",
        "coordinates": [
          -110.9565674,
          32.237377
        ]
      },
      "properties": {
        "brand": "Flock Safety",
        "osmId": 13027150131,
        "osmType": "node",
        "startDate": null
      }
    },
    {
      "type": "Feature",
      "geometry": {
        "type": "Point",
        "coordinates": [
          -110.9555048,
          32.2373701
        ]
      },
      "properties": {
        "brand": "Flock Safety",
        "osmId": 13027150413,
        "osmType": "node",
        "startDate": null
      }
    },
    {
      "type": "Feature",
      "geometry": {
        "type": "Point",
        "coordinates": [
          -110.9559482,
          32.2386585
        ]
      },
      "properties": {
        "brand": "Flock Safety",
        "osmId": 13027206833,
        "osmType": "node",
        "startDate": null
      }
    },
    {
      "type": "Feature",
      "geometry": {
        "type": "Point",
        "coordinates": [
          -110.9547024,
          32.2385627
        ]
      },
      "properties": {
        "brand": "Flock Safety",
        "osmId": 13027207220,
        "osmType": "node",
        "startDate": null
      }
    },
    {
      "type": "Feature",
      "geometry": {
        "type": "Point",
        "coordinates": [
          -110.9526825,
          32.2373828
        ]
      },
      "properties": {
        "brand": "Flock Safety",
        "osmId": 13027209495,
        "osmType": "node",
        "startDate": null
      }
    },
    {
      "type": "Feature",
      "geometry": {
        "type": "Point",
        "coordinates": [
          -110.9510816,
          32.2256029
        ]
      },
      "properties": {
        "brand": "Flock Safety",
        "osmId": 13032411500,
        "osmType": "node",
        "startDate": null
      }
    },
    {
      "type": "Feature",
      "geometry": {
        "type": "Point",
        "coordinates": [
          -110.9554709,
          32.2337173
        ]
      },
      "properties": {
        "brand": "Flock Safety",
        "osmId": 13032428438,
        "osmType": "node",
        "startDate": null
      }
    },
    {
      "type": "Feature",
      "geometry": {
        "type": "Point",
        "coordinates": [
          -110.9513575,
          32.2372371
        ]
      },
      "properties": {
        "brand": "Flock Safety",
        "osmId": 13032439761,
        "osmType": "node",
        "startDate": null
      }
    },
    {
      "type": "Feature",
      "geometry": {
        "type": "Point",
        "coordinates": [
          -110.9457762,
          32.2373021
        ]
      },
      "properties": {
        "brand": "Flock Safety",
        "osmId": 13032439762,
        "osmType": "node",
        "startDate": null
      }
    },
    {
      "type": "Feature",
      "geometry": {
        "type": "Point",
        "coordinates": [
          -110.9579682,
          32.2285894
        ]
      },
      "properties": {
        "brand": "Flock Safety",
        "osmId": 13032444545,
        "osmType": "node",
        "startDate": null
      }
    },
    {
      "type": "Feature",
      "geometry": {
        "type": "Point",
        "coordinates": [
          -110.9578031,
          32.227917
        ]
      },
      "properties": {
        "brand": "Flock Safety",
        "osmId": 13032454004,
        "osmType": "node",
        "startDate": null
      }
    },
    {
      "type": "Feature",
      "geometry": {
        "type": "Point",
        "coordinates": [
          -110.9494591,
          32.2265431
        ]
      },
      "properties": {
        "brand": "Flock Safety",
        "osmId": 13032457531,
        "osmType": "node",
        "startDate": null
      }
    },
    {
      "type": "Feature",
      "geometry": {
        "type": "Point",
        "coordinates": [
          -110.9578372,
          32.2302643
        ]
      },
      "properties": {
        "brand": "Flock Safety",
        "osmId": 13032463663,
        "osmType": "node",
        "startDate": null
      }
    },
    {
      "type": "Feature",
      "geometry": {
        "type": "Point",
        "coordinates": [
          -110.9509639,
          32.2285564
        ]
      },
      "properties": {
        "brand": "Flock Safety",
        "osmId": 13032464403,
        "osmType": "node",
        "startDate": null
      }
    },
    {
      "type": "Feature",
      "geometry": {
        "type": "Point",
        "coordinates": [
          -110.9524252,
          32.2344109
        ]
      },
      "properties": {
        "brand": "Flock Safety",
        "osmId": 13032471302,
        "osmType": "node",
        "startDate": null
      }
    },
    {
      "type": "Feature",
      "geometry": {
        "type": "Point",
        "coordinates": [
          -110.9593285,
          32.2284838
        ]
      },
      "properties": {
        "brand": "Flock Safety",
        "osmId": 13032474137,
        "osmType": "node",
        "startDate": null
      }
    },
    {
      "type": "Feature",
      "geometry": {
        "type": "Point",
        "coordinates": [
          -110.9518154,
          32.2348131
        ]
      },
      "properties": {
        "brand": "Flock Safety",
        "osmId": 13032474139,
        "osmType": "node",
        "startDate": null
      }
    },
    {
      "type": "Feature",
      "geometry": {
        "type": "Point",
        "coordinates": [
          -110.9517924,
          32.2348124
        ]
      },
      "properties": {
        "brand": "Flock Safety",
        "osmId": 13032474140,
        "osmType": "node",
        "startDate": null
      }
    },
    {
      "type": "Feature",
      "geometry": {
        "type": "Point",
        "coordinates": [
          -110.9568045,
          32.2285252
        ]
      },
      "properties": {
        "brand": "Flock Safety",
        "osmId": 13032474142,
        "osmType": "node",
        "startDate": null
      }
    },
    {
      "type": "Feature",
      "geometry": {
        "type": "Point",
        "coordinates": [
          -110.9579788,
          32.2311038
        ]
      },
      "properties": {
        "brand": "Flock Safety",
        "osmId": 13032484421,
        "osmType": "node",
        "startDate": null
      }
    },
    {
      "type": "Feature",
      "geometry": {
        "type": "Point",
        "coordinates": [
          -110.9590409,
          32.2330637
        ]
      },
      "properties": {
        "brand": "Flock Safety",
        "osmId": 13032484448,
        "osmType": "node",
        "startDate": null
      }
    },
    {
      "type": "Feature",
      "geometry": {
        "type": "Point",
        "coordinates": [
          -110.9579637,
          32.2284581
        ]
      },
      "properties": {
        "brand": "Flock Safety",
        "osmId": 13032490465,
        "osmType": "node",
        "startDate": null
      }
    },
    {
      "type": "Feature",
      "geometry": {
        "type": "Point",
        "coordinates": [
          -110.9522466,
          32.2349514
        ]
      },
      "properties": {
        "brand": "Flock Safety",
        "osmId": 13032490489,
        "osmType": "node",
        "startDate": null
      }
    },
    {
      "type": "Feature",
      "geometry": {
        "type": "Point",
        "coordinates": [
          -110.9446929,
          32.2348081
        ]
      },
      "properties": {
        "brand": "Flock Safety",
        "osmId": 13032490490,
        "osmType": "node",
        "startDate": null
      }
    },
    {
      "type": "Feature",
      "geometry": {
        "type": "Point",
        "coordinates": [
          -110.9527952,
          32.2279309
        ]
      },
      "properties": {
        "brand": "Flock Safety",
        "osmId": 13032494610,
        "osmType": "node",
        "startDate": null
      }
    },
    {
      "type": "Feature",
      "geometry": {
        "type": "Point",
        "coordinates": [
          -110.9446659,
          32.2348069
        ]
      },
      "properties": {
        "brand": "Flock Safety",
        "osmId": 13032497465,
        "osmType": "node",
        "startDate": null
      }
    },
    {
      "type": "Feature",
      "geometry": {
        "type": "Point",
        "coordinates": [
          -110.9483222,
          32.2370322
        ]
      },
      "properties": {
        "brand": "Flock Safety",
        "osmId": 13032503838,
        "osmType": "node",
        "startDate": null
      }
    },
    {
      "type": "Feature",
      "geometry": {
        "type": "Point",
        "coordinates": [
          -110.9509517,
          32.2303499
        ]
      },
      "properties": {
        "brand": "Flock Safety",
        "osmId": 13032506614,
        "osmType": "node",
        "startDate": null
      }
    },
    {
      "type": "Feature",
      "geometry": {
        "type": "Point",
        "coordinates": [
          -110.9528297,
          32.2281347
        ]
      },
      "properties": {
        "brand": "Flock Safety",
        "osmId": 13032506944,
        "osmType": "node",
        "startDate": null
      }
    },
    {
      "type": "Feature",
      "geometry": {
        "type": "Point",
        "coordinates": [
          -110.9563421,
          32.2282746
        ]
      },
      "properties": {
        "brand": "Flock Safety",
        "osmId": 13032508547,
        "osmType": "node",
        "startDate": null
      }
    },
    {
      "type": "Feature",
      "geometry": {
        "type": "Point",
        "coordinates": [
          -110.9480104,
          32.2362628
        ]
      },
      "properties": {
        "brand": "Flock Safety",
        "osmId": 13032510122,
        "osmType": "node",
        "startDate": null
      }
    },
    {
      "type": "Feature",
      "geometry": {
        "type": "Point",
        "coordinates": [
          -110.9442651,
          32.2374275
        ]
      },
      "properties": {
        "brand": "Flock Safety",
        "osmId": 13032510165,
        "osmType": "node",
        "startDate": null
      }
    },
    {
      "type": "Feature",
      "geometry": {
        "type": "Point",
        "coordinates": [
          -110.9497741,
          32.2279141
        ]
      },
      "properties": {
        "brand": "Flock Safety",
        "osmId": 13037711868,
        "osmType": "node",
        "startDate": null
      }
    },
    {
      "type": "Feature",
      "geometry": {
        "type": "Point",
        "coordinates": [
          -110.9498901,
          32.2279563
        ]
      },
      "properties": {
        "brand": "Flock Safety",
        "osmId": 13037715049,
        "osmType": "node",
        "startDate": null
      }
    },
    {
      "type": "Feature",
      "geometry": {
        "type": "Point",
        "coordinates": [
          -111.0496133,
          32.3367542
        ]
      },
      "properties": {
        "brand": "Flock Safety",
        "osmId": 13050127383,
        "osmType": "node",
        "startDate": null
      }
    },
    {
      "type": "Feature",
      "geometry": {
        "type": "Point",
        "coordinates": [
          -111.0487082,
          32.3283768
        ]
      },
      "properties": {
        "brand": "Flock Safety",
        "osmId": 13050141619,
        "osmType": "node",
        "startDate": null
      }
    },
    {
      "type": "Feature",
      "geometry": {
        "type": "Point",
        "coordinates": [
          -111.0487306,
          32.3288984
        ]
      },
      "properties": {
        "brand": "Flock Safety",
        "osmId": 13050144929,
        "osmType": "node",
        "startDate": null
      }
    },
    {
      "type": "Feature",
      "geometry": {
        "type": "Point",
        "coordinates": [
          -111.0499969,
          32.3274983
        ]
      },
      "properties": {
        "brand": "Flock Safety",
        "osmId": 13050145443,
        "osmType": "node",
        "startDate": null
      }
    },
    {
      "type": "Feature",
      "geometry": {
        "type": "Point",
        "coordinates": [
          -111.0497574,
          32.3352805
        ]
      },
      "properties": {
        "brand": "Flock Safety",
        "osmId": 13050146655,
        "osmType": "node",
        "startDate": null
      }
    },
    {
      "type": "Feature",
      "geometry": {
        "type": "Point",
        "coordinates": [
          -111.0516533,
          32.3373032
        ]
      },
      "properties": {
        "brand": "Flock Safety",
        "osmId": 13050148743,
        "osmType": "node",
        "startDate": null
      }
    },
    {
      "type": "Feature",
      "geometry": {
        "type": "Point",
        "coordinates": [
          -111.0497813,
          32.3352757
        ]
      },
      "properties": {
        "brand": "Flock Safety",
        "osmId": 13050153839,
        "osmType": "node",
        "startDate": null
      }
    },
    {
      "type": "Feature",
      "geometry": {
        "type": "Point",
        "coordinates": [
          -110.976384,
          32.2829344
        ]
      },
      "properties": {
        "brand": "Flock Safety",
        "osmId": 13050162581,
        "osmType": "node",
        "startDate": null
      }
    },
    {
      "type": "Feature",
      "geometry": {
        "type": "Point",
        "coordinates": [
          -110.9786245,
          32.2820707
        ]
      },
      "properties": {
        "brand": "Flock Safety",
        "osmId": 13050173332,
        "osmType": "node",
        "startDate": null
      }
    },
    {
      "type": "Feature",
      "geometry": {
        "type": "Point",
        "coordinates": [
          -110.9753956,
          32.2829918
        ]
      },
      "properties": {
        "brand": "Flock Safety",
        "osmId": 13050176779,
        "osmType": "node",
        "startDate": null
      }
    },
    {
      "type": "Feature",
      "geometry": {
        "type": "Point",
        "coordinates": [
          -110.9796773,
          32.2825977
        ]
      },
      "properties": {
        "brand": "Flock Safety",
        "osmId": 13050177126,
        "osmType": "node",
        "startDate": null
      }
    },
    {
      "type": "Feature",
      "geometry": {
        "type": "Point",
        "coordinates": [
          -110.9548557,
          32.402183
        ]
      },
      "properties": {
        "brand": "Flock Safety",
        "osmId": 13058297060,
        "osmType": "node",
        "startDate": null
      }
    },
    {
      "type": "Feature",
      "geometry": {
        "type": "Point",
        "coordinates": [
          -110.9144639,
          32.2236575
        ]
      },
      "properties": {
        "brand": "Flock Safety",
        "osmId": 13058300339,
        "osmType": "node",
        "startDate": null
      }
    },
    {
      "type": "Feature",
      "geometry": {
        "type": "Point",
        "coordinates": [
          -110.9540707,
          32.4015373
        ]
      },
      "properties": {
        "brand": "Flock Safety",
        "osmId": 13058345393,
        "osmType": "node",
        "startDate": null
      }
    },
    {
      "type": "Feature",
      "geometry": {
        "type": "Point",
        "coordinates": [
          -110.9135616,
          32.2255212
        ]
      },
      "properties": {
        "brand": "Flock Safety",
        "osmId": 13058349117,
        "osmType": "node",
        "startDate": null
      }
    },
    {
      "type": "Feature",
      "geometry": {
        "type": "Point",
        "coordinates": [
          -110.9146895,
          32.2255557
        ]
      },
      "properties": {
        "brand": "Flock Safety",
        "osmId": 13058357874,
        "osmType": "node",
        "startDate": null
      }
    },
    {
      "type": "Feature",
      "geometry": {
        "type": "Point",
        "coordinates": [
          -110.9135348,
          32.2240179
        ]
      },
      "properties": {
        "brand": "Flock Safety",
        "osmId": 13058361235,
        "osmType": "node",
        "startDate": null
      }
    },
    {
      "type": "Feature",
      "geometry": {
        "type": "Point",
        "coordinates": [
          -110.8273374,
          32.222316
        ]
      },
      "properties": {
        "brand": "Flock Safety",
        "osmId": 13058370757,
        "osmType": "node",
        "startDate": null
      }
    },
    {
      "type": "Feature",
      "geometry": {
        "type": "Point",
        "coordinates": [
          -110.827783,
          32.2219931
        ]
      },
      "properties": {
        "brand": "Flock Safety",
        "osmId": 13058397851,
        "osmType": "node",
        "startDate": null
      }
    },
    {
      "type": "Feature",
      "geometry": {
        "type": "Point",
        "coordinates": [
          -110.8271107,
          32.2230585
        ]
      },
      "properties": {
        "brand": "Flock Safety",
        "osmId": 13058400810,
        "osmType": "node",
        "startDate": null
      }
    },
    {
      "type": "Feature",
      "geometry": {
        "type": "Point",
        "coordinates": [
          -110.8289919,
          32.2223193
        ]
      },
      "properties": {
        "brand": "Flock Safety",
        "osmId": 13058401413,
        "osmType": "node",
        "startDate": null
      }
    },
    {
      "type": "Feature",
      "geometry": {
        "type": "Point",
        "coordinates": [
          -110.8289832,
          32.2222956
        ]
      },
      "properties": {
        "brand": "Flock Safety",
        "osmId": 13058403178,
        "osmType": "node",
        "startDate": null
      }
    },
    {
      "type": "Feature",
      "geometry": {
        "type": "Point",
        "coordinates": [
          -110.8391649,
          32.2358749
        ]
      },
      "properties": {
        "brand": "Flock Safety",
        "osmId": 13058547563,
        "osmType": "node",
        "startDate": null
      }
    },
    {
      "type": "Feature",
      "geometry": {
        "type": "Point",
        "coordinates": [
          -110.9764088,
          32.2835129
        ]
      },
      "properties": {
        "brand": "Flock Safety",
        "osmId": 13058549288,
        "osmType": "node",
        "startDate": null
      }
    },
    {
      "type": "Feature",
      "geometry": {
        "type": "Point",
        "coordinates": [
          -110.9764055,
          32.2834811
        ]
      },
      "properties": {
        "brand": "Flock Safety",
        "osmId": 13058614681,
        "osmType": "node",
        "startDate": null
      }
    },
    {
      "type": "Feature",
      "geometry": {
        "type": "Point",
        "coordinates": [
          -110.9876726,
          32.1604314
        ]
      },
      "properties": {
        "brand": "Flock Safety",
        "osmId": 13059894123,
        "osmType": "node",
        "startDate": null
      }
    },
    {
      "type": "Feature",
      "geometry": {
        "type": "Point",
        "coordinates": [
          -110.9885889,
          32.1620977
        ]
      },
      "properties": {
        "brand": "Flock Safety",
        "osmId": 13059901191,
        "osmType": "node",
        "startDate": null
      }
    },
    {
      "type": "Feature",
      "geometry": {
        "type": "Point",
        "coordinates": [
          -111.0059319,
          32.1341314
        ]
      },
      "properties": {
        "brand": "Flock Safety",
        "osmId": 13059901193,
        "osmType": "node",
        "startDate": null
      }
    },
    {
      "type": "Feature",
      "geometry": {
        "type": "Point",
        "coordinates": [
          -111.0033694,
          32.135275
        ]
      },
      "properties": {
        "brand": "Flock Safety",
        "osmId": 13059903442,
        "osmType": "node",
        "startDate": null
      }
    },
    {
      "type": "Feature",
      "geometry": {
        "type": "Point",
        "coordinates": [
          -110.9885775,
          32.1621971
        ]
      },
      "properties": {
        "brand": "Flock Safety",
        "osmId": 13059913501,
        "osmType": "node",
        "startDate": null
      }
    },
    {
      "type": "Feature",
      "geometry": {
        "type": "Point",
        "coordinates": [
          -110.9883645,
          32.1603363
        ]
      },
      "properties": {
        "brand": "Flock Safety",
        "osmId": 13059914844,
        "osmType": "node",
        "startDate": null
      }
    },
    {
      "type": "Feature",
      "geometry": {
        "type": "Point",
        "coordinates": [
          -111.0041955,
          32.1340264
        ]
      },
      "properties": {
        "brand": "Flock Safety",
        "osmId": 13059923435,
        "osmType": "node",
        "startDate": null
      }
    },
    {
      "type": "Feature",
      "geometry": {
        "type": "Point",
        "coordinates": [
          -111.0050646,
          32.1340698
        ]
      },
      "properties": {
        "brand": "Flock Safety",
        "osmId": 13059926209,
        "osmType": "node",
        "startDate": null
      }
    },
    {
      "type": "Feature",
      "geometry": {
        "type": "Point",
        "coordinates": [
          -110.9566793,
          32.2352101
        ]
      },
      "properties": {
        "brand": "Flock Safety",
        "osmId": 13102890122,
        "osmType": "node",
        "startDate": null
      }
    },
    {
      "type": "Feature",
      "geometry": {
        "type": "Point",
        "coordinates": [
          -110.9587614,
          32.2342463
        ]
      },
      "properties": {
        "brand": "Flock Safety",
        "osmId": 13102894158,
        "osmType": "node",
        "startDate": null
      }
    },
    {
      "type": "Feature",
      "geometry": {
        "type": "Point",
        "coordinates": [
          -110.9566745,
          32.2352646
        ]
      },
      "properties": {
        "brand": "Flock Safety",
        "osmId": 13102900048,
        "osmType": "node",
        "startDate": null
      }
    },
    {
      "type": "Feature",
      "geometry": {
        "type": "Point",
        "coordinates": [
          -110.95907,
          32.2343788
        ]
      },
      "properties": {
        "brand": "Flock Safety",
        "osmId": 13102904334,
        "osmType": "node",
        "startDate": null
      }
    },
    {
      "type": "Feature",
      "geometry": {
        "type": "Point",
        "coordinates": [
          -110.979788,
          32.3374016
        ]
      },
      "properties": {
        "brand": "Flock Safety",
        "osmId": 13105173283,
        "osmType": "node",
        "startDate": null
      }
    },
    {
      "type": "Feature",
      "geometry": {
        "type": "Point",
        "coordinates": [
          -110.9955611,
          32.3955592
        ]
      },
      "properties": {
        "brand": "Flock Safety",
        "osmId": 13175955063,
        "osmType": "node",
        "startDate": null
      }
    },
    {
      "type": "Feature",
      "geometry": {
        "type": "Point",
        "coordinates": [
          -110.968231,
          32.1881146
        ]
      },
      "properties": {
        "brand": "Flock Safety",
        "osmId": 13182018795,
        "osmType": "node",
        "startDate": null
      }
    },
    {
      "type": "Feature",
      "geometry": {
        "type": "Point",
        "coordinates": [
          -110.965183,
          32.1881039
        ]
      },
      "properties": {
        "brand": "Flock Safety",
        "osmId": 13182229976,
        "osmType": "node",
        "startDate": null
      }
    },
    {
      "type": "Feature",
      "geometry": {
        "type": "Point",
        "coordinates": [
          -110.9682349,
          32.1881181
        ]
      },
      "properties": {
        "brand": "Flock Safety",
        "osmId": 13182237478,
        "osmType": "node",
        "startDate": null
      }
    },
    {
      "type": "Feature",
      "geometry": {
        "type": "Point",
        "coordinates": [
          -110.9654918,
          32.2000583
        ]
      },
      "properties": {
        "brand": "Flock Safety",
        "osmId": 13182252780,
        "osmType": "node",
        "startDate": null
      }
    },
    {
      "type": "Feature",
      "geometry": {
        "type": "Point",
        "coordinates": [
          -110.9685889,
          32.2020086
        ]
      },
      "properties": {
        "brand": "Flock Safety",
        "osmId": 13197993923,
        "osmType": "node",
        "startDate": null
      }
    },
    {
      "type": "Feature",
      "geometry": {
        "type": "Point",
        "coordinates": [
          -110.9616772,
          32.1925215
        ]
      },
      "properties": {
        "brand": "Flock Safety",
        "osmId": 13236791122,
        "osmType": "node",
        "startDate": null
      }
    },
    {
      "type": "Feature",
      "geometry": {
        "type": "Point",
        "coordinates": [
          -110.920002,
          32.12508
        ]
      },
      "properties": {
        "brand": "Flock Safety",
        "osmId": 13236896714,
        "osmType": "node",
        "startDate": null
      }
    },
    {
      "type": "Feature",
      "geometry": {
        "type": "Point",
        "coordinates": [
          -110.9202982,
          32.1253845
        ]
      },
      "properties": {
        "brand": "Flock Safety",
        "osmId": 13236906495,
        "osmType": "node",
        "startDate": null
      }
    },
    {
      "type": "Feature",
      "geometry": {
        "type": "Point",
        "coordinates": [
          -111.0131811,
          32.4240699
        ]
      },
      "properties": {
        "brand": "Flock Safety",
        "osmId": 13250730360,
        "osmType": "node",
        "startDate": null
      }
    },
    {
      "type": "Feature",
      "geometry": {
        "type": "Point",
        "coordinates": [
          -111.0126627,
          32.4237204
        ]
      },
      "properties": {
        "brand": "Flock Safety",
        "osmId": 13250730362,
        "osmType": "node",
        "startDate": null
      }
    },
    {
      "type": "Feature",
      "geometry": {
        "type": "Point",
        "coordinates": [
          -110.9954388,
          32.395175
        ]
      },
      "properties": {
        "brand": "Flock Safety",
        "osmId": 13250730364,
        "osmType": "node",
        "startDate": null
      }
    },
    {
      "type": "Feature",
      "geometry": {
        "type": "Point",
        "coordinates": [
          -111.0131282,
          32.3954697
        ]
      },
      "properties": {
        "brand": "Flock Safety",
        "osmId": 13250730365,
        "osmType": "node",
        "startDate": null
      }
    },
    {
      "type": "Feature",
      "geometry": {
        "type": "Point",
        "coordinates": [
          -111.0130696,
          32.3951005
        ]
      },
      "properties": {
        "brand": "Flock Safety",
        "osmId": 13250730373,
        "osmType": "node",
        "startDate": null
      }
    },
    {
      "type": "Feature",
      "geometry": {
        "type": "Point",
        "coordinates": [
          -110.9959399,
          32.3950744
        ]
      },
      "properties": {
        "brand": "Flock Safety",
        "osmId": 13250730374,
        "osmType": "node",
        "startDate": null
      }
    },
    {
      "type": "Feature",
      "geometry": {
        "type": "Point",
        "coordinates": [
          -111.0131548,
          32.4099469
        ]
      },
      "properties": {
        "brand": "Flock Safety",
        "osmId": 13250730375,
        "osmType": "node",
        "startDate": null
      }
    },
    {
      "type": "Feature",
      "geometry": {
        "type": "Point",
        "coordinates": [
          -111.0126506,
          32.4097243
        ]
      },
      "properties": {
        "brand": "Flock Safety",
        "osmId": 13250730376,
        "osmType": "node",
        "startDate": null
      }
    },
    {
      "type": "Feature",
      "geometry": {
        "type": "Point",
        "coordinates": [
          -110.978406,
          32.3516529
        ]
      },
      "properties": {
        "brand": "Flock Safety",
        "osmId": 13260245755,
        "osmType": "node",
        "startDate": null
      }
    },
    {
      "type": "Feature",
      "geometry": {
        "type": "Point",
        "coordinates": [
          -110.9460553,
          32.2277445
        ]
      },
      "properties": {
        "brand": "Flock Safety",
        "osmId": 13261876151,
        "osmType": "node",
        "startDate": null
      }
    },
    {
      "type": "Feature",
      "geometry": {
        "type": "Point",
        "coordinates": [
          -110.9590707,
          32.2278869
        ]
      },
      "properties": {
        "brand": "Flock Safety",
        "osmId": 13264006503,
        "osmType": "node",
        "startDate": null
      }
    },
    {
      "type": "Feature",
      "geometry": {
        "type": "Point",
        "coordinates": [
          -110.9490252,
          32.2416533
        ]
      },
      "properties": {
        "brand": "Flock Safety",
        "osmId": 13278796444,
        "osmType": "node",
        "startDate": null
      }
    },
    {
      "type": "Feature",
      "geometry": {
        "type": "Point",
        "coordinates": [
          -110.9448128,
          32.242757
        ]
      },
      "properties": {
        "brand": "Flock Safety",
        "osmId": 13278800030,
        "osmType": "node",
        "startDate": null
      }
    },
    {
      "type": "Feature",
      "geometry": {
        "type": "Point",
        "coordinates": [
          -110.9490257,
          32.2416689
        ]
      },
      "properties": {
        "brand": "Flock Safety",
        "osmId": 13278803405,
        "osmType": "node",
        "startDate": null
      }
    },
    {
      "type": "Feature",
      "geometry": {
        "type": "Point",
        "coordinates": [
          -110.9524168,
          32.4030591
        ]
      },
      "properties": {
        "brand": "Flock Safety",
        "osmId": 13293707173,
        "osmType": "node",
        "startDate": null
      }
    },
    {
      "type": "Feature",
      "geometry": {
        "type": "Point",
        "coordinates": [
          -111.0883198,
          32.3374408
        ]
      },
      "properties": {
        "brand": "Flock Safety",
        "osmId": 13327395101,
        "osmType": "node",
        "startDate": null
      }
    },
    {
      "type": "Feature",
      "geometry": {
        "type": "Point",
        "coordinates": [
          -110.9757947,
          32.3464427
        ]
      },
      "properties": {
        "brand": "Flock Safety",
        "osmId": 13338965001,
        "osmType": "node",
        "startDate": null
      }
    },
    {
      "type": "Feature",
      "geometry": {
        "type": "Point",
        "coordinates": [
          -110.9521201,
          32.2917043
        ]
      },
      "properties": {
        "brand": "Flock Safety",
        "osmId": 13342993401,
        "osmType": "node",
        "startDate": null
      }
    },
    {
      "type": "Feature",
      "geometry": {
        "type": "Point",
        "coordinates": [
          -110.9521201,
          32.2917043
        ]
      },
      "properties": {
        "brand": "Flock Safety",
        "osmId": 13342994801,
        "osmType": "node",
        "startDate": null
      }
    },
    {
      "type": "Feature",
      "geometry": {
        "type": "Point",
        "coordinates": [
          -110.9546998,
          32.2917075
        ]
      },
      "properties": {
        "brand": "Flock Safety",
        "osmId": 13343007201,
        "osmType": "node",
        "startDate": null
      }
    },
    {
      "type": "Feature",
      "geometry": {
        "type": "Point",
        "coordinates": [
          -110.9546998,
          32.2917075
        ]
      },
      "properties": {
        "brand": "Flock Safety",
        "osmId": 13343008101,
        "osmType": "node",
        "startDate": null
      }
    },
    {
      "type": "Feature",
      "geometry": {
        "type": "Point",
        "coordinates": [
          -110.9594064,
          32.2361815
        ]
      },
      "properties": {
        "brand": "Flock Safety",
        "osmId": 13348946902,
        "osmType": "node",
        "startDate": null
      }
    },
    {
      "type": "Feature",
      "geometry": {
        "type": "Point",
        "coordinates": [
          -110.9594417,
          32.2367048
        ]
      },
      "properties": {
        "brand": "Flock Safety",
        "osmId": 13348946903,
        "osmType": "node",
        "startDate": null
      }
    },
    {
      "type": "Feature",
      "geometry": {
        "type": "Point",
        "coordinates": [
          -110.8566969,
          32.2220419
        ]
      },
      "properties": {
        "brand": "Flock Safety",
        "osmId": 13356792501,
        "osmType": "node",
        "startDate": null
      }
    },
    {
      "type": "Feature",
      "geometry": {
        "type": "Point",
        "coordinates": [
          -110.8566969,
          32.2220419
        ]
      },
      "properties": {
        "brand": "Flock Safety",
        "osmId": 13381983801,
        "osmType": "node",
        "startDate": null
      }
    },
    {
      "type": "Feature",
      "geometry": {
        "type": "Point",
        "coordinates": [
          -110.8566969,
          32.2220419
        ]
      },
      "properties": {
        "brand": "Flock Safety",
        "osmId": 13381983901,
        "osmType": "node",
        "startDate": null
      }
    },
    {
      "type": "Feature",
      "geometry": {
        "type": "Point",
        "coordinates": [
          -110.9775923,
          32.3393617
        ]
      },
      "properties": {
        "brand": "Flock Safety",
        "osmId": 13430845301,
        "osmType": "node",
        "startDate": null
      }
    },
    {
      "type": "Feature",
      "geometry": {
        "type": "Point",
        "coordinates": [
          -110.785795,
          32.1172918
        ]
      },
      "properties": {
        "brand": "Flock Safety",
        "osmId": 13439179301,
        "osmType": "node",
        "startDate": null
      }
    },
    {
      "type": "Feature",
      "geometry": {
        "type": "Point",
        "coordinates": [
          -110.8974257,
          32.2362102
        ]
      },
      "properties": {
        "brand": "Flock Safety",
        "osmId": 13447193801,
        "osmType": "node",
        "startDate": null
      }
    },
    {
      "type": "Feature",
      "geometry": {
        "type": "Point",
        "coordinates": [
          -110.9337096,
          32.4411011
        ]
      },
      "properties": {
        "brand": "Flock Safety",
        "osmId": 13450661701,
        "osmType": "node",
        "startDate": null
      }
    },
    {
      "type": "Feature",
      "geometry": {
        "type": "Point",
        "coordinates": [
          -110.8706895,
          32.3236893
        ]
      },
      "properties": {
        "brand": "Flock Safety",
        "osmId": 13453758111,
        "osmType": "node",
        "startDate": null
      }
    },
    {
      "type": "Feature",
      "geometry": {
        "type": "Point",
        "coordinates": [
          -110.8617292,
          32.3229255
        ]
      },
      "properties": {
        "brand": "Flock Safety",
        "osmId": 13453860907,
        "osmType": "node",
        "startDate": null
      }
    },
    {
      "type": "Feature",
      "geometry": {
        "type": "Point",
        "coordinates": [
          -110.7729385,
          32.1187692
        ]
      },
      "properties": {
        "brand": "Flock Safety",
        "osmId": 13458286501,
        "osmType": "node",
        "startDate": null
      }
    },
    {
      "type": "Feature",
      "geometry": {
        "type": "Point",
        "coordinates": [
          -110.7976005,
          32.2581652
        ]
      },
      "properties": {
        "brand": "Flock Safety",
        "osmId": 13458291601,
        "osmType": "node",
        "startDate": null
      }
    },
    {
      "type": "Feature",
      "geometry": {
        "type": "Point",
        "coordinates": [
          -110.8026832,
          32.2577046
        ]
      },
      "properties": {
        "brand": "Flock Safety",
        "osmId": 13458292101,
        "osmType": "node",
        "startDate": null
      }
    },
    {
      "type": "Feature",
      "geometry": {
        "type": "Point",
        "coordinates": [
          -110.9601121,
          32.3958286
        ]
      },
      "properties": {
        "brand": "Flock Safety",
        "osmId": 13472486801,
        "osmType": "node",
        "startDate": null
      }
    },
    {
      "type": "Feature",
      "geometry": {
        "type": "Point",
        "coordinates": [
          -110.9400594,
          32.4424041
        ]
      },
      "properties": {
        "brand": "Flock Safety",
        "osmId": 13505755228,
        "osmType": "node",
        "startDate": null
      }
    },
    {
      "type": "Feature",
      "geometry": {
        "type": "Point",
        "coordinates": [
          -110.8839522,
          32.2437573
        ]
      },
      "properties": {
        "brand": "Flock Safety",
        "osmId": 13512700201,
        "osmType": "node",
        "startDate": null
      }
    },
    {
      "type": "Feature",
      "geometry": {
        "type": "Point",
        "coordinates": [
          -110.9592878,
          32.2304628
        ]
      },
      "properties": {
        "brand": "Flock Safety",
        "osmId": 13512793201,
        "osmType": "node",
        "startDate": null
      }
    },
    {
      "type": "Feature",
      "geometry": {
        "type": "Point",
        "coordinates": [
          -110.8707625,
          32.3240326
        ]
      },
      "properties": {
        "brand": "Flock Safety",
        "osmId": 13533186677,
        "osmType": "node",
        "startDate": null
      }
    },
    {
      "type": "Feature",
      "geometry": {
        "type": "Point",
        "coordinates": [
          -111.0496037,
          32.3367101
        ]
      },
      "properties": {
        "brand": "Flock Safety",
        "osmId": 13541856073,
        "osmType": "node",
        "startDate": null
      }
    },
    {
      "type": "Feature",
      "geometry": {
        "type": "Point",
        "coordinates": [
          -110.9334614,
          32.2834305
        ]
      },
      "properties": {
        "brand": "Flock Safety",
        "osmId": 13568792401,
        "osmType": "node",
        "startDate": null
      }
    },
    {
      "type": "Feature",
      "geometry": {
        "type": "Point",
        "coordinates": [
          -110.7454335,
          32.3036951
        ]
      },
      "properties": {
        "brand": "Flock Safety",
        "osmId": 13574227301,
        "osmType": "node",
        "startDate": null
      }
    },
    {
      "type": "Feature",
      "geometry": {
        "type": "Point",
        "coordinates": [
          -110.9711794,
          32.4664383
        ]
      },
      "properties": {
        "brand": "Flock Safety",
        "osmId": 13599771301,
        "osmType": "node",
        "startDate": null
      }
    },
    {
      "type": "Feature",
      "geometry": {
        "type": "Point",
        "coordinates": [
          -110.8700811,
          32.320255
        ]
      },
      "properties": {
        "brand": "Flock Safety",
        "osmId": 13624149266,
        "osmType": "node",
        "startDate": null
      }
    },
    {
      "type": "Feature",
      "geometry": {
        "type": "Point",
        "coordinates": [
          -110.871012,
          32.3203401
        ]
      },
      "properties": {
        "brand": "Flock Safety",
        "osmId": 13624211581,
        "osmType": "node",
        "startDate": null
      }
    },
    {
      "type": "Feature",
      "geometry": {
        "type": "Point",
        "coordinates": [
          -110.8544574,
          32.2855246
        ]
      },
      "properties": {
        "brand": "Flock Safety",
        "osmId": 13641590602,
        "osmType": "node",
        "startDate": null
      }
    },
    {
      "type": "Feature",
      "geometry": {
        "type": "Point",
        "coordinates": [
          -110.8544225,
          32.2856115
        ]
      },
      "properties": {
        "brand": "Flock Safety",
        "osmId": 13641597801,
        "osmType": "node",
        "startDate": null
      }
    },
    {
      "type": "Feature",
      "geometry": {
        "type": "Point",
        "coordinates": [
          -110.8750506,
          32.1999888
        ]
      },
      "properties": {
        "brand": "Flock Safety",
        "osmId": 13653444901,
        "osmType": "node",
        "startDate": null
      }
    },
    {
      "type": "Feature",
      "geometry": {
        "type": "Point",
        "coordinates": [
          -110.8748938,
          32.2075261
        ]
      },
      "properties": {
        "brand": "Flock Safety",
        "osmId": 13653456301,
        "osmType": "node",
        "startDate": null
      }
    },
    {
      "type": "Feature",
      "geometry": {
        "type": "Point",
        "coordinates": [
          -110.8536172,
          32.1191851
        ]
      },
      "properties": {
        "brand": "Flock Safety",
        "osmId": 13662738402,
        "osmType": "node",
        "startDate": null
      }
    },
    {
      "type": "Feature",
      "geometry": {
        "type": "Point",
        "coordinates": [
          -110.8519516,
          32.1183624
        ]
      },
      "properties": {
        "brand": "Flock Safety",
        "osmId": 13662738601,
        "osmType": "node",
        "startDate": null
      }
    },
    {
      "type": "Feature",
      "geometry": {
        "type": "Point",
        "coordinates": [
          -110.8524406,
          32.1180161
        ]
      },
      "properties": {
        "brand": "Flock Safety",
        "osmId": 13662740001,
        "osmType": "node",
        "startDate": null
      }
    },
    {
      "type": "Feature",
      "geometry": {
        "type": "Point",
        "coordinates": [
          -110.8537007,
          32.1187844
        ]
      },
      "properties": {
        "brand": "Flock Safety",
        "osmId": 13662743102,
        "osmType": "node",
        "startDate": null
      }
    },
    {
      "type": "Feature",
      "geometry": {
        "type": "Point",
        "coordinates": [
          -110.9683322,
          32.1805128
        ]
      },
      "properties": {
        "brand": "Flock Safety",
        "osmId": 13672439801,
        "osmType": "node",
        "startDate": null
      }
    },
    {
      "type": "Feature",
      "geometry": {
        "type": "Point",
        "coordinates": [
          -110.9774827,
          32.1629244
        ]
      },
      "properties": {
        "brand": "Flock Safety",
        "osmId": 13695808001,
        "osmType": "node",
        "startDate": null
      }
    },
    {
      "type": "Feature",
      "geometry": {
        "type": "Point",
        "coordinates": [
          -110.8589024,
          32.3273047
        ]
      },
      "properties": {
        "brand": "Flock Safety",
        "osmId": 13733970854,
        "osmType": "node",
        "startDate": null
      }
    },
    {
      "type": "Feature",
      "geometry": {
        "type": "Point",
        "coordinates": [
          -110.9778484,
          32.258873
        ]
      },
      "properties": {
        "brand": "Flock Safety",
        "osmId": 13742008231,
        "osmType": "node",
        "startDate": null
      }
    },
    {
      "type": "Feature",
      "geometry": {
        "type": "Point",
        "coordinates": [
          -110.7849173,
          32.1159425
        ]
      },
      "properties": {
        "brand": "Flock Safety",
        "osmId": 13753967636,
        "osmType": "node",
        "startDate": null
      }
    },
    {
      "type": "Feature",
      "geometry": {
        "type": "Point",
        "coordinates": [
          -110.8570613,
          32.2436966
        ]
      },
      "properties": {
        "brand": "Flock Safety",
        "osmId": 13759015801,
        "osmType": "node",
        "startDate": null
      }
    },
    {
      "type": "Feature",
      "geometry": {
        "type": "Point",
        "coordinates": [
          -110.8577028,
          32.242142
        ]
      },
      "properties": {
        "brand": "Flock Safety",
        "osmId": 13759016901,
        "osmType": "node",
        "startDate": null
      }
    },
    {
      "type": "Feature",
      "geometry": {
        "type": "Point",
        "coordinates": [
          -110.9334617,
          32.2833055
        ]
      },
      "properties": {
        "brand": "Flock Safety",
        "osmId": 13778766601,
        "osmType": "node",
        "startDate": null
      }
    },
    {
      "type": "Feature",
      "geometry": {
        "type": "Point",
        "coordinates": [
          -110.7729812,
          32.1622661
        ]
      },
      "properties": {
        "brand": "Flock Safety",
        "osmId": 13787482526,
        "osmType": "node",
        "startDate": null
      }
    },
    {
      "type": "Feature",
      "geometry": {
        "type": "Point",
        "coordinates": [
          -110.8589983,
          32.3270947
        ]
      },
      "properties": {
        "brand": "Flock Safety",
        "osmId": 13799906794,
        "osmType": "node",
        "startDate": null
      }
    },
    {
      "type": "Feature",
      "geometry": {
        "type": "Point",
        "coordinates": [
          -110.8258676,
          32.2348621
        ]
      },
      "properties": {
        "brand": "Flock Safety",
        "osmId": 13818887101,
        "osmType": "node",
        "startDate": null
      }
    },
    {
      "type": "Feature",
      "geometry": {
        "type": "Point",
        "coordinates": [
          -110.8033575,
          32.2584088
        ]
      },
      "properties": {
        "brand": "Flock Safety",
        "osmId": 13886383401,
        "osmType": "node",
        "startDate": null
      }
    },
    {
      "type": "Feature",
      "geometry": {
        "type": "Point",
        "coordinates": [
          -110.8397971,
          32.2515617
        ]
      },
      "properties": {
        "brand": "Flock Safety",
        "osmId": 13890144401,
        "osmType": "node",
        "startDate": null
      }
    },
    {
      "type": "Feature",
      "geometry": {
        "type": "Point",
        "coordinates": [
          -110.8394906,
          32.2515898
        ]
      },
      "properties": {
        "brand": "Flock Safety",
        "osmId": 13890145201,
        "osmType": "node",
        "startDate": null
      }
    },
    {
      "type": "Feature",
      "geometry": {
        "type": "Point",
        "coordinates": [
          -111.0822819,
          32.4400805
        ]
      },
      "properties": {
        "brand": "Flock Safety",
        "osmId": 13912413901,
        "osmType": "node",
        "startDate": null
      }
    },
    {
      "type": "Feature",
      "geometry": {
        "type": "Point",
        "coordinates": [
          -110.802007,
          32.2606268
        ]
      },
      "properties": {
        "brand": "Flock Safety",
        "osmId": 13915738901,
        "osmType": "node",
        "startDate": null
      }
    }
  ]
}
