{
  "type": "FeatureCollection",
  "features": [
    {
      "type": "Feature",
      "properties": {},
      "geometry": {
        "type": "LineString",
        "coordinates": [
          [-110.9678434, 32.3157845],
          [-110.9680062, 32.3157052],
          [-110.9681198, 32.315626],
          [-110.9682037, 32.3155551],
          [-110.968263, 32.3154831],
          [-110.968332, 32.3153548],
          [-110.9683517, 32.3152464],
          [-110.9683863, 32.3151212],
          [-110.9684603, 32.3147917],
          [-110.9685492, 32.3144413],
          [-110.96863, 32.3140637],
          [-110.9686531, 32.3139312],
          [-110.9686235, 32.3137852],
          [-110.9686432, 32.3136601],
          [-110.9686729, 32.3135349],
          [-110.9688308, 32.3134181],
          [-110.9689838, 32.3133222],
          [-110.9692321, 32.3131781],
          [-110.9695503, 32.3129706],
          [-110.969665, 32.3128884],
          [-110.9697094, 32.3127841],
          [-110.9697439, 32.3126948],
          [-110.969739, 32.3125988],
          [-110.969739, 32.3123611],
          [-110.9697341, 32.3120649],
          [-110.9697354, 32.3118767],
          [-110.969765, 32.3117474],
          [-110.9697958, 32.3116795],
          [-110.9700223, 32.3115589],
          [-110.9703826, 32.3114128],
          [-110.9707571, 32.3112593],
          [-110.9711282, 32.3111131],
          [-110.9713516, 32.3109811],
          [-110.9714136, 32.3108797],
          [-110.9714482, 32.3107379],
          [-110.9714235, 32.3106002],
          [-110.971384, 32.3104917],
          [-110.9712754, 32.3104292],
          [-110.9711767, 32.3104083],
          [-110.9710434, 32.3103958],
          [-110.9709052, 32.3104041],
          [-110.9707596, 32.3104118],
          [-110.9705967, 32.3103742],
          [-110.9704437, 32.3103075],
          [-110.9702098, 32.3100756],
          [-110.9699687, 32.3098226],
          [-110.9697663, 32.3096224],
          [-110.969712, 32.3094805],
          [-110.9697318, 32.3093595],
          [-110.9698255, 32.3092302],
          [-110.9699934, 32.3091301],
          [-110.9701777, 32.3090402],
          [-110.9703487, 32.3089457],
          [-110.9705263, 32.3087746],
          [-110.9706251, 32.308662],
          [-110.9709558, 32.3083658],
          [-110.9714056, 32.3079283],
          [-110.971933, 32.3074247],
          [-110.9721995, 32.3071953],
          [-110.9723574, 32.3070534],
          [-110.9724931, 32.3069442],
          [-110.972703, 32.3068282],
          [-110.9729201, 32.3067197],
          [-110.9730929, 32.3066363],
          [-110.973228, 32.3065369],
          [-110.9733002, 32.3064694],
          [-110.9733347, 32.3063943],
          [-110.9733446, 32.3063192],
          [-110.9733249, 32.3062608],
          [-110.9732903, 32.3061774],
          [-110.9732253, 32.3061099],
          [-110.9731562, 32.3060807],
          [-110.9730328, 32.3060431],
          [-110.9729143, 32.3060014],
          [-110.9727761, 32.3059514],
          [-110.9726457, 32.3058628],
          [-110.9725145, 32.3057553],
          [-110.9724208, 32.3056552],
          [-110.9723763, 32.3055926],
          [-110.9723566, 32.3055217],
          [-110.9723566, 32.3054341],
          [-110.9723925, 32.3053492],
          [-110.9726077, 32.3050068],
          [-110.9726077, 32.3050068],
          [-110.9728095, 32.3047868],
          [-110.9730069, 32.3045282],
          [-110.9730662, 32.3043446],
          [-110.9731254, 32.3041152],
          [-110.9731599, 32.3039399],
          [-110.973223, 32.303785],
          [-110.9735088, 32.3033788],
          [-110.973661, 32.3031731],
          [-110.9737822, 32.3030247],
          [-110.9739007, 32.302862],
          [-110.9739648, 32.3026993],
          [-110.9740191, 32.3025491],
          [-110.9740635, 32.3024156],
          [-110.9741178, 32.302303],
          [-110.9743597, 32.3021778],
          [-110.9746015, 32.302061],
          [-110.9747573, 32.3019712],
          [-110.9748955, 32.3018878],
          [-110.9751769, 32.3017001],
          [-110.9754928, 32.3014789],
          [-110.9756705, 32.301358],
          [-110.9757791, 32.3012745],
          [-110.9758976, 32.3012161],
          [-110.9760124, 32.3011864],
          [-110.9761345, 32.3011828],
          [-110.9763171, 32.3011786],
          [-110.976654, 32.3011697],
          [-110.9768539, 32.3011634],
          [-110.9770045, 32.301153],
          [-110.9771254, 32.3011321],
          [-110.9772488, 32.3010967],
          [-110.9773648, 32.3010487],
          [-110.9774314, 32.3010153],
          [-110.9774956, 32.3009861],
          [-110.9775672, 32.3009361],
          [-110.9776239, 32.3008881],
          [-110.9776955, 32.3008213],
          [-110.9777473, 32.3007754],
          [-110.9778263, 32.3006962],
          [-110.9779176, 32.3006065],
          [-110.9779768, 32.3005481],
          [-110.9780503, 32.3004796],
          [-110.9781299, 32.3004354],
          [-110.9781768, 32.3004145],
          [-110.9782236, 32.3004104],
          [-110.9783199, 32.3004062],
          [-110.9783989, 32.3004104],
          [-110.9784982, 32.308969],
          [-110.9784924, 32.3098913],
          [-110.9788157, 32.3098976],
          [-110.978986, 32.3099039],
          [-110.9791489, 32.3099164],
          [-110.9792402, 32.3099206],
          [-110.9793216, 32.3099226],
          [-110.9794796, 32.3099185],
          [-110.9796474, 32.309908],
          [-110.9797579, 32.3098966],
          [-110.9798196, 32.3098945],
          [-110.9798764, 32.3098758],
          [-110.9800343, 32.3098236],
          [-110.9802638, 32.3097548],
          [-110.9807204, 32.3096109],
          [-110.9816301, 32.3093219],
          [-110.9827889, 32.3089607],
          [-110.9829271, 32.3089085],
          [-110.9830632, 32.3088414],
          [-110.983157, 32.3087768],
          [-110.9832878, 32.3086641],
          [-110.9834457, 32.308539],
          [-110.9835741, 32.3084243],
          [-110.9837714, 32.3082383],
          [-110.9839466, 32.3080443],
          [-110.9841144, 32.3078462],
          [-110.9842526, 32.3076376],
          [-110.9843538, 32.3074874],
          [-110.9844482, 32.3073974],
          [-110.9845636, 32.3073205],
          [-110.9847049, 32.3072514],
          [-110.984848, 32.3072118],
          [-110.9849665, 32.3071889],
          [-110.9850529, 32.3071576],
          [-110.9851565, 32.3070971],
          [-110.9852849, 32.3070261],
          [-110.985391, 32.3069469],
          [-110.9854745, 32.306864],
          [-110.9855511, 32.3067618],
          [-110.9856053, 32.3066805],
          [-110.985672, 32.3065887],
          [-110.9857406, 32.30649],
          [-110.9858714, 32.3063857],
          [-110.9860195, 32.3062856],
          [-110.9861126, 32.3062243],
          [-110.9862268, 32.3061834],
          [-110.9864457, 32.3061117],
          [-110.9866432, 32.3060366],
          [-110.9867355, 32.3060026],
          [-110.9868169, 32.3059588],
          [-110.9869156, 32.3058775],
          [-110.9870273, 32.3057624],
          [-110.9870865, 32.3056998],
          [-110.9871532, 32.3056393],
          [-110.9872694, 32.3055662],
          [-110.9873483, 32.3055224],
          [-110.9874125, 32.3054932],
          [-110.9875236, 32.3054452],
          [-110.9876248, 32.3053597],
          [-110.9877284, 32.3052387],
          [-110.9878222, 32.3051177],
          [-110.9879974, 32.3048966],
          [-110.9880856, 32.3047805],
          [-110.9881794, 32.3046804],
          [-110.9883423, 32.3045115],
          [-110.9884928, 32.3043634],
          [-110.9885408, 32.3042995],
          [-110.9885753, 32.304239],
          [-110.9886124, 32.3041806],
          [-110.9886444, 32.3041201],
          [-110.988678, 32.3040504],
          [-110.9887051, 32.3039566],
          [-110.9887174, 32.3038856],
          [-110.9887569, 32.3038272],
          [-110.9887819, 32.3037949],
          [-110.9888165, 32.3037657],
          [-110.9889078, 32.3037282],
          [-110.9890751, 32.3036607],
          [-110.9891472, 32.3036301],
          [-110.9891916, 32.3035968],
          [-110.9892171, 32.3035682],
          [-110.9892221, 32.3035348],
          [-110.9892665, 32.3034242],
          [-110.9892838, 32.3033596],
          [-110.9893084, 32.3032991],
          [-110.9893479, 32.3032281],
          [-110.9894031, 32.3031678],
          [-110.9894679, 32.3031138],
          [-110.9895642, 32.3030763],
          [-110.9896604, 32.3030575],
          [-110.9898011, 32.3030324],
          [-110.9899294, 32.3030199],
          [-110.9900035, 32.3030178],
          [-110.9900726, 32.3030053],
          [-110.9902073, 32.3029689],
          [-110.9902838, 32.3029523],
          [-110.9903504, 32.3029272],
          [-110.9904615, 32.3028688],
          [-110.9905417, 32.3028282],
          [-110.9906034, 32.3027823],
          [-110.9907046, 32.3026989],
          [-110.9908053, 32.3026124],
          [-110.9908867, 32.3025394],
          [-110.9910151, 32.3024476],
          [-110.9911558, 32.30236],
          [-110.9913002, 32.3022871],
          [-110.9914593, 32.3022327],
          [-110.9916013, 32.3021932],
          [-110.9917444, 32.302164],
          [-110.9920332, 32.3021056],
          [-110.9923228, 32.3020427],
          [-110.9925647, 32.3019364],
          [-110.9927103, 32.3018425],
          [-110.9928436, 32.3017444],
          [-110.9931447, 32.3015421],
          [-110.9933148, 32.3014306],
          [-110.9935616, 32.3013221],
          [-110.9937121, 32.3012783],
          [-110.9938651, 32.3012428],
          [-110.9939984, 32.3012157],
          [-110.9941112, 32.3012014],
          [-110.9944338, 32.3011721],
          [-110.9947448, 32.3011575],
          [-110.9950261, 32.3011533],
          [-110.9952803, 32.3011575],
          [-110.9955935, 32.3011628],
          [-110.9958971, 32.3011753],
          [-110.996176, 32.3011941],
          [-110.9964526, 32.3011992],
          [-110.9977822, 32.3011989],
          [-110.9992608, 32.3011946],
          [-111.0008985, 32.3011803],
          [-111.0025305, 32.3011758],
          [-111.0031605, 32.3011611],
          [-111.0034961, 32.3011611],
          [-111.0035899, 32.3011673],
          [-111.0036714, 32.3011965],
          [-111.003738, 32.3012278],
          [-111.00378, 32.301282],
          [-111.0037972, 32.3013405],
          [-111.0038022, 32.3014218],
          [-111.0037972, 32.3014865],
          [-111.0037853, 32.3022616],
          [-111.0037802, 32.3023584],
          [-111.0037582, 32.3024723],
          [-111.003713, 32.302635],
          [-111.0036981, 32.3027519],
          [-111.0036957, 32.3028436],
          [-111.0036965, 32.3030001],
          [-111.0036907, 32.3038261],
          [-111.0036857, 32.3042746],
          [-111.0036931, 32.3045019],
          [-111.0037177, 32.3046876],
          [-111.0037696, 32.3048711],
          [-111.0038337, 32.3049775],
          [-111.0039275, 32.3051194],
          [-111.0040287, 32.3052508],
          [-111.0043325, 32.305564],
          [-111.0046562, 32.3058483],
          [-111.0049596, 32.3061038],
          [-111.0052582, 32.3063186],
          [-111.0059799, 32.3068493],
          [-111.0068089, 32.3074562],
          [-111.0075316, 32.3079857],
          [-111.0077069, 32.3081025],
          [-111.0078796, 32.3081963],
          [-111.0080326, 32.3082756],
          [-111.0081992, 32.3083438],
          [-111.0084474, 32.3084363],
          [-111.0086423, 32.3084926],
          [-111.0087953, 32.3085385],
          [-111.0088669, 32.3085468],
          [-111.0089322, 32.3085503],
          [-111.0120102, 32.3085861],
          [-111.0120479, 32.3122251],
          [-111.0122379, 32.3122272],
          [-111.0124798, 32.3122314],
          [-111.0127279, 32.3122407],
          [-111.0128118, 32.312249],
          [-111.0128969, 32.3122647],
          [-111.0129796, 32.3122887],
          [-111.0130561, 32.3123179],
          [-111.0132017, 32.3123971],
          [-111.0134626, 32.312541],
          [-111.013739, 32.3126891],
          [-111.0139266, 32.3128184],
          [-111.0144204, 32.3131346],
          [-111.0150003, 32.3135122],
          [-111.015489, 32.3137916],
          [-111.0157195, 32.3139253],
          [-111.0159367, 32.3140213],
          [-111.0160856, 32.314078],
          [-111.0162262, 32.3141197],
          [-111.0163694, 32.3141593],
          [-111.0169973, 32.3142911],
          [-111.017616, 32.3144167],
          [-111.0181787, 32.3145279],
          [-111.0184847, 32.3146238],
          [-111.0186007, 32.3146635],
          [-111.0187044, 32.3147135],
          [-111.0196176, 32.3152308],
          [-111.0200896, 32.3154669],
          [-111.0203229, 32.3155753],
          [-111.0205499, 32.3156775],
          [-111.0207579, 32.3157563],
          [-111.0209454, 32.3158397],
          [-111.0211034, 32.3159065],
          [-111.0212366, 32.3159482],
          [-111.0213872, 32.3160012],
          [-111.0214834, 32.3160326],
          [-111.0215698, 32.3160513],
          [-111.0216562, 32.3160638],
          [-111.0217204, 32.316068],
          [-111.0218808, 32.3160805],
          [-111.0228771, 32.3160733],
          [-111.0238492, 32.3160458],
          [-111.0241034, 32.3160312],
          [-111.0243699, 32.3160124],
          [-111.0244785, 32.3159999],
          [-111.0246118, 32.3159999],
          [-111.0250375, 32.3160145],
          [-111.0258025, 32.3160228],
          [-111.0272952, 32.3160461],
          [-111.0287131, 32.3160569]
        ]
      }
    },
    {
      "type": "Feature",
      "properties": {},
      "geometry": {
        "type": "LineString",
        "coordinates": [
          [-110.9407381, 32.3122768],
          [-110.9414286, 32.3118083],
          [-110.941795, 32.311578],
          [-110.94195, 32.3114669],
          [-110.9420694, 32.3113338],
          [-110.9422479, 32.311171],
          [-110.9423606, 32.3110877],
          [-110.9425203, 32.3110242],
          [-110.9426143, 32.3109845],
          [-110.9427646, 32.3109487],
          [-110.942929, 32.3109408],
          [-110.9430464, 32.310917],
          [-110.9431028, 32.3108574],
          [-110.943131, 32.3107661],
          [-110.943214, 32.3105917],
          [-110.9432704, 32.3103773],
          [-110.9432892, 32.3102741],
          [-110.9432719, 32.3101698],
          [-110.9432101, 32.3099834],
          [-110.9431255, 32.3097929],
          [-110.9430504, 32.309638],
          [-110.9429755, 32.309359],
          [-110.9428816, 32.3088667],
          [-110.9428252, 32.3086007],
          [-110.9428205, 32.3083585],
          [-110.9428722, 32.3081044],
          [-110.9429242, 32.3078262],
          [-110.94299, 32.3075642],
          [-110.9430134, 32.3074014],
          [-110.9430463, 32.3072942],
          [-110.9431262, 32.3072704],
          [-110.9432389, 32.3072466],
          [-110.9434033, 32.307191],
          [-110.9435865, 32.3071275],
          [-110.943657, 32.3070917],
          [-110.9437556, 32.307064],
          [-110.9438355, 32.3070322],
          [-110.9438654, 32.3069756],
          [-110.9438983, 32.3068843],
          [-110.9439124, 32.306789],
          [-110.9439359, 32.3066342],
          [-110.9440345, 32.3066342],
          [-110.9441097, 32.3066382],
          [-110.9442929, 32.3066223],
          [-110.9445465, 32.3065786],
          [-110.9447063, 32.306531],
          [-110.9448143, 32.3064833],
          [-110.9449317, 32.3064198],
          [-110.9450445, 32.3063602],
          [-110.9452689, 32.306169],
          [-110.9454991, 32.3060062],
          [-110.9456823, 32.3058593],
          [-110.945903, 32.3056965],
          [-110.9461332, 32.3056132],
          [-110.9463493, 32.3055496],
          [-110.9465889, 32.3055338],
          [-110.9467674, 32.3055377],
          [-110.9467674, 32.3058831],
          [-110.9467674, 32.3060539],
          [-110.9467862, 32.3062166],
          [-110.9468284, 32.3063993],
          [-110.9468848, 32.3064946]
        ]
      }
    },
    {
      "type": "Feature",
      "properties": {},
      "geometry": {
        "type": "LineString",
        "coordinates": [
          [-110.9468852, 32.3064954],
          [-110.9469073, 32.3065446],
          [-110.946935, 32.3065841],
          [-110.9469832, 32.3066483],
          [-110.9470139, 32.3066817],
          [-110.9470899, 32.306757],
          [-110.947141, 32.3068113],
          [-110.9471947, 32.3068648],
          [-110.9472264, 32.3068908],
          [-110.9473036, 32.3069514],
          [-110.9473353, 32.3069758],
          [-110.9473699, 32.3069977],
          [-110.9474299, 32.3070207],
          [-110.9478231, 32.3071507],
          [-110.9479204, 32.3071832],
          [-110.9479694, 32.3071994],
          [-110.9480281, 32.3072157],
          [-110.9480992, 32.3072254],
          [-110.9482209, 32.3072363],
          [-110.9496706, 32.3073121],
          [-110.9499519, 32.3073289],
          [-110.9502042, 32.3073517],
          [-110.9502869, 32.3073565],
          [-110.9503484, 32.3073598],
          [-110.9504003, 32.3073614],
          [-110.9504493, 32.3073606],
          [-110.9504887, 32.3073606],
          [-110.9505224, 32.3073573],
          [-110.9505627, 32.3073517],
          [-110.9506041, 32.3073411],
          [-110.9506454, 32.3073289],
          [-110.9506882, 32.3073145],
          [-110.9507334, 32.3073056],
          [-110.9508353, 32.3073064],
          [-110.9509593, 32.3073096],
          [-110.951064, 32.3073161],
          [-110.9511602, 32.3073321],
          [-110.951585, 32.3074153],
          [-110.9516465, 32.3074283],
          [-110.951734, 32.3074453],
          [-110.9518012, 32.3074551],
          [-110.9518666, 32.3074599],
          [-110.9521319, 32.3074867],
          [-110.9524017, 32.3075139],
          [-110.9525353, 32.3075236],
          [-110.9526581, 32.3075225],
          [-110.9529509, 32.3075098],
          [-110.9530335, 32.3075074],
          [-110.9531018, 32.3075025],
          [-110.9532373, 32.3074774],
          [-110.9534164, 32.3074438],
          [-110.9535804, 32.3073961],
          [-110.9537186, 32.3073554],
          [-110.9538176, 32.3073116],
          [-110.9538964, 32.3072693],
          [-110.9539617, 32.3072353],
          [-110.954027, 32.3071971],
          [-110.9540953, 32.3071532],
          [-110.9541568, 32.3071037],
          [-110.9543817, 32.306886],
          [-110.9545918, 32.3066821],
          [-110.9546937, 32.306592],
          [-110.9547651, 32.3065395],
          [-110.954843, 32.3064819],
          [-110.9548814, 32.3064526],
          [-110.9549228, 32.3064282],
          [-110.9549908, 32.3064048],
          [-110.9550687, 32.3063877],
          [-110.9551437, 32.3063706],
          [-110.9552071, 32.3063601],
          [-110.9552532, 32.3063511],
          [-110.9552907, 32.3063487],
          [-110.9553336, 32.3063492],
          [-110.9553826, 32.3063565],
          [-110.9554419, 32.3063637],
          [-110.9554835, 32.3063703],
          [-110.9555229, 32.3063817],
          [-110.9555998, 32.3064012],
          [-110.9557927, 32.3064531],
          [-110.9561096, 32.3065538],
          [-110.9562672, 32.3066116],
          [-110.9563489, 32.3066335],
          [-110.9564248, 32.3066506],
          [-110.956494, 32.3066603],
          [-110.9565844, 32.3066701],
          [-110.9566815, 32.3066725],
          [-110.9567891, 32.3066709],
          [-110.9571486, 32.3066806],
          [-110.9572736, 32.3066855],
          [-110.9573832, 32.3067034],
          [-110.9574689, 32.3067145],
          [-110.9575429, 32.3067315],
          [-110.9576207, 32.3067502],
          [-110.9576916, 32.3067748],
          [-110.9579761, 32.3069137],
          [-110.9581381, 32.307002],
          [-110.9582207, 32.3070459],
          [-110.9583395, 32.3070897],
          [-110.9584615, 32.3071287],
          [-110.9586249, 32.3071677],
          [-110.9587521, 32.307192],
          [-110.9588742, 32.3071993],
          [-110.9589962, 32.3072058],
          [-110.9591075, 32.3072024],
          [-110.959196, 32.3071934],
          [-110.9592652, 32.3071804],
          [-110.9593402, 32.3071658],
          [-110.9594065, 32.3071496],
          [-110.9594757, 32.3071284],
          [-110.9595084, 32.3071195],
          [-110.9595391, 32.3071073],
          [-110.9595987, 32.3070797],
          [-110.9596554, 32.3070578],
          [-110.9598138, 32.3069964],
          [-110.9599868, 32.3069436],
          [-110.9603261, 32.3068559],
          [-110.9604531, 32.3068201],
          [-110.9605406, 32.3067973],
          [-110.96058, 32.3067884],
          [-110.9606031, 32.3067827],
          [-110.9606271, 32.3067778],
          [-110.9606473, 32.3067689],
          [-110.9606665, 32.3067648],
          [-110.9606848, 32.30676],
          [-110.960703, 32.3067583],
          [-110.9607405, 32.3067559],
          [-110.9608049, 32.3067551],
          [-110.960901, 32.3067583],
          [-110.9610356, 32.306764],
          [-110.9610127, 32.3077174],
          [-110.9610269, 32.3086635]
        ]
      }
    },
    {
      "type": "Feature",
      "properties": {},
      "geometry": {
        "type": "LineString",
        "coordinates": [
          [-110.961027, 32.3086633],
          [-110.9610204, 32.3103292],
          [-110.9610504, 32.3119994],
          [-110.9610592, 32.3155909],
          [-110.9630334, 32.3155991],
          [-110.965228, 32.315604],
          [-110.9657786, 32.3156024],
          [-110.9663252, 32.3156006],
          [-110.9666982, 32.3156037],
          [-110.966799, 32.3156029],
          [-110.9668815, 32.3156086],
          [-110.9669372, 32.3156159],
          [-110.9670006, 32.3156289],
          [-110.9670662, 32.3156422],
          [-110.9674547, 32.3157198],
          [-110.9675881, 32.3157465],
          [-110.9677081, 32.3157701],
          [-110.9677802, 32.315779],
          [-110.9678437, 32.3157845]
        ]
      }
    }
  ]
}
