{
  "type": "FeatureCollection",
  "features": [
    {
      "type": "Feature",
      "properties": {
        "name": "Catalina Foothills No-Parking Zone",
        "description": "Temporary restriction Feb 26, 2026 - ongoing",
        "area": "Catalina Foothills Estates"
      },
      "geometry": {
        "type": "Polygon",
        "coordinates": [
          [
            [-110.936814870094, 32.30630903091992],
            [-110.94303301928, 32.30725881528003],
            [-110.9429194465692, 32.30902435088706],
            [-110.9430341495013, 32.31093559656382],
            [-110.9430650128133, 32.31784531237057],
            [-110.9405539004203, 32.32095098552074],
            [-110.9394053735806, 32.31944032738308],
            [-110.935899968443, 32.31698949733232],
            [-110.9344721761562, 32.31659741577026],
            [-110.930964528991, 32.31638199780524],
            [-110.9322405213488, 32.31482388553511],
            [-110.934852506768, 32.30914630097228],
            [-110.938047410562, 32.30671522306892],
            [-110.940046375863, 32.30717516917408],
            [-110.9430842594416, 32.31749948438564],
            [-110.9416006131214, 32.32021939951818],
            [-110.936814870094, 32.30630903091992]
          ]
        ]
      }
    }
  ]
}
