{
  "type": "FeatureCollection",
  "features": [
    {
      "type": "Feature",
      "properties": {
        "stroke": "rgba(229, 26, 80, 1)",
        "stroke-opacity": 1,
        "stroke-width": 2
      },
      "geometry": {
        "type": "LineString",
        "coordinates": [
          [-110.9430315, 32.3109421],
          [-110.942993, 32.310942],
          [-110.9429592, 32.3109415],
          [-110.9429353, 32.3109417],
          [-110.9428983, 32.3109445],
          [-110.9428771, 32.310946],
          [-110.9428461, 32.3109504],
          [-110.942815, 32.310955],
          [-110.9427769, 32.3109604],
          [-110.9427244, 32.3109719],
          [-110.9426706, 32.3109845],
          [-110.9426162, 32.3109999],
          [-110.9425341, 32.3110287],
          [-110.9424966, 32.3110441],
          [-110.9424654, 32.3110562],
          [-110.9424437, 32.3110654],
          [-110.9424171, 32.3110788],
          [-110.9423795, 32.3110979],
          [-110.9423403, 32.3111224],
          [-110.9422966, 32.3111511],
          [-110.9422747, 32.3111682],
          [-110.9422555, 32.3111828],
          [-110.9422324, 32.3112045],
          [-110.9421997, 32.3112358],
          [-110.9421573, 32.3112762],
          [-110.9421081, 32.3113223],
          [-110.9419938, 32.311431],
          [-110.9419777, 32.3114463],
          [-110.9419555, 32.3114644],
          [-110.9419249, 32.3114886],
          [-110.9418733, 32.3115281],
          [-110.9418028, 32.311576],
          [-110.9416842, 32.3116505],
          [-110.9415696, 32.3117278],
          [-110.9414482, 32.3118089],
          [-110.9413822, 32.3118533],
          [-110.9413164, 32.3118981],
          [-110.9412147, 32.3119662],
          [-110.9411387, 32.3120168],
          [-110.9410735, 32.3120611],
          [-110.9409489, 32.3121445],
          [-110.9408044, 32.3122422],
          [-110.9405583, 32.3124055],
          [-110.9403074, 32.3125714],
          [-110.9400875, 32.3127172],
          [-110.9399972, 32.3127772],
          [-110.9399403, 32.3128114],
          [-110.9399025, 32.3128332],
          [-110.9398739, 32.312849],
          [-110.9398338, 32.3128694],
          [-110.9397933, 32.3128895],
          [-110.9397367, 32.3129139],
          [-110.9396998, 32.3129301],
          [-110.9396455, 32.3129538],
          [-110.9395996, 32.3129748],
          [-110.9391838, 32.3131568],
          [-110.9388989, 32.313283],
          [-110.9387262, 32.3133588],
          [-110.9385871, 32.313422],
          [-110.9385166, 32.3134579],
          [-110.938469, 32.3134824],
          [-110.9384005, 32.3135225],
          [-110.9383202, 32.3135737],
          [-110.9382102, 32.3136452],
          [-110.9381462, 32.3136905],
          [-110.9380849, 32.3137322],
          [-110.9378571, 32.3138893],
          [-110.937709, 32.3139942],
          [-110.9376478, 32.3140384],
          [-110.9376062, 32.3140689],
          [-110.9375227, 32.3141281],
          [-110.937316, 32.3142768],
          [-110.93714, 32.3143991],
          [-110.9370511, 32.3144625],
          [-110.9370373, 32.3144722],
          [-110.9370328, 32.3144752],
          [-110.9370302, 32.3144771],
          [-110.937028, 32.3144796],
          [-110.937026, 32.314482],
          [-110.9370235, 32.3144861],
          [-110.9370184, 32.3144941],
          [-110.937016, 32.3144976],
          [-110.937011, 32.3145055],
          [-110.9370027, 32.314518],
          [-110.9369757, 32.3145591],
          [-110.936861, 32.3147327],
          [-110.936793, 32.3148357],
          [-110.9367192, 32.3149482],
          [-110.9365499, 32.3152062],
          [-110.9365436, 32.3152153],
          [-110.9365407, 32.3152199],
          [-110.9365382, 32.3152243],
          [-110.9365361, 32.31523],
          [-110.9365349, 32.3152359],
          [-110.9365329, 32.3152443],
          [-110.9365305, 32.31525],
          [-110.9365257, 32.3152664],
          [-110.9365172, 32.3152951],
          [-110.9365062, 32.3153315],
          [-110.9364729, 32.315443],
          [-110.9363994, 32.3156869],
          [-110.9363618, 32.3158122],
          [-110.9363421, 32.3158781],
          [-110.9363313, 32.3159022],
          [-110.936321, 32.3159252],
          [-110.9363107, 32.3159495],
          [-110.9362174, 32.3162176],
          [-110.9361459, 32.3164221],
          [-110.9360432, 32.3167168],
          [-110.9359862, 32.3168801],
          [-110.935964, 32.3169712],
          [-110.9359426, 32.3170328]
        ]
      }
    },
    {
      "type": "Feature",
      "properties": {
        "marker-symbol": "arrow",
        "marker-color": "rgba(241, 8, 28, 1)",
        "marker-size": "large"
      },
      "geometry": {
        "type": "Point",
        "coordinates": [-110.9430123, 32.3109376]
      }
    }
  ]
}
