{
    "type": "FeatureCollection",
    "features": [
        {
            "type": "Feature",
            "geometry": {
                "type": "Point",
                "coordinates": [
                    -97.739817,
                    30.267078,
                    0
                ]
            },
            "properties": {
                "name": "Blind Pig",
                "styleUrl": "#m_ylw-pushpin",
                "icon-scale": 1.1,
                "icon-offset": [
                    20,
                    2
                ],
                "icon-offset-units": [
                    "pixels",
                    "pixels"
                ],
                "icon": "http://maps.google.com/mapfiles/kml/pushpin/ylw-pushpin.png",
                "@id": "cf1b92c0-c0f4-11f1-9b36-bbaed281745f"
            },
            "bbox": [
                -97.739817,
                30.267078,
                -97.739817,
                30.267078
            ]
        },
        {
            "type": "Feature",
            "geometry": {
                "type": "Point",
                "coordinates": [
                    -97.739792,
                    30.267353,
                    0
                ]
            },
            "properties": {
                "name": "Shakespeare's Pub",
                "styleUrl": "#m_ylw-pushpin",
                "icon-scale": 1.1,
                "icon-offset": [
                    20,
                    2
                ],
                "icon-offset-units": [
                    "pixels",
                    "pixels"
                ],
                "icon": "http://maps.google.com/mapfiles/kml/pushpin/ylw-pushpin.png",
                "@id": "cf1b92c1-c0f4-11f1-9b36-bbaed281745f"
            },
            "bbox": [
                -97.739792,
                30.267353,
                -97.739792,
                30.267353
            ]
        },
        {
            "type": "Feature",
            "geometry": {
                "type": "Point",
                "coordinates": [
                    -97.739103,
                    30.267353,
                    0
                ]
            },
            "properties": {
                "name": "Trinity St. between 6th & 7th",
                "styleUrl": "#m_ylw-pushpin",
                "icon-scale": 1.1,
                "icon-offset": [
                    20,
                    2
                ],
                "icon-offset-units": [
                    "pixels",
                    "pixels"
                ],
                "icon": "http://maps.google.com/mapfiles/kml/pushpin/ylw-pushpin.png",
                "@id": "cf1b92c2-c0f4-11f1-9b36-bbaed281745f"
            },
            "bbox": [
                -97.739103,
                30.267353,
                -97.739103,
                30.267353
            ]
        },
        {
            "type": "Feature",
            "geometry": {
                "type": "Point",
                "coordinates": [
                    -97.739225,
                    30.266933,
                    0
                ]
            },
            "properties": {
                "name": "Old School Bar",
                "styleUrl": "#m_ylw-pushpin",
                "icon-scale": 1.1,
                "icon-offset": [
                    20,
                    2
                ],
                "icon-offset-units": [
                    "pixels",
                    "pixels"
                ],
                "icon": "http://maps.google.com/mapfiles/kml/pushpin/ylw-pushpin.png",
                "@id": "cf1b92c3-c0f4-11f1-9b36-bbaed281745f"
            },
            "bbox": [
                -97.739225,
                30.266933,
                -97.739225,
                30.266933
            ]
        },
        {
            "type": "Feature",
            "geometry": {
                "type": "Point",
                "coordinates": [
                    -97.734933,
                    30.265731,
                    0
                ]
            },
            "properties": {
                "name": "Walking toward I-35 overpass",
                "styleUrl": "#m_ylw-pushpin",
                "icon-scale": 1.1,
                "icon-offset": [
                    20,
                    2
                ],
                "icon-offset-units": [
                    "pixels",
                    "pixels"
                ],
                "icon": "http://maps.google.com/mapfiles/kml/pushpin/ylw-pushpin.png",
                "@id": "cf1b92c4-c0f4-11f1-9b36-bbaed281745f"
            },
            "bbox": [
                -97.734933,
                30.265731,
                -97.734933,
                30.265731
            ]
        },
        {
            "type": "Feature",
            "geometry": {
                "type": "Point",
                "coordinates": [
                    -97.738931,
                    30.267103,
                    0
                ]
            },
            "properties": {
                "name": "Mooseknuckle Pub",
                "styleUrl": "#m_ylw-pushpin",
                "icon-scale": 1.1,
                "icon-offset": [
                    20,
                    2
                ],
                "icon-offset-units": [
                    "pixels",
                    "pixels"
                ],
                "icon": "http://maps.google.com/mapfiles/kml/pushpin/ylw-pushpin.png",
                "@id": "cf1b92c5-c0f4-11f1-9b36-bbaed281745f"
            },
            "bbox": [
                -97.738931,
                30.267103,
                -97.738931,
                30.267103
            ]
        },
        {
            "type": "Feature",
            "geometry": {
                "type": "Point",
                "coordinates": [
                    -97.740203,
                    30.2674,
                    0
                ]
            },
            "properties": {
                "name": "6th St. near San Jacinto",
                "styleUrl": "#m_ylw-pushpin",
                "icon-scale": 1.1,
                "icon-offset": [
                    20,
                    2
                ],
                "icon-offset-units": [
                    "pixels",
                    "pixels"
                ],
                "icon": "http://maps.google.com/mapfiles/kml/pushpin/ylw-pushpin.png",
                "@id": "cf1b92c6-c0f4-11f1-9b36-bbaed281745f"
            },
            "bbox": [
                -97.740203,
                30.2674,
                -97.740203,
                30.2674
            ]
        },
        {
            "type": "Feature",
            "geometry": {
                "type": "Point",
                "coordinates": [
                    -97.738681,
                    30.266817,
                    0
                ]
            },
            "properties": {
                "name": "Bijou Lounge",
                "styleUrl": "#m_ylw-pushpin",
                "icon-scale": 1.1,
                "icon-offset": [
                    20,
                    2
                ],
                "icon-offset-units": [
                    "pixels",
                    "pixels"
                ],
                "icon": "http://maps.google.com/mapfiles/kml/pushpin/ylw-pushpin.png",
                "@id": "cf1b92c7-c0f4-11f1-9b36-bbaed281745f"
            },
            "bbox": [
                -97.738681,
                30.266817,
                -97.738681,
                30.266817
            ]
        },
        {
            "type": "Feature",
            "geometry": {
                "type": "Point",
                "coordinates": [
                    -97.734044,
                    30.265669,
                    0
                ]
            },
            "properties": {
                "name": "Chevron",
                "styleUrl": "#m_ylw-pushpin",
                "icon-scale": 1.1,
                "icon-offset": [
                    20,
                    2
                ],
                "icon-offset-units": [
                    "pixels",
                    "pixels"
                ],
                "icon": "http://maps.google.com/mapfiles/kml/pushpin/ylw-pushpin.png",
                "@id": "cf1b92c8-c0f4-11f1-9b36-bbaed281745f"
            },
            "bbox": [
                -97.734044,
                30.265669,
                -97.734044,
                30.265669
            ]
        },
        {
            "type": "Feature",
            "geometry": {
                "type": "Point",
                "coordinates": [
                    -97.733625,
                    30.265558,
                    0
                ]
            },
            "properties": {
                "name": "6th & Brushy St.",
                "styleUrl": "#m_ylw-pushpin",
                "icon-scale": 1.1,
                "icon-offset": [
                    20,
                    2
                ],
                "icon-offset-units": [
                    "pixels",
                    "pixels"
                ],
                "icon": "http://maps.google.com/mapfiles/kml/pushpin/ylw-pushpin.png",
                "@id": "cf1b92c9-c0f4-11f1-9b36-bbaed281745f"
            },
            "bbox": [
                -97.733625,
                30.265558,
                -97.733625,
                30.265558
            ]
        },
        {
            "type": "Feature",
            "geometry": {
                "type": "Point",
                "coordinates": [
                    -97.307803,
                    31.155981,
                    0
                ]
            },
            "properties": {
                "name": "Body found",
                "styleUrl": "#m_ylw-pushpin",
                "icon-scale": 1.1,
                "icon-offset": [
                    20,
                    2
                ],
                "icon-offset-units": [
                    "pixels",
                    "pixels"
                ],
                "icon": "http://maps.google.com/mapfiles/kml/pushpin/ylw-pushpin.png",
                "@id": "cf1b92ca-c0f4-11f1-9b36-bbaed281745f"
            },
            "bbox": [
                -97.307803,
                31.155981,
                -97.307803,
                31.155981
            ]
        },
        {
            "type": "Feature",
            "properties": {
                "name": "Last seen --> body found",
                "stroke-width": 1,
                "stroke-opacity": 1,
                "stroke": "rgba(5, 167, 249, 1)",
                "@id": "f41228a0-c0f4-11f1-9b36-bbaed281745f"
            },
            "geometry": {
                "type": "LineString",
                "coordinates": [
                    [
                        -97.733623,
                        30.265568
                    ],
                    [
                        -97.733459,
                        30.265511
                    ],
                    [
                        -97.733423,
                        30.265591
                    ],
                    [
                        -97.73342,
                        30.265598
                    ],
                    [
                        -97.733416,
                        30.265605
                    ],
                    [
                        -97.73341,
                        30.26561
                    ],
                    [
                        -97.733408,
                        30.265613
                    ],
                    [
                        -97.733402,
                        30.265623
                    ],
                    [
                        -97.733399,
                        30.265629
                    ],
                    [
                        -97.733397,
                        30.265636
                    ],
                    [
                        -97.733397,
                        30.265642
                    ],
                    [
                        -97.733338,
                        30.265784
                    ],
                    [
                        -97.73331,
                        30.26585
                    ],
                    [
                        -97.733303,
                        30.265876
                    ],
                    [
                        -97.732865,
                        30.26574
                    ],
                    [
                        -97.732784,
                        30.265714
                    ],
                    [
                        -97.732626,
                        30.266089
                    ],
                    [
                        -97.732586,
                        30.266193
                    ],
                    [
                        -97.733201,
                        30.266399
                    ],
                    [
                        -97.733838,
                        30.266579
                    ],
                    [
                        -97.733504,
                        30.267508
                    ],
                    [
                        -97.733119,
                        30.268644
                    ],
                    [
                        -97.732977,
                        30.269713
                    ],
                    [
                        -97.732745,
                        30.27046
                    ],
                    [
                        -97.732639,
                        30.270895
                    ],
                    [
                        -97.732303,
                        30.271798
                    ],
                    [
                        -97.731834,
                        30.273188
                    ],
                    [
                        -97.731411,
                        30.27456
                    ],
                    [
                        -97.731087,
                        30.275642
                    ],
                    [
                        -97.730599,
                        30.276826
                    ],
                    [
                        -97.72975,
                        30.27861
                    ],
                    [
                        -97.729206,
                        30.279829
                    ],
                    [
                        -97.728552,
                        30.280922
                    ],
                    [
                        -97.727799,
                        30.282077
                    ],
                    [
                        -97.72717,
                        30.283035
                    ],
                    [
                        -97.724826,
                        30.286581
                    ],
                    [
                        -97.724032,
                        30.287877
                    ],
                    [
                        -97.723205,
                        30.28916
                    ],
                    [
                        -97.722414,
                        30.290407
                    ],
                    [
                        -97.721609,
                        30.291654
                    ],
                    [
                        -97.719922,
                        30.294281
                    ],
                    [
                        -97.718584,
                        30.296398
                    ],
                    [
                        -97.717117,
                        30.298786
                    ],
                    [
                        -97.716123,
                        30.300368
                    ],
                    [
                        -97.715169,
                        30.301909
                    ],
                    [
                        -97.712718,
                        30.305674
                    ],
                    [
                        -97.710264,
                        30.309431
                    ],
                    [
                        -97.709334,
                        30.310987
                    ],
                    [
                        -97.708592,
                        30.312543
                    ],
                    [
                        -97.708146,
                        30.313654
                    ],
                    [
                        -97.707758,
                        30.314946
                    ],
                    [
                        -97.707667,
                        30.315318
                    ],
                    [
                        -97.707598,
                        30.315748
                    ],
                    [
                        -97.707462,
                        30.316563
                    ],
                    [
                        -97.707232,
                        30.318157
                    ],
                    [
                        -97.706744,
                        30.321587
                    ],
                    [
                        -97.706289,
                        30.324957
                    ],
                    [
                        -97.706052,
                        30.326609
                    ],
                    [
                        -97.705739,
                        30.328272
                    ],
                    [
                        -97.705421,
                        30.329617
                    ],
                    [
                        -97.705065,
                        30.330644
                    ],
                    [
                        -97.704677,
                        30.331561
                    ],
                    [
                        -97.704366,
                        30.332186
                    ],
                    [
                        -97.704049,
                        30.332738
                    ],
                    [
                        -97.703541,
                        30.333582
                    ],
                    [
                        -97.702959,
                        30.334438
                    ],
                    [
                        -97.701881,
                        30.336173
                    ],
                    [
                        -97.70094,
                        30.337611
                    ],
                    [
                        -97.699985,
                        30.33915
                    ],
                    [
                        -97.699215,
                        30.340336
                    ],
                    [
                        -97.698868,
                        30.340964
                    ],
                    [
                        -97.698514,
                        30.341519
                    ],
                    [
                        -97.696977,
                        30.343883
                    ],
                    [
                        -97.695833,
                        30.345612
                    ],
                    [
                        -97.694771,
                        30.347253
                    ],
                    [
                        -97.693692,
                        30.348966
                    ],
                    [
                        -97.692465,
                        30.350931
                    ],
                    [
                        -97.691336,
                        30.352733
                    ],
                    [
                        -97.69018,
                        30.354546
                    ],
                    [
                        -97.689048,
                        30.356321
                    ],
                    [
                        -97.687941,
                        30.358166
                    ],
                    [
                        -97.685207,
                        30.362592
                    ],
                    [
                        -97.683111,
                        30.365919
                    ],
                    [
                        -97.681793,
                        30.367974
                    ],
                    [
                        -97.680517,
                        30.370029
                    ],
                    [
                        -97.678807,
                        30.372665
                    ],
                    [
                        -97.677958,
                        30.373837
                    ],
                    [
                        -97.677023,
                        30.375278
                    ],
                    [
                        -97.67592,
                        30.377013
                    ],
                    [
                        -97.675405,
                        30.37783
                    ],
                    [
                        -97.674951,
                        30.378637
                    ],
                    [
                        -97.674564,
                        30.379503
                    ],
                    [
                        -97.67423,
                        30.380381
                    ],
                    [
                        -97.673981,
                        30.381222
                    ],
                    [
                        -97.673589,
                        30.382839
                    ],
                    [
                        -97.673057,
                        30.385299
                    ],
                    [
                        -97.672403,
                        30.388199
                    ],
                    [
                        -97.671676,
                        30.391011
                    ],
                    [
                        -97.671501,
                        30.391833
                    ],
                    [
                        -97.671409,
                        30.392735
                    ],
                    [
                        -97.671444,
                        30.39437
                    ],
                    [
                        -97.671725,
                        30.395665
                    ],
                    [
                        -97.672101,
                        30.396932
                    ],
                    [
                        -97.673278,
                        30.399334
                    ],
                    [
                        -97.674023,
                        30.400781
                    ],
                    [
                        -97.674371,
                        30.401577
                    ],
                    [
                        -97.674545,
                        30.402037
                    ],
                    [
                        -97.67473,
                        30.402762
                    ],
                    [
                        -97.674884,
                        30.403885
                    ],
                    [
                        -97.674922,
                        30.405
                    ],
                    [
                        -97.674881,
                        30.405628
                    ],
                    [
                        -97.674758,
                        30.406362
                    ],
                    [
                        -97.674357,
                        30.408531
                    ],
                    [
                        -97.673875,
                        30.41167
                    ],
                    [
                        -97.67303,
                        30.41598
                    ],
                    [
                        -97.672211,
                        30.42029
                    ],
                    [
                        -97.671706,
                        30.422792
                    ],
                    [
                        -97.671326,
                        30.42495
                    ],
                    [
                        -97.669974,
                        30.432142
                    ],
                    [
                        -97.669209,
                        30.436242
                    ],
                    [
                        -97.668697,
                        30.438795
                    ],
                    [
                        -97.668315,
                        30.440956
                    ],
                    [
                        -97.66719,
                        30.446726
                    ],
                    [
                        -97.666657,
                        30.449581
                    ],
                    [
                        -97.66634,
                        30.451163
                    ],
                    [
                        -97.666208,
                        30.452066
                    ],
                    [
                        -97.666126,
                        30.452985
                    ],
                    [
                        -97.666105,
                        30.454016
                    ],
                    [
                        -97.666161,
                        30.454908
                    ],
                    [
                        -97.666302,
                        30.455989
                    ],
                    [
                        -97.666441,
                        30.456728
                    ],
                    [
                        -97.666754,
                        30.45785
                    ],
                    [
                        -97.667114,
                        30.458966
                    ],
                    [
                        -97.667488,
                        30.460165
                    ],
                    [
                        -97.667906,
                        30.461481
                    ],
                    [
                        -97.668589,
                        30.463562
                    ],
                    [
                        -97.669369,
                        30.466104
                    ],
                    [
                        -97.669895,
                        30.467764
                    ],
                    [
                        -97.671717,
                        30.473546
                    ],
                    [
                        -97.672763,
                        30.476865
                    ],
                    [
                        -97.673315,
                        30.478624
                    ],
                    [
                        -97.673796,
                        30.480159
                    ],
                    [
                        -97.675323,
                        30.484961
                    ],
                    [
                        -97.676251,
                        30.487932
                    ],
                    [
                        -97.676597,
                        30.489109
                    ],
                    [
                        -97.677006,
                        30.490531
                    ],
                    [
                        -97.677782,
                        30.493005
                    ],
                    [
                        -97.678614,
                        30.495058
                    ],
                    [
                        -97.679587,
                        30.497057
                    ],
                    [
                        -97.680351,
                        30.498341
                    ],
                    [
                        -97.682646,
                        30.502177
                    ],
                    [
                        -97.683408,
                        30.503435
                    ],
                    [
                        -97.683944,
                        30.504566
                    ],
                    [
                        -97.684507,
                        30.505849
                    ],
                    [
                        -97.685195,
                        30.507595
                    ],
                    [
                        -97.686069,
                        30.50986
                    ],
                    [
                        -97.686362,
                        30.510729
                    ],
                    [
                        -97.686583,
                        30.511593
                    ],
                    [
                        -97.68701,
                        30.513312
                    ],
                    [
                        -97.687476,
                        30.515205
                    ],
                    [
                        -97.687742,
                        30.516358
                    ],
                    [
                        -97.687903,
                        30.517035
                    ],
                    [
                        -97.68874,
                        30.520538
                    ],
                    [
                        -97.689146,
                        30.522262
                    ],
                    [
                        -97.68957,
                        30.524054
                    ],
                    [
                        -97.690496,
                        30.527983
                    ],
                    [
                        -97.691046,
                        30.530337
                    ],
                    [
                        -97.691368,
                        30.531686
                    ],
                    [
                        -97.691617,
                        30.532733
                    ],
                    [
                        -97.691824,
                        30.534009
                    ],
                    [
                        -97.691919,
                        30.534627
                    ],
                    [
                        -97.691981,
                        30.535225
                    ],
                    [
                        -97.692073,
                        30.536405
                    ],
                    [
                        -97.692171,
                        30.537901
                    ],
                    [
                        -97.692189,
                        30.539438
                    ],
                    [
                        -97.69222,
                        30.541175
                    ],
                    [
                        -97.692265,
                        30.544707
                    ],
                    [
                        -97.692283,
                        30.546265
                    ],
                    [
                        -97.692306,
                        30.547825
                    ],
                    [
                        -97.692376,
                        30.552954
                    ],
                    [
                        -97.692405,
                        30.555497
                    ],
                    [
                        -97.692423,
                        30.556977
                    ],
                    [
                        -97.692442,
                        30.55825
                    ],
                    [
                        -97.692549,
                        30.566983
                    ],
                    [
                        -97.692612,
                        30.57196
                    ],
                    [
                        -97.692655,
                        30.57426
                    ],
                    [
                        -97.69269,
                        30.575753
                    ],
                    [
                        -97.692726,
                        30.577277
                    ],
                    [
                        -97.692782,
                        30.58097
                    ],
                    [
                        -97.692804,
                        30.582835
                    ],
                    [
                        -97.692791,
                        30.58375
                    ],
                    [
                        -97.692732,
                        30.584669
                    ],
                    [
                        -97.692637,
                        30.585634
                    ],
                    [
                        -97.692507,
                        30.586552
                    ],
                    [
                        -97.692345,
                        30.587531
                    ],
                    [
                        -97.692162,
                        30.588503
                    ],
                    [
                        -97.691084,
                        30.592451
                    ],
                    [
                        -97.690768,
                        30.593514
                    ],
                    [
                        -97.690328,
                        30.594877
                    ],
                    [
                        -97.689569,
                        30.596719
                    ],
                    [
                        -97.688526,
                        30.599254
                    ],
                    [
                        -97.687891,
                        30.600819
                    ],
                    [
                        -97.687222,
                        30.602379
                    ],
                    [
                        -97.686865,
                        30.603389
                    ],
                    [
                        -97.686496,
                        30.604863
                    ],
                    [
                        -97.686348,
                        30.605904
                    ],
                    [
                        -97.686252,
                        30.607272
                    ],
                    [
                        -97.686274,
                        30.607976
                    ],
                    [
                        -97.686362,
                        30.609101
                    ],
                    [
                        -97.686487,
                        30.609944
                    ],
                    [
                        -97.687066,
                        30.612184
                    ],
                    [
                        -97.688012,
                        30.615531
                    ],
                    [
                        -97.688808,
                        30.618382
                    ],
                    [
                        -97.689231,
                        30.619811
                    ],
                    [
                        -97.689629,
                        30.621246
                    ],
                    [
                        -97.690354,
                        30.623821
                    ],
                    [
                        -97.691115,
                        30.626445
                    ],
                    [
                        -97.691386,
                        30.627464
                    ],
                    [
                        -97.6916,
                        30.628341
                    ],
                    [
                        -97.691695,
                        30.629075
                    ],
                    [
                        -97.691741,
                        30.629765
                    ],
                    [
                        -97.691726,
                        30.630351
                    ],
                    [
                        -97.69169,
                        30.630882
                    ],
                    [
                        -97.69163,
                        30.631375
                    ],
                    [
                        -97.691523,
                        30.631977
                    ],
                    [
                        -97.691191,
                        30.633058
                    ],
                    [
                        -97.690728,
                        30.63458
                    ],
                    [
                        -97.690488,
                        30.635318
                    ],
                    [
                        -97.690245,
                        30.636139
                    ],
                    [
                        -97.689748,
                        30.63768
                    ],
                    [
                        -97.689463,
                        30.638457
                    ],
                    [
                        -97.689161,
                        30.639109
                    ],
                    [
                        -97.68874,
                        30.639943
                    ],
                    [
                        -97.688468,
                        30.640431
                    ],
                    [
                        -97.688196,
                        30.640829
                    ],
                    [
                        -97.687674,
                        30.641573
                    ],
                    [
                        -97.687059,
                        30.642371
                    ],
                    [
                        -97.686397,
                        30.6431
                    ],
                    [
                        -97.685727,
                        30.643763
                    ],
                    [
                        -97.684526,
                        30.64482
                    ],
                    [
                        -97.683197,
                        30.645948
                    ],
                    [
                        -97.681899,
                        30.647074
                    ],
                    [
                        -97.681191,
                        30.647722
                    ],
                    [
                        -97.680624,
                        30.648272
                    ],
                    [
                        -97.679967,
                        30.649006
                    ],
                    [
                        -97.679565,
                        30.649481
                    ],
                    [
                        -97.679216,
                        30.64994
                    ],
                    [
                        -97.677398,
                        30.652782
                    ],
                    [
                        -97.675509,
                        30.655857
                    ],
                    [
                        -97.672204,
                        30.661219
                    ],
                    [
                        -97.670565,
                        30.663846
                    ],
                    [
                        -97.668804,
                        30.666703
                    ],
                    [
                        -97.667702,
                        30.668477
                    ],
                    [
                        -97.666547,
                        30.670356
                    ],
                    [
                        -97.664282,
                        30.673994
                    ],
                    [
                        -97.66217,
                        30.677404
                    ],
                    [
                        -97.660813,
                        30.679636
                    ],
                    [
                        -97.660438,
                        30.680344
                    ],
                    [
                        -97.659952,
                        30.681297
                    ],
                    [
                        -97.659396,
                        30.682469
                    ],
                    [
                        -97.657105,
                        30.688244
                    ],
                    [
                        -97.655749,
                        30.691675
                    ],
                    [
                        -97.655001,
                        30.69357
                    ],
                    [
                        -97.654242,
                        30.695502
                    ],
                    [
                        -97.651837,
                        30.701569
                    ],
                    [
                        -97.650605,
                        30.704752
                    ],
                    [
                        -97.650032,
                        30.706407
                    ],
                    [
                        -97.649506,
                        30.707914
                    ],
                    [
                        -97.6471,
                        30.714861
                    ],
                    [
                        -97.644809,
                        30.721493
                    ],
                    [
                        -97.642516,
                        30.728112
                    ],
                    [
                        -97.641204,
                        30.731926
                    ],
                    [
                        -97.64055,
                        30.733854
                    ],
                    [
                        -97.639957,
                        30.735589
                    ],
                    [
                        -97.638464,
                        30.73986
                    ],
                    [
                        -97.63776,
                        30.741871
                    ],
                    [
                        -97.637024,
                        30.744112
                    ],
                    [
                        -97.635593,
                        30.748819
                    ],
                    [
                        -97.634865,
                        30.751203
                    ],
                    [
                        -97.634134,
                        30.753521
                    ],
                    [
                        -97.633481,
                        30.755242
                    ],
                    [
                        -97.632783,
                        30.756937
                    ],
                    [
                        -97.631361,
                        30.760325
                    ],
                    [
                        -97.629949,
                        30.763712
                    ],
                    [
                        -97.629283,
                        30.76533
                    ],
                    [
                        -97.628633,
                        30.767186
                    ],
                    [
                        -97.626967,
                        30.772614
                    ],
                    [
                        -97.625391,
                        30.778031
                    ],
                    [
                        -97.623512,
                        30.784579
                    ],
                    [
                        -97.622502,
                        30.788041
                    ],
                    [
                        -97.622013,
                        30.789776
                    ],
                    [
                        -97.62148,
                        30.791414
                    ],
                    [
                        -97.619949,
                        30.79507
                    ],
                    [
                        -97.618394,
                        30.798747
                    ],
                    [
                        -97.616768,
                        30.802543
                    ],
                    [
                        -97.615981,
                        30.804413
                    ],
                    [
                        -97.615131,
                        30.806289
                    ],
                    [
                        -97.613596,
                        30.809627
                    ],
                    [
                        -97.612097,
                        30.812809
                    ],
                    [
                        -97.61087,
                        30.81549
                    ],
                    [
                        -97.609838,
                        30.817424
                    ],
                    [
                        -97.609155,
                        30.818536
                    ],
                    [
                        -97.608488,
                        30.819497
                    ],
                    [
                        -97.605464,
                        30.823903
                    ],
                    [
                        -97.604844,
                        30.824826
                    ],
                    [
                        -97.604134,
                        30.82587
                    ],
                    [
                        -97.603341,
                        30.827
                    ],
                    [
                        -97.602452,
                        30.828428
                    ],
                    [
                        -97.60125,
                        30.830645
                    ],
                    [
                        -97.600182,
                        30.832964
                    ],
                    [
                        -97.59797,
                        30.837745
                    ],
                    [
                        -97.595824,
                        30.842401
                    ],
                    [
                        -97.594839,
                        30.844533
                    ],
                    [
                        -97.593535,
                        30.847419
                    ],
                    [
                        -97.591646,
                        30.851754
                    ],
                    [
                        -97.58975,
                        30.856011
                    ],
                    [
                        -97.588922,
                        30.85778
                    ],
                    [
                        -97.588622,
                        30.858377
                    ],
                    [
                        -97.58801,
                        30.859475
                    ],
                    [
                        -97.58689,
                        30.861771
                    ],
                    [
                        -97.585787,
                        30.86417
                    ],
                    [
                        -97.582337,
                        30.871659
                    ],
                    [
                        -97.580203,
                        30.876263
                    ],
                    [
                        -97.579121,
                        30.87859
                    ],
                    [
                        -97.578203,
                        30.880524
                    ],
                    [
                        -97.577608,
                        30.881605
                    ],
                    [
                        -97.57727,
                        30.882198
                    ],
                    [
                        -97.576753,
                        30.882992
                    ],
                    [
                        -97.576221,
                        30.883817
                    ],
                    [
                        -97.575601,
                        30.884618
                    ],
                    [
                        -97.574348,
                        30.886135
                    ],
                    [
                        -97.573038,
                        30.887665
                    ],
                    [
                        -97.566179,
                        30.895518
                    ],
                    [
                        -97.56313,
                        30.899002
                    ],
                    [
                        -97.561505,
                        30.900853
                    ],
                    [
                        -97.560383,
                        30.902126
                    ],
                    [
                        -97.559001,
                        30.903702
                    ],
                    [
                        -97.555812,
                        30.907375
                    ],
                    [
                        -97.55274,
                        30.910869
                    ],
                    [
                        -97.550119,
                        30.913876
                    ],
                    [
                        -97.549091,
                        30.915036
                    ],
                    [
                        -97.54828,
                        30.915948
                    ],
                    [
                        -97.547526,
                        30.916898
                    ],
                    [
                        -97.546725,
                        30.917948
                    ],
                    [
                        -97.546027,
                        30.919116
                    ],
                    [
                        -97.545381,
                        30.920329
                    ],
                    [
                        -97.545079,
                        30.920972
                    ],
                    [
                        -97.544867,
                        30.921544
                    ],
                    [
                        -97.543741,
                        30.924582
                    ],
                    [
                        -97.542687,
                        30.927694
                    ],
                    [
                        -97.542124,
                        30.929434
                    ],
                    [
                        -97.54165,
                        30.93115
                    ],
                    [
                        -97.541277,
                        30.932622
                    ],
                    [
                        -97.541017,
                        30.933909
                    ],
                    [
                        -97.540517,
                        30.936488
                    ],
                    [
                        -97.540327,
                        30.938024
                    ],
                    [
                        -97.540264,
                        30.938683
                    ],
                    [
                        -97.54009,
                        30.939551
                    ],
                    [
                        -97.538929,
                        30.94716
                    ],
                    [
                        -97.538489,
                        30.94884
                    ],
                    [
                        -97.538005,
                        30.950468
                    ],
                    [
                        -97.53761,
                        30.951523
                    ],
                    [
                        -97.537117,
                        30.952704
                    ],
                    [
                        -97.536134,
                        30.954812
                    ],
                    [
                        -97.535675,
                        30.955634
                    ],
                    [
                        -97.535032,
                        30.956576
                    ],
                    [
                        -97.533462,
                        30.958358
                    ],
                    [
                        -97.531804,
                        30.96012
                    ],
                    [
                        -97.530173,
                        30.961814
                    ],
                    [
                        -97.529259,
                        30.962706
                    ],
                    [
                        -97.528295,
                        30.963561
                    ],
                    [
                        -97.525559,
                        30.965892
                    ],
                    [
                        -97.524185,
                        30.967022
                    ],
                    [
                        -97.522812,
                        30.968206
                    ],
                    [
                        -97.520076,
                        30.970615
                    ],
                    [
                        -97.518718,
                        30.971779
                    ],
                    [
                        -97.517409,
                        30.972927
                    ],
                    [
                        -97.514949,
                        30.975066
                    ],
                    [
                        -97.512441,
                        30.977209
                    ],
                    [
                        -97.509646,
                        30.979671
                    ],
                    [
                        -97.508302,
                        30.980911
                    ],
                    [
                        -97.506937,
                        30.982189
                    ],
                    [
                        -97.504985,
                        30.984154
                    ],
                    [
                        -97.502921,
                        30.986399
                    ],
                    [
                        -97.501343,
                        30.988278
                    ],
                    [
                        -97.50026,
                        30.989638
                    ],
                    [
                        -97.498946,
                        30.991311
                    ],
                    [
                        -97.49095,
                        31.003165
                    ],
                    [
                        -97.488869,
                        31.006244
                    ],
                    [
                        -97.486873,
                        31.009277
                    ],
                    [
                        -97.484804,
                        31.012336
                    ],
                    [
                        -97.482797,
                        31.015318
                    ],
                    [
                        -97.481002,
                        31.018044
                    ],
                    [
                        -97.479204,
                        31.020788
                    ],
                    [
                        -97.477432,
                        31.023533
                    ],
                    [
                        -97.476595,
                        31.024964
                    ],
                    [
                        -97.475794,
                        31.026401
                    ],
                    [
                        -97.474768,
                        31.028384
                    ],
                    [
                        -97.47428,
                        31.029442
                    ],
                    [
                        -97.473848,
                        31.030565
                    ],
                    [
                        -97.472246,
                        31.034712
                    ],
                    [
                        -97.470584,
                        31.038893
                    ],
                    [
                        -97.46945,
                        31.041305
                    ],
                    [
                        -97.46845,
                        31.043159
                    ],
                    [
                        -97.467529,
                        31.045023
                    ],
                    [
                        -97.466892,
                        31.046024
                    ],
                    [
                        -97.466476,
                        31.046568
                    ],
                    [
                        -97.465989,
                        31.047106
                    ],
                    [
                        -97.465595,
                        31.047458
                    ],
                    [
                        -97.465187,
                        31.047767
                    ],
                    [
                        -97.46465,
                        31.048134
                    ],
                    [
                        -97.464077,
                        31.04847
                    ],
                    [
                        -97.459448,
                        31.050935
                    ],
                    [
                        -97.457101,
                        31.052159
                    ],
                    [
                        -97.454731,
                        31.053346
                    ],
                    [
                        -97.45182,
                        31.054657
                    ],
                    [
                        -97.448713,
                        31.055881
                    ],
                    [
                        -97.444901,
                        31.057233
                    ],
                    [
                        -97.439565,
                        31.058974
                    ],
                    [
                        -97.438279,
                        31.059495
                    ],
                    [
                        -97.437047,
                        31.060066
                    ],
                    [
                        -97.436021,
                        31.060645
                    ],
                    [
                        -97.434994,
                        31.061281
                    ],
                    [
                        -97.432626,
                        31.063151
                    ],
                    [
                        -97.430216,
                        31.065141
                    ],
                    [
                        -97.427783,
                        31.067215
                    ],
                    [
                        -97.425571,
                        31.069101
                    ],
                    [
                        -97.420799,
                        31.073095
                    ],
                    [
                        -97.418393,
                        31.075095
                    ],
                    [
                        -97.415983,
                        31.077159
                    ],
                    [
                        -97.412005,
                        31.080462
                    ],
                    [
                        -97.409894,
                        31.082232
                    ],
                    [
                        -97.40873,
                        31.083175
                    ],
                    [
                        -97.408242,
                        31.083551
                    ],
                    [
                        -97.407372,
                        31.084089
                    ],
                    [
                        -97.406255,
                        31.084588
                    ],
                    [
                        -97.405164,
                        31.084944
                    ],
                    [
                        -97.403206,
                        31.085563
                    ],
                    [
                        -97.398985,
                        31.08686
                    ],
                    [
                        -97.396012,
                        31.087784
                    ],
                    [
                        -97.393004,
                        31.088699
                    ],
                    [
                        -97.389935,
                        31.089657
                    ],
                    [
                        -97.386965,
                        31.090593
                    ],
                    [
                        -97.381571,
                        31.092272
                    ],
                    [
                        -97.378793,
                        31.09322
                    ],
                    [
                        -97.375903,
                        31.094077
                    ],
                    [
                        -97.372292,
                        31.095038
                    ],
                    [
                        -97.368767,
                        31.095951
                    ],
                    [
                        -97.367291,
                        31.096321
                    ],
                    [
                        -97.366522,
                        31.096616
                    ],
                    [
                        -97.365348,
                        31.097164
                    ],
                    [
                        -97.364397,
                        31.097635
                    ],
                    [
                        -97.363856,
                        31.097945
                    ],
                    [
                        -97.363338,
                        31.098327
                    ],
                    [
                        -97.362337,
                        31.099119
                    ],
                    [
                        -97.361881,
                        31.09957
                    ],
                    [
                        -97.361455,
                        31.100004
                    ],
                    [
                        -97.36102,
                        31.100483
                    ],
                    [
                        -97.360523,
                        31.101149
                    ],
                    [
                        -97.359958,
                        31.102043
                    ],
                    [
                        -97.359476,
                        31.102939
                    ],
                    [
                        -97.358711,
                        31.104653
                    ],
                    [
                        -97.357963,
                        31.106624
                    ],
                    [
                        -97.356748,
                        31.109788
                    ],
                    [
                        -97.355953,
                        31.112055
                    ],
                    [
                        -97.355101,
                        31.114272
                    ],
                    [
                        -97.354522,
                        31.115677
                    ],
                    [
                        -97.353933,
                        31.117246
                    ],
                    [
                        -97.353361,
                        31.11881
                    ],
                    [
                        -97.3531,
                        31.119451
                    ],
                    [
                        -97.35281,
                        31.119982
                    ],
                    [
                        -97.352347,
                        31.120633
                    ],
                    [
                        -97.352032,
                        31.121038
                    ],
                    [
                        -97.351458,
                        31.121605
                    ],
                    [
                        -97.350689,
                        31.12229
                    ],
                    [
                        -97.350143,
                        31.122681
                    ],
                    [
                        -97.349413,
                        31.12309
                    ],
                    [
                        -97.348707,
                        31.123433
                    ],
                    [
                        -97.348091,
                        31.12368
                    ],
                    [
                        -97.346344,
                        31.124092
                    ],
                    [
                        -97.344194,
                        31.124495
                    ],
                    [
                        -97.341437,
                        31.125046
                    ],
                    [
                        -97.339286,
                        31.12545
                    ],
                    [
                        -97.33835,
                        31.125714
                    ],
                    [
                        -97.337495,
                        31.12609
                    ],
                    [
                        -97.336741,
                        31.126487
                    ],
                    [
                        -97.335894,
                        31.127038
                    ],
                    [
                        -97.335131,
                        31.127671
                    ],
                    [
                        -97.334202,
                        31.128626
                    ],
                    [
                        -97.333805,
                        31.129166
                    ],
                    [
                        -97.333429,
                        31.129798
                    ],
                    [
                        -97.333057,
                        31.13054
                    ],
                    [
                        -97.332578,
                        31.131763
                    ],
                    [
                        -97.331251,
                        31.135272
                    ],
                    [
                        -97.330541,
                        31.137083
                    ],
                    [
                        -97.329848,
                        31.13894
                    ],
                    [
                        -97.326731,
                        31.146905
                    ],
                    [
                        -97.325148,
                        31.151405
                    ],
                    [
                        -97.3246,
                        31.153063
                    ],
                    [
                        -97.323888,
                        31.155064
                    ],
                    [
                        -97.31336,
                        31.152168
                    ],
                    [
                        -97.312881,
                        31.152033
                    ],
                    [
                        -97.312743,
                        31.152019
                    ],
                    [
                        -97.312612,
                        31.152042
                    ],
                    [
                        -97.312508,
                        31.152074
                    ],
                    [
                        -97.312422,
                        31.152144
                    ],
                    [
                        -97.312306,
                        31.1523
                    ],
                    [
                        -97.312232,
                        31.152444
                    ],
                    [
                        -97.31218,
                        31.152574
                    ],
                    [
                        -97.312008,
                        31.153021
                    ],
                    [
                        -97.310761,
                        31.156305
                    ],
                    [
                        -97.310704,
                        31.156447
                    ],
                    [
                        -97.310649,
                        31.156528
                    ],
                    [
                        -97.310594,
                        31.156595
                    ],
                    [
                        -97.310502,
                        31.156665
                    ],
                    [
                        -97.31043,
                        31.156706
                    ],
                    [
                        -97.310353,
                        31.156731
                    ],
                    [
                        -97.310273,
                        31.156742
                    ],
                    [
                        -97.310223,
                        31.15674
                    ],
                    [
                        -97.310144,
                        31.156729
                    ],
                    [
                        -97.307778,
                        31.156048
                    ]
                ]
            },
            "bbox": [
                -97.733838,
                30.265511,
                -97.307778,
                31.156742
            ]
        },
        {
            "type": "Feature",
            "properties": {
                "name": "Shakespeare to Blind Pig",
                "stroke-width": 1,
                "stroke-opacity": 1,
                "stroke": "rgba(91, 252, 4, 1)",
                "@id": "5666b4f0-c0f8-11f1-9b36-bbaed281745f"
            },
            "geometry": {
                "type": "LineString",
                "coordinates": [
                    [
                        -97.739799,
                        30.267318
                    ],
                    [
                        -97.739792,
                        30.267123
                    ]
                ]
            },
            "bbox": [
                -97.739799,
                30.267123,
                -97.739792,
                30.267318
            ]
        },
        {
            "type": "Feature",
            "properties": {
                "stroke-width": 1,
                "stroke-opacity": 1,
                "stroke": "rgba(0, 254, 254, 1)",
                "name": "Blind Pig to corner of 6th & Trinity",
                "@id": "ac83feb0-c0f8-11f1-9b36-bbaed281745f"
            },
            "geometry": {
                "type": "LineString",
                "coordinates": [
                    [
                        -97.739792,
                        30.267123
                    ],
                    [
                        -97.73949,
                        30.267045
                    ],
                    [
                        -97.739425,
                        30.267194
                    ],
                    [
                        -97.739387,
                        30.267206
                    ],
                    [
                        -97.739304,
                        30.267412
                    ],
                    [
                        -97.739146,
                        30.267368
                    ]
                ]
            },
            "bbox": [
                -97.739792,
                30.267045,
                -97.739146,
                30.267412
            ]
        },
        {
            "type": "Feature",
            "properties": {
                "stroke-width": 1,
                "stroke-opacity": 1,
                "stroke": "rgba(250, 246, 13, 1)",
                "name": "6th & 7th St. to corner of 6th & Trinity St.",
                "@id": "05e189e0-c0fa-11f1-9b36-bbaed281745f"
            },
            "geometry": {
                "type": "LineString",
                "coordinates": [
                    [
                        -97.739146,
                        30.267368
                    ],
                    [
                        -97.739264,
                        30.267177
                    ]
                ]
            },
            "bbox": [
                -97.739264,
                30.267177,
                -97.739146,
                30.267368
            ]
        },
        {
            "type": "Feature",
            "properties": {
                "stroke-width": 1,
                "stroke-opacity": 1,
                "stroke": "rgba(239, 114, 250, 1)",
                "name": "I-35 overpass to Mooseknuckle",
                "@id": "3d1f6260-c0fa-11f1-9b36-bbaed281745f"
            },
            "geometry": {
                "type": "LineString",
                "coordinates": [
                    [
                        -97.739264,
                        30.267177
                    ],
                    [
                        -97.739222,
                        30.267149
                    ],
                    [
                        -97.738684,
                        30.26701
                    ],
                    [
                        -97.738345,
                        30.2669
                    ],
                    [
                        -97.738136,
                        30.266845
                    ],
                    [
                        -97.737498,
                        30.26668
                    ],
                    [
                        -97.737302,
                        30.266606
                    ],
                    [
                        -97.737058,
                        30.266537
                    ],
                    [
                        -97.737112,
                        30.266406
                    ],
                    [
                        -97.73515,
                        30.26582
                    ],
                    [
                        -97.735009,
                        30.265773
                    ],
                    [
                        -97.734927,
                        30.265746
                    ]
                ]
            },
            "bbox": [
                -97.739264,
                30.265746,
                -97.734927,
                30.267177
            ]
        },
        {
            "type": "Feature",
            "properties": {
                "name": "I-35 overpass to Mooseknuckle",
                "stroke-width": 1,
                "stroke-opacity": 1,
                "stroke": "rgba(141, 250, 6, 1)",
                "@id": "138f03a0-c0fb-11f1-9b36-bbaed281745f"
            },
            "geometry": {
                "type": "LineString",
                "coordinates": [
                    [
                        -97.734927,
                        30.265746
                    ],
                    [
                        -97.737111,
                        30.266406
                    ],
                    [
                        -97.737055,
                        30.266538
                    ],
                    [
                        -97.737301,
                        30.266609
                    ],
                    [
                        -97.737497,
                        30.266684
                    ],
                    [
                        -97.738345,
                        30.266905
                    ],
                    [
                        -97.738685,
                        30.267014
                    ],
                    [
                        -97.738935,
                        30.26708
                    ]
                ]
            },
            "bbox": [
                -97.738935,
                30.265746,
                -97.734927,
                30.26708
            ]
        },
        {
            "type": "Feature",
            "properties": {
                "stroke-width": 1,
                "stroke-opacity": 1,
                "stroke": "rgba(211, 3, 252, 1)",
                "name": "Mooseknuckle to 6th & San Jacinto",
                "@id": "ac5b87c0-c0fb-11f1-9b36-bbaed281745f"
            },
            "geometry": {
                "type": "LineString",
                "coordinates": [
                    [
                        -97.738935,
                        30.267081
                    ],
                    [
                        -97.739222,
                        30.267149
                    ],
                    [
                        -97.739419,
                        30.267207
                    ],
                    [
                        -97.739855,
                        30.267328
                    ]
                ]
            },
            "bbox": [
                -97.739855,
                30.267081,
                -97.738935,
                30.267328
            ]
        },
        {
            "type": "Feature",
            "properties": {
                "name": "Mooseknuckle to San Jacinto",
                "stroke-width": 1,
                "stroke-opacity": 1,
                "stroke": "rgba(255, 251, 1, 1)",
                "@id": "0fc9efe0-c0fc-11f1-9b36-bbaed281745f"
            },
            "geometry": {
                "type": "LineString",
                "coordinates": [
                    [
                        -97.738935,
                        30.267081
                    ],
                    [
                        -97.740206,
                        30.267385
                    ],
                    [
                        -97.740412,
                        30.267288
                    ]
                ]
            },
            "bbox": [
                -97.740412,
                30.267081,
                -97.738935,
                30.267385
            ]
        },
        {
            "type": "Feature",
            "properties": {
                "name": "6th & San Jacinto to Bijou Lounge",
                "stroke-width": 1,
                "stroke-opacity": 1,
                "stroke": "rgba(70, 255, 9, 1)",
                "@id": "420a2a10-c0fc-11f1-9b36-bbaed281745f"
            },
            "geometry": {
                "type": "LineString",
                "coordinates": [
                    [
                        -97.740412,
                        30.267288
                    ],
                    [
                        -97.738681,
                        30.266817
                    ]
                ]
            },
            "bbox": [
                -97.740412,
                30.266817,
                -97.738681,
                30.267288
            ]
        },
        {
            "type": "Feature",
            "properties": {
                "name": "Bijou Lounge to Chevron",
                "stroke-width": 1,
                "stroke-opacity": 1,
                "stroke": "rgba(249, 180, 96, 1)",
                "@id": "77a8d180-c0fc-11f1-9b36-bbaed281745f"
            },
            "geometry": {
                "type": "LineString",
                "coordinates": [
                    [
                        -97.738681,
                        30.266817
                    ],
                    [
                        -97.738377,
                        30.266731
                    ],
                    [
                        -97.738185,
                        30.26668
                    ],
                    [
                        -97.737628,
                        30.266528
                    ],
                    [
                        -97.737334,
                        30.26646
                    ],
                    [
                        -97.737114,
                        30.266396
                    ],
                    [
                        -97.73574,
                        30.265987
                    ],
                    [
                        -97.735053,
                        30.26578
                    ],
                    [
                        -97.734362,
                        30.265582
                    ],
                    [
                        -97.734282,
                        30.265786
                    ],
                    [
                        -97.73403,
                        30.265706
                    ]
                ]
            },
            "bbox": [
                -97.738681,
                30.265582,
                -97.73403,
                30.266817
            ]
        },
        {
            "type": "Feature",
            "properties": {
                "stroke-width": 1,
                "stroke-opacity": 1,
                "stroke": "rgba(1, 255, 52, 1)",
                "@id": "f5d25590-c0fc-11f1-9b36-bbaed281745f"
            },
            "geometry": {
                "type": "LineString",
                "coordinates": [
                    [
                        -97.73403,
                        30.265706
                    ],
                    [
                        -97.733623,
                        30.265568
                    ]
                ]
            },
            "bbox": [
                -97.73403,
                30.265568,
                -97.733623,
                30.265706
            ]
        }
    ]
}