{
    "type": "FeatureCollection",
    "features": [
        {
            "type": "Feature",
            "geometry": {
                "type": "Point",
                "coordinates": [
                    -88.764183,
                    30.360767,
                    0
                ]
            },
            "properties": {
                "name": "lakemarsPier",
                "styleUrl": "#m_ylw-pushpin0",
                "icon-scale": 1.1,
                "icon-offset": [
                    20,
                    2
                ],
                "icon-offset-units": [
                    "pixels",
                    "pixels"
                ],
                "icon": "http://maps.google.com/mapfiles/kml/pushpin/ylw-pushpin.png",
                "@id": "669e4a60-8ec4-11f1-a94f-d13e27a2cfc1"
            },
            "bbox": [
                -88.764183,
                30.360767,
                -88.764183,
                30.360767
            ]
        },
        {
            "type": "Feature",
            "geometry": {
                "type": "Point",
                "coordinates": [
                    -88.529708,
                    30.379697,
                    0
                ]
            },
            "properties": {
                "name": "coroner",
                "styleUrl": "#m_ylw-pushpin",
                "icon-scale": 1.1,
                "icon-offset": [
                    20,
                    2
                ],
                "icon-offset-units": [
                    "pixels",
                    "pixels"
                ],
                "icon": "http://maps.google.com/mapfiles/kml/pushpin/ylw-pushpin.png",
                "@id": "669e4a61-8ec4-11f1-a94f-d13e27a2cfc1"
            },
            "bbox": [
                -88.529708,
                30.379697,
                -88.529708,
                30.379697
            ]
        },
        {
            "type": "Feature",
            "geometry": {
                "type": "Point",
                "coordinates": [
                    -88.716672,
                    30.429278,
                    0
                ]
            },
            "properties": {
                "name": "church",
                "styleUrl": "#m_ylw-pushpin0",
                "icon-scale": 1.1,
                "icon-offset": [
                    20,
                    2
                ],
                "icon-offset-units": [
                    "pixels",
                    "pixels"
                ],
                "icon": "http://maps.google.com/mapfiles/kml/pushpin/ylw-pushpin.png",
                "@id": "669e4a62-8ec4-11f1-a94f-d13e27a2cfc1"
            },
            "bbox": [
                -88.716672,
                30.429278,
                -88.716672,
                30.429278
            ]
        },
        {
            "type": "Feature",
            "geometry": {
                "type": "Point",
                "coordinates": [
                    -88.531639,
                    30.380206,
                    0
                ]
            },
            "properties": {
                "name": "fairgrounds",
                "styleUrl": "#m_ylw-pushpin0",
                "icon-scale": 1.1,
                "icon-offset": [
                    20,
                    2
                ],
                "icon-offset-units": [
                    "pixels",
                    "pixels"
                ],
                "icon": "http://maps.google.com/mapfiles/kml/pushpin/ylw-pushpin.png",
                "@id": "669e4a63-8ec4-11f1-a94f-d13e27a2cfc1"
            },
            "bbox": [
                -88.531639,
                30.380206,
                -88.531639,
                30.380206
            ]
        },
        {
            "type": "Feature",
            "geometry": {
                "type": "Point",
                "coordinates": [
                    -88.827825,
                    30.419464,
                    0
                ]
            },
            "properties": {
                "name": "fortbayouLaunch",
                "styleUrl": "#m_ylw-pushpin0",
                "icon-scale": 1.1,
                "icon-offset": [
                    20,
                    2
                ],
                "icon-offset-units": [
                    "pixels",
                    "pixels"
                ],
                "icon": "http://maps.google.com/mapfiles/kml/pushpin/ylw-pushpin.png",
                "@id": "669e4a64-8ec4-11f1-a94f-d13e27a2cfc1"
            },
            "bbox": [
                -88.827825,
                30.419464,
                -88.827825,
                30.419464
            ]
        },
        {
            "type": "Feature",
            "geometry": {
                "type": "Point",
                "coordinates": [
                    -87.620675,
                    41.850669,
                    0
                ]
            },
            "properties": {
                "name": "naacpChicago",
                "styleUrl": "#m_ylw-pushpin0",
                "icon-scale": 1.1,
                "icon-offset": [
                    20,
                    2
                ],
                "icon-offset-units": [
                    "pixels",
                    "pixels"
                ],
                "icon": "http://maps.google.com/mapfiles/kml/pushpin/ylw-pushpin.png",
                "@id": "669e4a65-8ec4-11f1-a94f-d13e27a2cfc1"
            },
            "bbox": [
                -87.620675,
                41.850669,
                -87.620675,
                41.850669
            ]
        },
        {
            "type": "Feature",
            "geometry": {
                "type": "Point",
                "coordinates": [
                    -77.018392,
                    38.883664,
                    0
                ]
            },
            "properties": {
                "name": "medicalexaminerwashingtoDC",
                "styleUrl": "#m_ylw-pushpin0",
                "icon-scale": 1.1,
                "icon-offset": [
                    20,
                    2
                ],
                "icon-offset-units": [
                    "pixels",
                    "pixels"
                ],
                "icon": "http://maps.google.com/mapfiles/kml/pushpin/ylw-pushpin.png",
                "@id": "669e4a66-8ec4-11f1-a94f-d13e27a2cfc1"
            },
            "bbox": [
                -77.018392,
                38.883664,
                -77.018392,
                38.883664
            ]
        },
        {
            "type": "Feature",
            "geometry": {
                "type": "Point",
                "coordinates": [
                    -88.5589,
                    30.3656,
                    0
                ]
            },
            "properties": {
                "name": "districtAttorney",
                "styleUrl": "#m_ylw-pushpin0",
                "icon-scale": 1.1,
                "icon-offset": [
                    20,
                    2
                ],
                "icon-offset-units": [
                    "pixels",
                    "pixels"
                ],
                "icon": "http://maps.google.com/mapfiles/kml/pushpin/ylw-pushpin.png",
                "@id": "669e4a67-8ec4-11f1-a94f-d13e27a2cfc1"
            },
            "bbox": [
                -88.5589,
                30.3656,
                -88.5589,
                30.3656
            ]
        },
        {
            "type": "Feature",
            "geometry": {
                "type": "Point",
                "coordinates": [
                    -88.558317,
                    30.36545,
                    0
                ]
            },
            "properties": {
                "name": "jcsd",
                "styleUrl": "#m_ylw-pushpin0",
                "icon-scale": 1.1,
                "icon-offset": [
                    20,
                    2
                ],
                "icon-offset-units": [
                    "pixels",
                    "pixels"
                ],
                "icon": "http://maps.google.com/mapfiles/kml/pushpin/ylw-pushpin.png",
                "@id": "669e4a68-8ec4-11f1-a94f-d13e27a2cfc1"
            },
            "bbox": [
                -88.558317,
                30.36545,
                -88.558317,
                30.36545
            ]
        },
        {
            "type": "Feature",
            "geometry": {
                "type": "Point",
                "coordinates": [
                    -88.765086,
                    30.409167,
                    0
                ]
            },
            "properties": {
                "name": "ospd",
                "styleUrl": "#m_ylw-pushpin0",
                "icon-scale": 1.1,
                "icon-offset": [
                    20,
                    2
                ],
                "icon-offset-units": [
                    "pixels",
                    "pixels"
                ],
                "icon": "http://maps.google.com/mapfiles/kml/pushpin/ylw-pushpin.png",
                "@id": "669e4a69-8ec4-11f1-a94f-d13e27a2cfc1"
            },
            "bbox": [
                -88.765086,
                30.409167,
                -88.765086,
                30.409167
            ]
        },
        {
            "type": "Feature",
            "geometry": {
                "type": "Point",
                "coordinates": [
                    -88.936117,
                    30.433178,
                    0
                ]
            },
            "properties": {
                "name": "dmr",
                "styleUrl": "#m_ylw-pushpin0",
                "icon-scale": 1.1,
                "icon-offset": [
                    20,
                    2
                ],
                "icon-offset-units": [
                    "pixels",
                    "pixels"
                ],
                "icon": "http://maps.google.com/mapfiles/kml/pushpin/ylw-pushpin.png",
                "@id": "669e4a6a-8ec4-11f1-a94f-d13e27a2cfc1"
            },
            "bbox": [
                -88.936117,
                30.433178,
                -88.936117,
                30.433178
            ]
        },
        {
            "type": "Feature",
            "geometry": {
                "type": "Point",
                "coordinates": [
                    -88.759083,
                    30.409531,
                    0
                ]
            },
            "properties": {
                "name": "mcDonalds",
                "styleUrl": "#m_ylw-pushpin0",
                "icon-scale": 1.1,
                "icon-offset": [
                    20,
                    2
                ],
                "icon-offset-units": [
                    "pixels",
                    "pixels"
                ],
                "icon": "http://maps.google.com/mapfiles/kml/pushpin/ylw-pushpin.png",
                "@id": "669e4a6b-8ec4-11f1-a94f-d13e27a2cfc1"
            },
            "bbox": [
                -88.759083,
                30.409531,
                -88.759083,
                30.409531
            ]
        },
        {
            "type": "Feature",
            "geometry": {
                "type": "Point",
                "coordinates": [
                    -88.870861,
                    30.42765,
                    0
                ]
            },
            "properties": {
                "name": "saintmartinBayou",
                "styleUrl": "#m_ylw-pushpin0",
                "icon-scale": 1.1,
                "icon-offset": [
                    20,
                    2
                ],
                "icon-offset-units": [
                    "pixels",
                    "pixels"
                ],
                "icon": "http://maps.google.com/mapfiles/kml/pushpin/ylw-pushpin.png",
                "@id": "669e4a6c-8ec4-11f1-a94f-d13e27a2cfc1"
            },
            "bbox": [
                -88.870861,
                30.42765,
                -88.870861,
                30.42765
            ]
        },
        {
            "type": "Feature",
            "geometry": {
                "type": "Point",
                "coordinates": [
                    -88.886153,
                    30.392019,
                    0
                ]
            },
            "properties": {
                "name": "biloxismallcraftHarbour",
                "styleUrl": "#m_ylw-pushpin0",
                "icon-scale": 1.1,
                "icon-offset": [
                    20,
                    2
                ],
                "icon-offset-units": [
                    "pixels",
                    "pixels"
                ],
                "icon": "http://maps.google.com/mapfiles/kml/pushpin/ylw-pushpin.png",
                "@id": "669e4a6d-8ec4-11f1-a94f-d13e27a2cfc1"
            },
            "bbox": [
                -88.886153,
                30.392019,
                -88.886153,
                30.392019
            ]
        },
        {
            "type": "Feature",
            "geometry": {
                "type": "Point",
                "coordinates": [
                    -88.812797,
                    30.424206,
                    0
                ]
            },
            "properties": {
                "name": "edminstonLaunch",
                "styleUrl": "#m_ylw-pushpin0",
                "icon-scale": 1.1,
                "icon-offset": [
                    20,
                    2
                ],
                "icon-offset-units": [
                    "pixels",
                    "pixels"
                ],
                "icon": "http://maps.google.com/mapfiles/kml/pushpin/ylw-pushpin.png",
                "@id": "669e4a6e-8ec4-11f1-a94f-d13e27a2cfc1"
            },
            "bbox": [
                -88.812797,
                30.424206,
                -88.812797,
                30.424206
            ]
        },
        {
            "type": "Feature",
            "geometry": {
                "type": "Point",
                "coordinates": [
                    -88.626503,
                    30.405522,
                    0
                ]
            },
            "properties": {
                "name": "siouxbayouLaunch",
                "styleUrl": "#m_ylw-pushpin0",
                "icon-scale": 1.1,
                "icon-offset": [
                    20,
                    2
                ],
                "icon-offset-units": [
                    "pixels",
                    "pixels"
                ],
                "icon": "http://maps.google.com/mapfiles/kml/pushpin/ylw-pushpin.png",
                "@id": "669e4a6f-8ec4-11f1-a94f-d13e27a2cfc1"
            },
            "bbox": [
                -88.626503,
                30.405522,
                -88.626503,
                30.405522
            ]
        },
        {
            "type": "Feature",
            "geometry": {
                "type": "Point",
                "coordinates": [
                    -88.777154,
                    30.243766,
                    0
                ]
            },
            "properties": {
                "name": "tritonGPS",
                "styleUrl": "#m_ylw-pushpin0",
                "icon-scale": 1.1,
                "icon-offset": [
                    20,
                    2
                ],
                "icon-offset-units": [
                    "pixels",
                    "pixels"
                ],
                "icon": "http://maps.google.com/mapfiles/kml/pushpin/ylw-pushpin.png",
                "@id": "669e4a70-8ec4-11f1-a94f-d13e27a2cfc1"
            },
            "bbox": [
                -88.777154,
                30.243766,
                -88.777154,
                30.243766
            ]
        },
        {
            "type": "Feature",
            "geometry": {
                "type": "Point",
                "coordinates": [
                    -88.648353,
                    30.233197,
                    0
                ]
            },
            "properties": {
                "name": "chimneyStacks",
                "styleUrl": "#m_ylw-pushpin0",
                "icon-scale": 1.1,
                "icon-offset": [
                    20,
                    2
                ],
                "icon-offset-units": [
                    "pixels",
                    "pixels"
                ],
                "icon": "http://maps.google.com/mapfiles/kml/pushpin/ylw-pushpin.png",
                "@id": "669e4a71-8ec4-11f1-a94f-d13e27a2cfc1"
            },
            "bbox": [
                -88.648353,
                30.233197,
                -88.648353,
                30.233197
            ]
        },
        {
            "type": "Feature",
            "geometry": {
                "type": "Point",
                "coordinates": [
                    -88.530925,
                    30.352083,
                    0
                ]
            },
            "properties": {
                "name": "knockandtalkartimeseAve",
                "styleUrl": "#m_ylw-pushpin0",
                "icon-scale": 1.1,
                "icon-offset": [
                    20,
                    2
                ],
                "icon-offset-units": [
                    "pixels",
                    "pixels"
                ],
                "icon": "http://maps.google.com/mapfiles/kml/pushpin/ylw-pushpin.png",
                "@id": "669e4a72-8ec4-11f1-a94f-d13e27a2cfc1"
            },
            "bbox": [
                -88.530925,
                30.352083,
                -88.530925,
                30.352083
            ]
        },
        {
            "type": "Feature",
            "geometry": {
                "type": "Point",
                "coordinates": [
                    -88.812781,
                    30.422764,
                    0
                ]
            },
            "properties": {
                "name": "bartHome",
                "styleUrl": "#m_ylw-pushpin0",
                "icon-scale": 1.1,
                "icon-offset": [
                    20,
                    2
                ],
                "icon-offset-units": [
                    "pixels",
                    "pixels"
                ],
                "icon": "http://maps.google.com/mapfiles/kml/pushpin/ylw-pushpin.png",
                "@id": "669e4a73-8ec4-11f1-a94f-d13e27a2cfc1"
            },
            "bbox": [
                -88.812781,
                30.422764,
                -88.812781,
                30.422764
            ]
        },
        {
            "type": "Feature",
            "geometry": {
                "type": "Point",
                "coordinates": [
                    -88.836647,
                    30.41675,
                    0
                ]
            },
            "properties": {
                "name": "jaxHome",
                "styleUrl": "#m_ylw-pushpin0",
                "icon-scale": 1.1,
                "icon-offset": [
                    20,
                    2
                ],
                "icon-offset-units": [
                    "pixels",
                    "pixels"
                ],
                "icon": "http://maps.google.com/mapfiles/kml/pushpin/ylw-pushpin.png",
                "@id": "669e4a74-8ec4-11f1-a94f-d13e27a2cfc1"
            },
            "bbox": [
                -88.836647,
                30.41675,
                -88.836647,
                30.41675
            ]
        },
        {
            "type": "Feature",
            "geometry": {
                "type": "Point",
                "coordinates": [
                    -88.846844,
                    30.434558,
                    0
                ]
            },
            "properties": {
                "name": "elcaminoLaunch",
                "styleUrl": "#m_ylw-pushpin0",
                "icon-scale": 1.1,
                "icon-offset": [
                    20,
                    2
                ],
                "icon-offset-units": [
                    "pixels",
                    "pixels"
                ],
                "icon": "http://maps.google.com/mapfiles/kml/pushpin/ylw-pushpin.png",
                "@id": "669e4a75-8ec4-11f1-a94f-d13e27a2cfc1"
            },
            "bbox": [
                -88.846844,
                30.434558,
                -88.846844,
                30.434558
            ]
        },
        {
            "type": "Feature",
            "geometry": {
                "type": "Point",
                "coordinates": [
                    -88.442811,
                    30.204564,
                    0
                ]
            },
            "properties": {
                "name": "petitboisIsland",
                "styleUrl": "#m_ylw-pushpin0",
                "icon-scale": 1.1,
                "icon-offset": [
                    20,
                    2
                ],
                "icon-offset-units": [
                    "pixels",
                    "pixels"
                ],
                "icon": "http://maps.google.com/mapfiles/kml/pushpin/ylw-pushpin.png",
                "@id": "669e4a76-8ec4-11f1-a94f-d13e27a2cfc1"
            },
            "bbox": [
                -88.442811,
                30.204564,
                -88.442811,
                30.204564
            ]
        },
        {
            "type": "Feature",
            "geometry": {
                "type": "Point",
                "coordinates": [
                    -88.842364,
                    29.837778,
                    0
                ]
            },
            "properties": {
                "name": "chandeleurIslands",
                "styleUrl": "#m_ylw-pushpin0",
                "icon-scale": 1.1,
                "icon-offset": [
                    20,
                    2
                ],
                "icon-offset-units": [
                    "pixels",
                    "pixels"
                ],
                "icon": "http://maps.google.com/mapfiles/kml/pushpin/ylw-pushpin.png",
                "@id": "669e4a77-8ec4-11f1-a94f-d13e27a2cfc1"
            },
            "bbox": [
                -88.842364,
                29.837778,
                -88.842364,
                29.837778
            ]
        },
        {
            "type": "Feature",
            "geometry": {
                "type": "Point",
                "coordinates": [
                    -88.556889,
                    30.347994,
                    0
                ]
            },
            "properties": {
                "name": "warrenHome",
                "styleUrl": "#m_ylw-pushpin0",
                "icon-scale": 1.1,
                "icon-offset": [
                    20,
                    2
                ],
                "icon-offset-units": [
                    "pixels",
                    "pixels"
                ],
                "icon": "http://maps.google.com/mapfiles/kml/pushpin/ylw-pushpin.png",
                "@id": "669e4a78-8ec4-11f1-a94f-d13e27a2cfc1"
            },
            "bbox": [
                -88.556889,
                30.347994,
                -88.556889,
                30.347994
            ]
        },
        {
            "type": "Feature",
            "geometry": {
                "type": "Point",
                "coordinates": [
                    -88.9853,
                    30.466581,
                    0
                ]
            },
            "properties": {
                "name": "cardinalLane",
                "styleUrl": "#m_ylw-pushpin0",
                "icon-scale": 1.1,
                "icon-offset": [
                    20,
                    2
                ],
                "icon-offset-units": [
                    "pixels",
                    "pixels"
                ],
                "icon": "http://maps.google.com/mapfiles/kml/pushpin/ylw-pushpin.png",
                "@id": "669e4a79-8ec4-11f1-a94f-d13e27a2cfc1"
            },
            "bbox": [
                -88.9853,
                30.466581,
                -88.9853,
                30.466581
            ]
        },
        {
            "type": "Feature",
            "geometry": {
                "type": "Point",
                "coordinates": [
                    -88.845542,
                    30.420958,
                    0
                ]
            },
            "properties": {
                "name": "avapoolParty",
                "styleUrl": "#m_ylw-pushpin0",
                "icon-scale": 1.1,
                "icon-offset": [
                    20,
                    2
                ],
                "icon-offset-units": [
                    "pixels",
                    "pixels"
                ],
                "icon": "http://maps.google.com/mapfiles/kml/pushpin/ylw-pushpin.png",
                "@id": "669e4a7a-8ec4-11f1-a94f-d13e27a2cfc1"
            },
            "bbox": [
                -88.845542,
                30.420958,
                -88.845542,
                30.420958
            ]
        },
        {
            "type": "Feature",
            "geometry": {
                "type": "Point",
                "coordinates": [
                    -88.782217,
                    30.404839,
                    0
                ]
            },
            "properties": {
                "name": "knockandtalkJacob",
                "styleUrl": "#m_ylw-pushpin0",
                "icon-scale": 1.1,
                "icon-offset": [
                    20,
                    2
                ],
                "icon-offset-units": [
                    "pixels",
                    "pixels"
                ],
                "icon": "http://maps.google.com/mapfiles/kml/pushpin/ylw-pushpin.png",
                "@id": "669e4a7b-8ec4-11f1-a94f-d13e27a2cfc1"
            },
            "bbox": [
                -88.782217,
                30.404839,
                -88.782217,
                30.404839
            ]
        },
        {
            "type": "Feature",
            "geometry": {
                "type": "Point",
                "coordinates": [
                    -88.783306,
                    30.420214,
                    0
                ]
            },
            "properties": {
                "name": "knockandtalkDrew",
                "styleUrl": "#m_ylw-pushpin0",
                "icon-scale": 1.1,
                "icon-offset": [
                    20,
                    2
                ],
                "icon-offset-units": [
                    "pixels",
                    "pixels"
                ],
                "icon": "http://maps.google.com/mapfiles/kml/pushpin/ylw-pushpin.png",
                "@id": "669e4a7c-8ec4-11f1-a94f-d13e27a2cfc1"
            },
            "bbox": [
                -88.783306,
                30.420214,
                -88.783306,
                30.420214
            ]
        },
        {
            "type": "Feature",
            "geometry": {
                "type": "Point",
                "coordinates": [
                    -88.53125,
                    30.346961,
                    0
                ]
            },
            "properties": {
                "name": "knockandtalkLaney",
                "styleUrl": "#m_ylw-pushpin0",
                "icon-scale": 1.1,
                "icon-offset": [
                    20,
                    2
                ],
                "icon-offset-units": [
                    "pixels",
                    "pixels"
                ],
                "icon": "http://maps.google.com/mapfiles/kml/pushpin/ylw-pushpin.png",
                "@id": "669e4a7d-8ec4-11f1-a94f-d13e27a2cfc1"
            },
            "bbox": [
                -88.53125,
                30.346961,
                -88.53125,
                30.346961
            ]
        },
        {
            "type": "Feature",
            "geometry": {
                "type": "Point",
                "coordinates": [
                    -88.534161,
                    30.376311,
                    0
                ]
            },
            "properties": {
                "name": "knockandtalkoceanspringsHospital",
                "styleUrl": "#m_ylw-pushpin0",
                "icon-scale": 1.1,
                "icon-offset": [
                    20,
                    2
                ],
                "icon-offset-units": [
                    "pixels",
                    "pixels"
                ],
                "icon": "http://maps.google.com/mapfiles/kml/pushpin/ylw-pushpin.png",
                "@id": "669e4a7e-8ec4-11f1-a94f-d13e27a2cfc1"
            },
            "bbox": [
                -88.534161,
                30.376311,
                -88.534161,
                30.376311
            ]
        },
        {
            "type": "Feature",
            "geometry": {
                "type": "Point",
                "coordinates": [
                    -88.889767,
                    30.395792,
                    0
                ]
            },
            "properties": {
                "name": "knockandtalkbiloxiHospital",
                "styleUrl": "#m_ylw-pushpin0",
                "icon-scale": 1.1,
                "icon-offset": [
                    20,
                    2
                ],
                "icon-offset-units": [
                    "pixels",
                    "pixels"
                ],
                "icon": "http://maps.google.com/mapfiles/kml/pushpin/ylw-pushpin.png",
                "@id": "669e4a7f-8ec4-11f1-a94f-d13e27a2cfc1"
            },
            "bbox": [
                -88.889767,
                30.395792,
                -88.889767,
                30.395792
            ]
        },
        {
            "type": "Feature",
            "geometry": {
                "type": "Point",
                "coordinates": [
                    -88.782886,
                    30.243097,
                    0
                ]
            },
            "properties": {
                "name": "bodyFound",
                "styleUrl": "#m_ylw-pushpin0",
                "icon-scale": 1.1,
                "icon-offset": [
                    20,
                    2
                ],
                "icon-offset-units": [
                    "pixels",
                    "pixels"
                ],
                "icon": "http://maps.google.com/mapfiles/kml/pushpin/ylw-pushpin.png",
                "@id": "669e4a80-8ec4-11f1-a94f-d13e27a2cfc1"
            },
            "bbox": [
                -88.782886,
                30.243097,
                -88.782886,
                30.243097
            ]
        },
        {
            "type": "Feature",
            "geometry": {
                "type": "Point",
                "coordinates": [
                    -88.777433,
                    30.243758,
                    0
                ]
            },
            "properties": {
                "name": "palmBeach",
                "styleUrl": "#m_ylw-pushpin0",
                "icon-scale": 1.1,
                "icon-offset": [
                    20,
                    2
                ],
                "icon-offset-units": [
                    "pixels",
                    "pixels"
                ],
                "icon": "http://maps.google.com/mapfiles/kml/pushpin/ylw-pushpin.png",
                "@id": "669e4a81-8ec4-11f1-a94f-d13e27a2cfc1"
            },
            "bbox": [
                -88.777433,
                30.243758,
                -88.777433,
                30.243758
            ]
        },
        {
            "type": "Feature",
            "geometry": {
                "type": "Point",
                "coordinates": [
                    -88.777642,
                    30.243753,
                    0
                ]
            },
            "properties": {
                "name": "tideline",
                "styleUrl": "#m_ylw-pushpin0",
                "icon-scale": 1.1,
                "icon-offset": [
                    20,
                    2
                ],
                "icon-offset-units": [
                    "pixels",
                    "pixels"
                ],
                "icon": "http://maps.google.com/mapfiles/kml/pushpin/ylw-pushpin.png",
                "@id": "669e4a82-8ec4-11f1-a94f-d13e27a2cfc1"
            },
            "bbox": [
                -88.777642,
                30.243753,
                -88.777642,
                30.243753
            ]
        },
        {
            "type": "Feature",
            "geometry": {
                "type": "Point",
                "coordinates": [
                    -88.777328,
                    30.243683,
                    0
                ]
            },
            "properties": {
                "name": "tracestin",
                "styleUrl": "#m_ylw-pushpin0",
                "icon-scale": 1.1,
                "icon-offset": [
                    20,
                    2
                ],
                "icon-offset-units": [
                    "pixels",
                    "pixels"
                ],
                "icon": "http://maps.google.com/mapfiles/kml/pushpin/ylw-pushpin.png",
                "@id": "669e4a83-8ec4-11f1-a94f-d13e27a2cfc1"
            },
            "bbox": [
                -88.777328,
                30.243683,
                -88.777328,
                30.243683
            ]
        },
        {
            "type": "Feature",
            "geometry": {
                "type": "Point",
                "coordinates": [
                    -88.776653,
                    30.2437,
                    0
                ]
            },
            "properties": {
                "name": "lucas",
                "styleUrl": "#m_ylw-pushpin0",
                "icon-scale": 1.1,
                "icon-offset": [
                    20,
                    2
                ],
                "icon-offset-units": [
                    "pixels",
                    "pixels"
                ],
                "icon": "http://maps.google.com/mapfiles/kml/pushpin/ylw-pushpin.png",
                "@id": "669e4a84-8ec4-11f1-a94f-d13e27a2cfc1"
            },
            "bbox": [
                -88.776653,
                30.2437,
                -88.776653,
                30.2437
            ]
        },
        {
            "type": "Feature",
            "geometry": {
                "type": "Point",
                "coordinates": [
                    -88.776569,
                    30.243642,
                    0
                ]
            },
            "properties": {
                "name": "katie",
                "styleUrl": "#m_ylw-pushpin0",
                "icon-scale": 1.1,
                "icon-offset": [
                    20,
                    2
                ],
                "icon-offset-units": [
                    "pixels",
                    "pixels"
                ],
                "icon": "http://maps.google.com/mapfiles/kml/pushpin/ylw-pushpin.png",
                "@id": "669e4a85-8ec4-11f1-a94f-d13e27a2cfc1"
            },
            "bbox": [
                -88.776569,
                30.243642,
                -88.776569,
                30.243642
            ]
        },
        {
            "type": "Feature",
            "geometry": {
                "type": "Point",
                "coordinates": [
                    -88.875853,
                    30.425633,
                    0
                ]
            },
            "properties": {
                "name": "coachboatLaunch",
                "styleUrl": "#m_ylw-pushpin0",
                "icon-scale": 1.1,
                "icon-offset": [
                    20,
                    2
                ],
                "icon-offset-units": [
                    "pixels",
                    "pixels"
                ],
                "icon": "http://maps.google.com/mapfiles/kml/pushpin/ylw-pushpin.png",
                "@id": "669e4a86-8ec4-11f1-a94f-d13e27a2cfc1"
            },
            "bbox": [
                -88.875853,
                30.425633,
                -88.875853,
                30.425633
            ]
        },
        {
            "type": "Feature",
            "geometry": {
                "type": "Point",
                "coordinates": [
                    -88.785119,
                    30.409419,
                    0
                ]
            },
            "properties": {
                "name": "wyattHome",
                "styleUrl": "#m_ylw-pushpin0",
                "icon-scale": 1.1,
                "icon-offset": [
                    20,
                    2
                ],
                "icon-offset-units": [
                    "pixels",
                    "pixels"
                ],
                "icon": "http://maps.google.com/mapfiles/kml/pushpin/ylw-pushpin.png",
                "@id": "669e4a87-8ec4-11f1-a94f-d13e27a2cfc1"
            },
            "bbox": [
                -88.785119,
                30.409419,
                -88.785119,
                30.409419
            ]
        },
        {
            "type": "Feature",
            "geometry": {
                "type": "Point",
                "coordinates": [
                    -88.547961,
                    30.364636,
                    0
                ]
            },
            "properties": {
                "name": "mcdonaldsPascagoula",
                "styleUrl": "#m_ylw-pushpin0",
                "icon-scale": 1.1,
                "icon-offset": [
                    20,
                    2
                ],
                "icon-offset-units": [
                    "pixels",
                    "pixels"
                ],
                "icon": "http://maps.google.com/mapfiles/kml/pushpin/ylw-pushpin.png",
                "@id": "669e4a88-8ec4-11f1-a94f-d13e27a2cfc1"
            },
            "bbox": [
                -88.547961,
                30.364636,
                -88.547961,
                30.364636
            ]
        },
        {
            "type": "Feature",
            "geometry": {
                "type": "Point",
                "coordinates": [
                    -89.244619,
                    30.310919,
                    0
                ]
            },
            "properties": {
                "name": "passChristian",
                "styleUrl": "#m_ylw-pushpin0",
                "icon-scale": 1.1,
                "icon-offset": [
                    20,
                    2
                ],
                "icon-offset-units": [
                    "pixels",
                    "pixels"
                ],
                "icon": "http://maps.google.com/mapfiles/kml/pushpin/ylw-pushpin.png",
                "@id": "669e4a89-8ec4-11f1-a94f-d13e27a2cfc1"
            },
            "bbox": [
                -89.244619,
                30.310919,
                -89.244619,
                30.310919
            ]
        },
        {
            "type": "Feature",
            "geometry": {
                "type": "Point",
                "coordinates": [
                    -88.735494,
                    30.362294,
                    0
                ]
            },
            "properties": {
                "name": "nolanHome",
                "styleUrl": "#m_ylw-pushpin0",
                "icon-scale": 1.1,
                "icon-offset": [
                    20,
                    2
                ],
                "icon-offset-units": [
                    "pixels",
                    "pixels"
                ],
                "icon": "http://maps.google.com/mapfiles/kml/pushpin/ylw-pushpin.png",
                "@id": "669e4a8a-8ec4-11f1-a94f-d13e27a2cfc1"
            },
            "bbox": [
                -88.735494,
                30.362294,
                -88.735494,
                30.362294
            ]
        },
        {
            "type": "Feature",
            "geometry": {
                "type": "Point",
                "coordinates": [
                    -88.964828,
                    30.210736,
                    0
                ]
            },
            "properties": {
                "name": "shipIsland",
                "styleUrl": "#m_ylw-pushpin",
                "icon-scale": 1.1,
                "icon-offset": [
                    20,
                    2
                ],
                "icon-offset-units": [
                    "pixels",
                    "pixels"
                ],
                "icon": "http://maps.google.com/mapfiles/kml/pushpin/ylw-pushpin.png",
                "@id": "669e4a8b-8ec4-11f1-a94f-d13e27a2cfc1"
            },
            "bbox": [
                -88.964828,
                30.210736,
                -88.964828,
                30.210736
            ]
        },
        {
            "type": "Feature",
            "geometry": {
                "type": "Point",
                "coordinates": [
                    -88.775705,
                    30.244049
                ]
            },
            "properties": {
                "name": "flight1topleft",
                "styleUrl": "#m_ylw-pushpin",
                "icon-scale": 1.1,
                "icon-offset": [
                    20,
                    2
                ],
                "icon-offset-units": [
                    "pixels",
                    "pixels"
                ],
                "icon": "http://maps.google.com/mapfiles/kml/pushpin/ylw-pushpin.png",
                "@id": "669e4a8c-8ec4-11f1-a94f-d13e27a2cfc1"
            },
            "bbox": [
                -88.775705,
                30.244049,
                -88.775705,
                30.244049
            ]
        },
        {
            "type": "Feature",
            "geometry": {
                "type": "Point",
                "coordinates": [
                    -88.775809,
                    30.240183
                ]
            },
            "properties": {
                "name": "flight1bottomleft",
                "styleUrl": "#m_ylw-pushpin",
                "icon-scale": 1.1,
                "icon-offset": [
                    20,
                    2
                ],
                "icon-offset-units": [
                    "pixels",
                    "pixels"
                ],
                "icon": "http://maps.google.com/mapfiles/kml/pushpin/ylw-pushpin.png",
                "@id": "669e4a8d-8ec4-11f1-a94f-d13e27a2cfc1"
            },
            "bbox": [
                -88.775809,
                30.240183,
                -88.775809,
                30.240183
            ]
        },
        {
            "type": "Feature",
            "geometry": {
                "type": "Point",
                "coordinates": [
                    -88.762717,
                    30.242772
                ]
            },
            "properties": {
                "name": "flight2topright",
                "styleUrl": "#m_ylw-pushpin",
                "icon-scale": 1.1,
                "icon-offset": [
                    20,
                    2
                ],
                "icon-offset-units": [
                    "pixels",
                    "pixels"
                ],
                "icon": "http://maps.google.com/mapfiles/kml/pushpin/ylw-pushpin.png",
                "@id": "669e4a8e-8ec4-11f1-a94f-d13e27a2cfc1"
            },
            "bbox": [
                -88.762717,
                30.242772,
                -88.762717,
                30.242772
            ]
        },
        {
            "type": "Feature",
            "geometry": {
                "type": "Point",
                "coordinates": [
                    -88.762672,
                    30.240274
                ]
            },
            "properties": {
                "name": "flight2bottomright",
                "styleUrl": "#m_ylw-pushpin",
                "icon-scale": 1.1,
                "icon-offset": [
                    20,
                    2
                ],
                "icon-offset-units": [
                    "pixels",
                    "pixels"
                ],
                "icon": "http://maps.google.com/mapfiles/kml/pushpin/ylw-pushpin.png",
                "@id": "669e4a8f-8ec4-11f1-a94f-d13e27a2cfc1"
            },
            "bbox": [
                -88.762672,
                30.240274,
                -88.762672,
                30.240274
            ]
        },
        {
            "type": "Feature",
            "geometry": {
                "type": "Point",
                "coordinates": [
                    -88.768507,
                    30.242465
                ]
            },
            "properties": {
                "name": "topmiddle",
                "styleUrl": "#m_ylw-pushpin",
                "icon-scale": 1.1,
                "icon-offset": [
                    20,
                    2
                ],
                "icon-offset-units": [
                    "pixels",
                    "pixels"
                ],
                "icon": "http://maps.google.com/mapfiles/kml/pushpin/ylw-pushpin.png",
                "@id": "669e4a90-8ec4-11f1-a94f-d13e27a2cfc1"
            },
            "bbox": [
                -88.768507,
                30.242465,
                -88.768507,
                30.242465
            ]
        },
        {
            "type": "Feature",
            "geometry": {
                "type": "Point",
                "coordinates": [
                    -88.768493,
                    30.24017
                ]
            },
            "properties": {
                "name": "bottommiddle",
                "styleUrl": "#m_ylw-pushpin",
                "icon-scale": 1.1,
                "icon-offset": [
                    20,
                    2
                ],
                "icon-offset-units": [
                    "pixels",
                    "pixels"
                ],
                "icon": "http://maps.google.com/mapfiles/kml/pushpin/ylw-pushpin.png",
                "@id": "669e4a91-8ec4-11f1-a94f-d13e27a2cfc1"
            },
            "bbox": [
                -88.768493,
                30.24017,
                -88.768493,
                30.24017
            ]
        },
        {
            "type": "Feature",
            "properties": {
                "stroke-opacity": 1,
                "stroke": "rgba(1, 255, 238, 1)",
                "fill-opacity": 0.3,
                "fill": "rgba(166, 255, 248, 1)",
                "name": "Drone flight #1",
                "@id": "7938dd20-8ec4-11f1-a94f-d13e27a2cfc1"
            },
            "geometry": {
                "type": "Polygon",
                "coordinates": [
                    [
                        [
                            -88.775705,
                            30.244049
                        ],
                        [
                            -88.775809,
                            30.240183
                        ],
                        [
                            -88.768493,
                            30.24017
                        ],
                        [
                            -88.768507,
                            30.242465
                        ],
                        [
                            -88.775705,
                            30.244049
                        ]
                    ]
                ]
            },
            "bbox": [
                -88.775809,
                30.24017,
                -88.768493,
                30.244049
            ]
        },
        {
            "type": "Feature",
            "properties": {
                "stroke-opacity": 1,
                "stroke": "rgba(213, 1, 255, 1)",
                "fill-opacity": 0.3,
                "fill": "rgba(244, 203, 252, 1)",
                "name": "Drone flight #2",
                "@id": "ce7c1a90-8ec4-11f1-a94f-d13e27a2cfc1"
            },
            "geometry": {
                "type": "Polygon",
                "coordinates": [
                    [
                        [
                            -88.768507,
                            30.242465
                        ],
                        [
                            -88.768493,
                            30.24017
                        ],
                        [
                            -88.762672,
                            30.240274
                        ],
                        [
                            -88.762717,
                            30.242772
                        ],
                        [
                            -88.768507,
                            30.242465
                        ]
                    ]
                ]
            },
            "bbox": [
                -88.768507,
                30.24017,
                -88.762672,
                30.242772
            ]
        }
    ]
}