{
    "type": "FeatureCollection",
    "features": [
        {
            "type": "Feature",
            "geometry": {
                "type": "Point",
                "coordinates": [
                    -88.764183,
                    30.360767,
                    0
                ]
            },
            "properties": {
                "name": "lakemarsPier",
                "styleUrl": "#m_ylw-pushpin",
                "icon-scale": 1.1,
                "icon-offset": [
                    20,
                    2
                ],
                "icon-offset-units": [
                    "pixels",
                    "pixels"
                ],
                "icon": "http://maps.google.com/mapfiles/kml/pushpin/ylw-pushpin.png",
                "@id": "4ea11f60-8de7-11f1-96d2-65089a13c14f"
            },
            "bbox": [
                -88.764183,
                30.360767,
                -88.764183,
                30.360767
            ]
        },
        {
            "type": "Feature",
            "geometry": {
                "type": "Point",
                "coordinates": [
                    -88.529708,
                    30.379697,
                    0
                ]
            },
            "properties": {
                "name": "coroner",
                "styleUrl": "#m_ylw-pushpin",
                "icon-scale": 1.1,
                "icon-offset": [
                    20,
                    2
                ],
                "icon-offset-units": [
                    "pixels",
                    "pixels"
                ],
                "icon": "http://maps.google.com/mapfiles/kml/pushpin/ylw-pushpin.png",
                "@id": "4ea11f61-8de7-11f1-96d2-65089a13c14f"
            },
            "bbox": [
                -88.529708,
                30.379697,
                -88.529708,
                30.379697
            ]
        },
        {
            "type": "Feature",
            "geometry": {
                "type": "Point",
                "coordinates": [
                    -88.716672,
                    30.429278,
                    0
                ]
            },
            "properties": {
                "name": "church",
                "styleUrl": "#m_ylw-pushpin",
                "icon-scale": 1.1,
                "icon-offset": [
                    20,
                    2
                ],
                "icon-offset-units": [
                    "pixels",
                    "pixels"
                ],
                "icon": "http://maps.google.com/mapfiles/kml/pushpin/ylw-pushpin.png",
                "@id": "4ea11f62-8de7-11f1-96d2-65089a13c14f"
            },
            "bbox": [
                -88.716672,
                30.429278,
                -88.716672,
                30.429278
            ]
        },
        {
            "type": "Feature",
            "geometry": {
                "type": "Point",
                "coordinates": [
                    -88.531639,
                    30.380206,
                    0
                ]
            },
            "properties": {
                "name": "fairgrounds",
                "styleUrl": "#m_ylw-pushpin",
                "icon-scale": 1.1,
                "icon-offset": [
                    20,
                    2
                ],
                "icon-offset-units": [
                    "pixels",
                    "pixels"
                ],
                "icon": "http://maps.google.com/mapfiles/kml/pushpin/ylw-pushpin.png",
                "@id": "4ea11f63-8de7-11f1-96d2-65089a13c14f"
            },
            "bbox": [
                -88.531639,
                30.380206,
                -88.531639,
                30.380206
            ]
        },
        {
            "type": "Feature",
            "geometry": {
                "type": "Point",
                "coordinates": [
                    -88.827825,
                    30.419464,
                    0
                ]
            },
            "properties": {
                "name": "fortbayouLaunch",
                "styleUrl": "#m_ylw-pushpin",
                "icon-scale": 1.1,
                "icon-offset": [
                    20,
                    2
                ],
                "icon-offset-units": [
                    "pixels",
                    "pixels"
                ],
                "icon": "http://maps.google.com/mapfiles/kml/pushpin/ylw-pushpin.png",
                "@id": "4ea11f64-8de7-11f1-96d2-65089a13c14f"
            },
            "bbox": [
                -88.827825,
                30.419464,
                -88.827825,
                30.419464
            ]
        },
        {
            "type": "Feature",
            "geometry": {
                "type": "Point",
                "coordinates": [
                    -87.620675,
                    41.850669,
                    0
                ]
            },
            "properties": {
                "name": "naacpChicago",
                "styleUrl": "#m_ylw-pushpin",
                "icon-scale": 1.1,
                "icon-offset": [
                    20,
                    2
                ],
                "icon-offset-units": [
                    "pixels",
                    "pixels"
                ],
                "icon": "http://maps.google.com/mapfiles/kml/pushpin/ylw-pushpin.png",
                "@id": "4ea11f65-8de7-11f1-96d2-65089a13c14f"
            },
            "bbox": [
                -87.620675,
                41.850669,
                -87.620675,
                41.850669
            ]
        },
        {
            "type": "Feature",
            "geometry": {
                "type": "Point",
                "coordinates": [
                    -77.018392,
                    38.883664,
                    0
                ]
            },
            "properties": {
                "name": "medicalexaminerwashingtoDC",
                "styleUrl": "#m_ylw-pushpin",
                "icon-scale": 1.1,
                "icon-offset": [
                    20,
                    2
                ],
                "icon-offset-units": [
                    "pixels",
                    "pixels"
                ],
                "icon": "http://maps.google.com/mapfiles/kml/pushpin/ylw-pushpin.png",
                "@id": "4ea11f66-8de7-11f1-96d2-65089a13c14f"
            },
            "bbox": [
                -77.018392,
                38.883664,
                -77.018392,
                38.883664
            ]
        },
        {
            "type": "Feature",
            "geometry": {
                "type": "Point",
                "coordinates": [
                    -88.5589,
                    30.3656,
                    0
                ]
            },
            "properties": {
                "name": "districtAttorney",
                "styleUrl": "#m_ylw-pushpin",
                "icon-scale": 1.1,
                "icon-offset": [
                    20,
                    2
                ],
                "icon-offset-units": [
                    "pixels",
                    "pixels"
                ],
                "icon": "http://maps.google.com/mapfiles/kml/pushpin/ylw-pushpin.png",
                "@id": "4ea11f67-8de7-11f1-96d2-65089a13c14f"
            },
            "bbox": [
                -88.5589,
                30.3656,
                -88.5589,
                30.3656
            ]
        },
        {
            "type": "Feature",
            "geometry": {
                "type": "Point",
                "coordinates": [
                    -88.558317,
                    30.36545,
                    0
                ]
            },
            "properties": {
                "name": "jcsd",
                "styleUrl": "#m_ylw-pushpin",
                "icon-scale": 1.1,
                "icon-offset": [
                    20,
                    2
                ],
                "icon-offset-units": [
                    "pixels",
                    "pixels"
                ],
                "icon": "http://maps.google.com/mapfiles/kml/pushpin/ylw-pushpin.png",
                "@id": "4ea11f68-8de7-11f1-96d2-65089a13c14f"
            },
            "bbox": [
                -88.558317,
                30.36545,
                -88.558317,
                30.36545
            ]
        },
        {
            "type": "Feature",
            "geometry": {
                "type": "Point",
                "coordinates": [
                    -88.765086,
                    30.409167,
                    0
                ]
            },
            "properties": {
                "name": "ospd",
                "styleUrl": "#m_ylw-pushpin",
                "icon-scale": 1.1,
                "icon-offset": [
                    20,
                    2
                ],
                "icon-offset-units": [
                    "pixels",
                    "pixels"
                ],
                "icon": "http://maps.google.com/mapfiles/kml/pushpin/ylw-pushpin.png",
                "@id": "4ea11f69-8de7-11f1-96d2-65089a13c14f"
            },
            "bbox": [
                -88.765086,
                30.409167,
                -88.765086,
                30.409167
            ]
        },
        {
            "type": "Feature",
            "geometry": {
                "type": "Point",
                "coordinates": [
                    -88.936117,
                    30.433178,
                    0
                ]
            },
            "properties": {
                "name": "dmr",
                "styleUrl": "#m_ylw-pushpin",
                "icon-scale": 1.1,
                "icon-offset": [
                    20,
                    2
                ],
                "icon-offset-units": [
                    "pixels",
                    "pixels"
                ],
                "icon": "http://maps.google.com/mapfiles/kml/pushpin/ylw-pushpin.png",
                "@id": "4ea11f6a-8de7-11f1-96d2-65089a13c14f"
            },
            "bbox": [
                -88.936117,
                30.433178,
                -88.936117,
                30.433178
            ]
        },
        {
            "type": "Feature",
            "geometry": {
                "type": "Point",
                "coordinates": [
                    -88.759083,
                    30.409531,
                    0
                ]
            },
            "properties": {
                "name": "mcDonalds",
                "styleUrl": "#m_ylw-pushpin",
                "icon-scale": 1.1,
                "icon-offset": [
                    20,
                    2
                ],
                "icon-offset-units": [
                    "pixels",
                    "pixels"
                ],
                "icon": "http://maps.google.com/mapfiles/kml/pushpin/ylw-pushpin.png",
                "@id": "4ea14670-8de7-11f1-96d2-65089a13c14f"
            },
            "bbox": [
                -88.759083,
                30.409531,
                -88.759083,
                30.409531
            ]
        },
        {
            "type": "Feature",
            "geometry": {
                "type": "Point",
                "coordinates": [
                    -88.870861,
                    30.42765,
                    0
                ]
            },
            "properties": {
                "name": "saintmartinBayou",
                "styleUrl": "#m_ylw-pushpin",
                "icon-scale": 1.1,
                "icon-offset": [
                    20,
                    2
                ],
                "icon-offset-units": [
                    "pixels",
                    "pixels"
                ],
                "icon": "http://maps.google.com/mapfiles/kml/pushpin/ylw-pushpin.png",
                "@id": "4ea14671-8de7-11f1-96d2-65089a13c14f"
            },
            "bbox": [
                -88.870861,
                30.42765,
                -88.870861,
                30.42765
            ]
        },
        {
            "type": "Feature",
            "geometry": {
                "type": "Point",
                "coordinates": [
                    -88.886153,
                    30.392019,
                    0
                ]
            },
            "properties": {
                "name": "biloxismallcraftHarbour",
                "styleUrl": "#m_ylw-pushpin",
                "icon-scale": 1.1,
                "icon-offset": [
                    20,
                    2
                ],
                "icon-offset-units": [
                    "pixels",
                    "pixels"
                ],
                "icon": "http://maps.google.com/mapfiles/kml/pushpin/ylw-pushpin.png",
                "@id": "4ea14672-8de7-11f1-96d2-65089a13c14f"
            },
            "bbox": [
                -88.886153,
                30.392019,
                -88.886153,
                30.392019
            ]
        },
        {
            "type": "Feature",
            "geometry": {
                "type": "Point",
                "coordinates": [
                    -88.812797,
                    30.424206,
                    0
                ]
            },
            "properties": {
                "name": "edminstonLaunch",
                "styleUrl": "#m_ylw-pushpin",
                "icon-scale": 1.1,
                "icon-offset": [
                    20,
                    2
                ],
                "icon-offset-units": [
                    "pixels",
                    "pixels"
                ],
                "icon": "http://maps.google.com/mapfiles/kml/pushpin/ylw-pushpin.png",
                "@id": "4ea14673-8de7-11f1-96d2-65089a13c14f"
            },
            "bbox": [
                -88.812797,
                30.424206,
                -88.812797,
                30.424206
            ]
        },
        {
            "type": "Feature",
            "geometry": {
                "type": "Point",
                "coordinates": [
                    -88.626503,
                    30.405522,
                    0
                ]
            },
            "properties": {
                "name": "siouxbayouLaunch",
                "styleUrl": "#m_ylw-pushpin",
                "icon-scale": 1.1,
                "icon-offset": [
                    20,
                    2
                ],
                "icon-offset-units": [
                    "pixels",
                    "pixels"
                ],
                "icon": "http://maps.google.com/mapfiles/kml/pushpin/ylw-pushpin.png",
                "@id": "4ea14674-8de7-11f1-96d2-65089a13c14f"
            },
            "bbox": [
                -88.626503,
                30.405522,
                -88.626503,
                30.405522
            ]
        },
        {
            "type": "Feature",
            "geometry": {
                "type": "Point",
                "coordinates": [
                    -88.777154,
                    30.243766,
                    0
                ]
            },
            "properties": {
                "name": "tritonGPS",
                "styleUrl": "#m_ylw-pushpin",
                "icon-scale": 1.1,
                "icon-offset": [
                    20,
                    2
                ],
                "icon-offset-units": [
                    "pixels",
                    "pixels"
                ],
                "icon": "http://maps.google.com/mapfiles/kml/pushpin/ylw-pushpin.png",
                "@id": "4ea14675-8de7-11f1-96d2-65089a13c14f"
            },
            "bbox": [
                -88.777154,
                30.243766,
                -88.777154,
                30.243766
            ]
        },
        {
            "type": "Feature",
            "geometry": {
                "type": "Point",
                "coordinates": [
                    -88.648353,
                    30.233197,
                    0
                ]
            },
            "properties": {
                "name": "chimneyStacks",
                "styleUrl": "#m_ylw-pushpin",
                "icon-scale": 1.1,
                "icon-offset": [
                    20,
                    2
                ],
                "icon-offset-units": [
                    "pixels",
                    "pixels"
                ],
                "icon": "http://maps.google.com/mapfiles/kml/pushpin/ylw-pushpin.png",
                "@id": "4ea14676-8de7-11f1-96d2-65089a13c14f"
            },
            "bbox": [
                -88.648353,
                30.233197,
                -88.648353,
                30.233197
            ]
        },
        {
            "type": "Feature",
            "geometry": {
                "type": "Point",
                "coordinates": [
                    -88.530925,
                    30.352083,
                    0
                ]
            },
            "properties": {
                "name": "knockandtalkartimeseAve",
                "styleUrl": "#m_ylw-pushpin",
                "icon-scale": 1.1,
                "icon-offset": [
                    20,
                    2
                ],
                "icon-offset-units": [
                    "pixels",
                    "pixels"
                ],
                "icon": "http://maps.google.com/mapfiles/kml/pushpin/ylw-pushpin.png",
                "@id": "4ea14677-8de7-11f1-96d2-65089a13c14f"
            },
            "bbox": [
                -88.530925,
                30.352083,
                -88.530925,
                30.352083
            ]
        },
        {
            "type": "Feature",
            "geometry": {
                "type": "Point",
                "coordinates": [
                    -88.812781,
                    30.422764,
                    0
                ]
            },
            "properties": {
                "name": "bartHome",
                "styleUrl": "#m_ylw-pushpin",
                "icon-scale": 1.1,
                "icon-offset": [
                    20,
                    2
                ],
                "icon-offset-units": [
                    "pixels",
                    "pixels"
                ],
                "icon": "http://maps.google.com/mapfiles/kml/pushpin/ylw-pushpin.png",
                "@id": "4ea14678-8de7-11f1-96d2-65089a13c14f"
            },
            "bbox": [
                -88.812781,
                30.422764,
                -88.812781,
                30.422764
            ]
        },
        {
            "type": "Feature",
            "geometry": {
                "type": "Point",
                "coordinates": [
                    -88.836647,
                    30.41675,
                    0
                ]
            },
            "properties": {
                "name": "jaxHome",
                "styleUrl": "#m_ylw-pushpin",
                "icon-scale": 1.1,
                "icon-offset": [
                    20,
                    2
                ],
                "icon-offset-units": [
                    "pixels",
                    "pixels"
                ],
                "icon": "http://maps.google.com/mapfiles/kml/pushpin/ylw-pushpin.png",
                "@id": "4ea14679-8de7-11f1-96d2-65089a13c14f"
            },
            "bbox": [
                -88.836647,
                30.41675,
                -88.836647,
                30.41675
            ]
        },
        {
            "type": "Feature",
            "geometry": {
                "type": "Point",
                "coordinates": [
                    -88.846844,
                    30.434558,
                    0
                ]
            },
            "properties": {
                "name": "elcaminoLaunch",
                "styleUrl": "#m_ylw-pushpin",
                "icon-scale": 1.1,
                "icon-offset": [
                    20,
                    2
                ],
                "icon-offset-units": [
                    "pixels",
                    "pixels"
                ],
                "icon": "http://maps.google.com/mapfiles/kml/pushpin/ylw-pushpin.png",
                "@id": "4ea1467a-8de7-11f1-96d2-65089a13c14f"
            },
            "bbox": [
                -88.846844,
                30.434558,
                -88.846844,
                30.434558
            ]
        },
        {
            "type": "Feature",
            "geometry": {
                "type": "Point",
                "coordinates": [
                    -88.442811,
                    30.204564,
                    0
                ]
            },
            "properties": {
                "name": "petitboisIsland",
                "styleUrl": "#m_ylw-pushpin",
                "icon-scale": 1.1,
                "icon-offset": [
                    20,
                    2
                ],
                "icon-offset-units": [
                    "pixels",
                    "pixels"
                ],
                "icon": "http://maps.google.com/mapfiles/kml/pushpin/ylw-pushpin.png",
                "@id": "4ea1467b-8de7-11f1-96d2-65089a13c14f"
            },
            "bbox": [
                -88.442811,
                30.204564,
                -88.442811,
                30.204564
            ]
        },
        {
            "type": "Feature",
            "geometry": {
                "type": "Point",
                "coordinates": [
                    -88.842364,
                    29.837778,
                    0
                ]
            },
            "properties": {
                "name": "chandeleurIslands",
                "styleUrl": "#m_ylw-pushpin",
                "icon-scale": 1.1,
                "icon-offset": [
                    20,
                    2
                ],
                "icon-offset-units": [
                    "pixels",
                    "pixels"
                ],
                "icon": "http://maps.google.com/mapfiles/kml/pushpin/ylw-pushpin.png",
                "@id": "4ea1467c-8de7-11f1-96d2-65089a13c14f"
            },
            "bbox": [
                -88.842364,
                29.837778,
                -88.842364,
                29.837778
            ]
        },
        {
            "type": "Feature",
            "geometry": {
                "type": "Point",
                "coordinates": [
                    -88.556889,
                    30.347994,
                    0
                ]
            },
            "properties": {
                "name": "warrenHome",
                "styleUrl": "#m_ylw-pushpin",
                "icon-scale": 1.1,
                "icon-offset": [
                    20,
                    2
                ],
                "icon-offset-units": [
                    "pixels",
                    "pixels"
                ],
                "icon": "http://maps.google.com/mapfiles/kml/pushpin/ylw-pushpin.png",
                "@id": "4ea1467d-8de7-11f1-96d2-65089a13c14f"
            },
            "bbox": [
                -88.556889,
                30.347994,
                -88.556889,
                30.347994
            ]
        },
        {
            "type": "Feature",
            "geometry": {
                "type": "Point",
                "coordinates": [
                    -88.9853,
                    30.466581,
                    0
                ]
            },
            "properties": {
                "name": "cardinalLane",
                "styleUrl": "#m_ylw-pushpin",
                "icon-scale": 1.1,
                "icon-offset": [
                    20,
                    2
                ],
                "icon-offset-units": [
                    "pixels",
                    "pixels"
                ],
                "icon": "http://maps.google.com/mapfiles/kml/pushpin/ylw-pushpin.png",
                "@id": "4ea1467e-8de7-11f1-96d2-65089a13c14f"
            },
            "bbox": [
                -88.9853,
                30.466581,
                -88.9853,
                30.466581
            ]
        },
        {
            "type": "Feature",
            "geometry": {
                "type": "Point",
                "coordinates": [
                    -88.845542,
                    30.420958,
                    0
                ]
            },
            "properties": {
                "name": "avapoolParty",
                "styleUrl": "#m_ylw-pushpin",
                "icon-scale": 1.1,
                "icon-offset": [
                    20,
                    2
                ],
                "icon-offset-units": [
                    "pixels",
                    "pixels"
                ],
                "icon": "http://maps.google.com/mapfiles/kml/pushpin/ylw-pushpin.png",
                "@id": "4ea1467f-8de7-11f1-96d2-65089a13c14f"
            },
            "bbox": [
                -88.845542,
                30.420958,
                -88.845542,
                30.420958
            ]
        },
        {
            "type": "Feature",
            "geometry": {
                "type": "Point",
                "coordinates": [
                    -88.782217,
                    30.404839,
                    0
                ]
            },
            "properties": {
                "name": "knockandtalkJacob",
                "styleUrl": "#m_ylw-pushpin",
                "icon-scale": 1.1,
                "icon-offset": [
                    20,
                    2
                ],
                "icon-offset-units": [
                    "pixels",
                    "pixels"
                ],
                "icon": "http://maps.google.com/mapfiles/kml/pushpin/ylw-pushpin.png",
                "@id": "4ea14680-8de7-11f1-96d2-65089a13c14f"
            },
            "bbox": [
                -88.782217,
                30.404839,
                -88.782217,
                30.404839
            ]
        },
        {
            "type": "Feature",
            "geometry": {
                "type": "Point",
                "coordinates": [
                    -88.783306,
                    30.420214,
                    0
                ]
            },
            "properties": {
                "name": "knockandtalkDrew",
                "styleUrl": "#m_ylw-pushpin",
                "icon-scale": 1.1,
                "icon-offset": [
                    20,
                    2
                ],
                "icon-offset-units": [
                    "pixels",
                    "pixels"
                ],
                "icon": "http://maps.google.com/mapfiles/kml/pushpin/ylw-pushpin.png",
                "@id": "4ea14681-8de7-11f1-96d2-65089a13c14f"
            },
            "bbox": [
                -88.783306,
                30.420214,
                -88.783306,
                30.420214
            ]
        },
        {
            "type": "Feature",
            "geometry": {
                "type": "Point",
                "coordinates": [
                    -88.53125,
                    30.346961,
                    0
                ]
            },
            "properties": {
                "name": "knockandtalkLaney",
                "styleUrl": "#m_ylw-pushpin",
                "icon-scale": 1.1,
                "icon-offset": [
                    20,
                    2
                ],
                "icon-offset-units": [
                    "pixels",
                    "pixels"
                ],
                "icon": "http://maps.google.com/mapfiles/kml/pushpin/ylw-pushpin.png",
                "@id": "4ea14682-8de7-11f1-96d2-65089a13c14f"
            },
            "bbox": [
                -88.53125,
                30.346961,
                -88.53125,
                30.346961
            ]
        },
        {
            "type": "Feature",
            "geometry": {
                "type": "Point",
                "coordinates": [
                    -88.534161,
                    30.376311,
                    0
                ]
            },
            "properties": {
                "name": "knockandtalkoceanspringsHospital",
                "styleUrl": "#m_ylw-pushpin",
                "icon-scale": 1.1,
                "icon-offset": [
                    20,
                    2
                ],
                "icon-offset-units": [
                    "pixels",
                    "pixels"
                ],
                "icon": "http://maps.google.com/mapfiles/kml/pushpin/ylw-pushpin.png",
                "@id": "4ea14683-8de7-11f1-96d2-65089a13c14f"
            },
            "bbox": [
                -88.534161,
                30.376311,
                -88.534161,
                30.376311
            ]
        },
        {
            "type": "Feature",
            "geometry": {
                "type": "Point",
                "coordinates": [
                    -88.889767,
                    30.395792,
                    0
                ]
            },
            "properties": {
                "name": "knockandtalkbiloxiHospital",
                "styleUrl": "#m_ylw-pushpin",
                "icon-scale": 1.1,
                "icon-offset": [
                    20,
                    2
                ],
                "icon-offset-units": [
                    "pixels",
                    "pixels"
                ],
                "icon": "http://maps.google.com/mapfiles/kml/pushpin/ylw-pushpin.png",
                "@id": "4ea14684-8de7-11f1-96d2-65089a13c14f"
            },
            "bbox": [
                -88.889767,
                30.395792,
                -88.889767,
                30.395792
            ]
        },
        {
            "type": "Feature",
            "geometry": {
                "type": "Point",
                "coordinates": [
                    -88.782886,
                    30.243097,
                    0
                ]
            },
            "properties": {
                "name": "bodyFound",
                "styleUrl": "#m_ylw-pushpin",
                "icon-scale": 1.1,
                "icon-offset": [
                    20,
                    2
                ],
                "icon-offset-units": [
                    "pixels",
                    "pixels"
                ],
                "icon": "http://maps.google.com/mapfiles/kml/pushpin/ylw-pushpin.png",
                "@id": "4ea14685-8de7-11f1-96d2-65089a13c14f"
            },
            "bbox": [
                -88.782886,
                30.243097,
                -88.782886,
                30.243097
            ]
        },
        {
            "type": "Feature",
            "geometry": {
                "type": "Point",
                "coordinates": [
                    -88.777433,
                    30.243758,
                    0
                ]
            },
            "properties": {
                "name": "palmBeach",
                "styleUrl": "#m_ylw-pushpin",
                "icon-scale": 1.1,
                "icon-offset": [
                    20,
                    2
                ],
                "icon-offset-units": [
                    "pixels",
                    "pixels"
                ],
                "icon": "http://maps.google.com/mapfiles/kml/pushpin/ylw-pushpin.png",
                "@id": "4ea14686-8de7-11f1-96d2-65089a13c14f"
            },
            "bbox": [
                -88.777433,
                30.243758,
                -88.777433,
                30.243758
            ]
        },
        {
            "type": "Feature",
            "geometry": {
                "type": "Point",
                "coordinates": [
                    -88.777642,
                    30.243753,
                    0
                ]
            },
            "properties": {
                "name": "tideline",
                "styleUrl": "#m_ylw-pushpin",
                "icon-scale": 1.1,
                "icon-offset": [
                    20,
                    2
                ],
                "icon-offset-units": [
                    "pixels",
                    "pixels"
                ],
                "icon": "http://maps.google.com/mapfiles/kml/pushpin/ylw-pushpin.png",
                "@id": "4ea14687-8de7-11f1-96d2-65089a13c14f"
            },
            "bbox": [
                -88.777642,
                30.243753,
                -88.777642,
                30.243753
            ]
        },
        {
            "type": "Feature",
            "geometry": {
                "type": "Point",
                "coordinates": [
                    -88.777328,
                    30.243683,
                    0
                ]
            },
            "properties": {
                "name": "tracestin",
                "styleUrl": "#m_ylw-pushpin",
                "icon-scale": 1.1,
                "icon-offset": [
                    20,
                    2
                ],
                "icon-offset-units": [
                    "pixels",
                    "pixels"
                ],
                "icon": "http://maps.google.com/mapfiles/kml/pushpin/ylw-pushpin.png",
                "@id": "4ea14688-8de7-11f1-96d2-65089a13c14f"
            },
            "bbox": [
                -88.777328,
                30.243683,
                -88.777328,
                30.243683
            ]
        },
        {
            "type": "Feature",
            "geometry": {
                "type": "Point",
                "coordinates": [
                    -88.776653,
                    30.2437,
                    0
                ]
            },
            "properties": {
                "name": "lucas",
                "styleUrl": "#m_ylw-pushpin",
                "icon-scale": 1.1,
                "icon-offset": [
                    20,
                    2
                ],
                "icon-offset-units": [
                    "pixels",
                    "pixels"
                ],
                "icon": "http://maps.google.com/mapfiles/kml/pushpin/ylw-pushpin.png",
                "@id": "4ea14689-8de7-11f1-96d2-65089a13c14f"
            },
            "bbox": [
                -88.776653,
                30.2437,
                -88.776653,
                30.2437
            ]
        },
        {
            "type": "Feature",
            "geometry": {
                "type": "Point",
                "coordinates": [
                    -88.776569,
                    30.243642,
                    0
                ]
            },
            "properties": {
                "name": "katie",
                "styleUrl": "#m_ylw-pushpin",
                "icon-scale": 1.1,
                "icon-offset": [
                    20,
                    2
                ],
                "icon-offset-units": [
                    "pixels",
                    "pixels"
                ],
                "icon": "http://maps.google.com/mapfiles/kml/pushpin/ylw-pushpin.png",
                "@id": "4ea1468a-8de7-11f1-96d2-65089a13c14f"
            },
            "bbox": [
                -88.776569,
                30.243642,
                -88.776569,
                30.243642
            ]
        },
        {
            "type": "Feature",
            "geometry": {
                "type": "Point",
                "coordinates": [
                    -88.875853,
                    30.425633,
                    0
                ]
            },
            "properties": {
                "name": "coachboatLaunch",
                "styleUrl": "#m_ylw-pushpin",
                "icon-scale": 1.1,
                "icon-offset": [
                    20,
                    2
                ],
                "icon-offset-units": [
                    "pixels",
                    "pixels"
                ],
                "icon": "http://maps.google.com/mapfiles/kml/pushpin/ylw-pushpin.png",
                "@id": "4ea1468b-8de7-11f1-96d2-65089a13c14f"
            },
            "bbox": [
                -88.875853,
                30.425633,
                -88.875853,
                30.425633
            ]
        },
        {
            "type": "Feature",
            "geometry": {
                "type": "Point",
                "coordinates": [
                    -88.785119,
                    30.409419,
                    0
                ]
            },
            "properties": {
                "name": "wyattHome",
                "styleUrl": "#m_ylw-pushpin",
                "icon-scale": 1.1,
                "icon-offset": [
                    20,
                    2
                ],
                "icon-offset-units": [
                    "pixels",
                    "pixels"
                ],
                "icon": "http://maps.google.com/mapfiles/kml/pushpin/ylw-pushpin.png",
                "@id": "4ea1468c-8de7-11f1-96d2-65089a13c14f"
            },
            "bbox": [
                -88.785119,
                30.409419,
                -88.785119,
                30.409419
            ]
        },
        {
            "type": "Feature",
            "geometry": {
                "type": "Point",
                "coordinates": [
                    -88.547961,
                    30.364636,
                    0
                ]
            },
            "properties": {
                "name": "mcdonaldsPascagoula",
                "styleUrl": "#m_ylw-pushpin",
                "icon-scale": 1.1,
                "icon-offset": [
                    20,
                    2
                ],
                "icon-offset-units": [
                    "pixels",
                    "pixels"
                ],
                "icon": "http://maps.google.com/mapfiles/kml/pushpin/ylw-pushpin.png",
                "@id": "4ea1468d-8de7-11f1-96d2-65089a13c14f"
            },
            "bbox": [
                -88.547961,
                30.364636,
                -88.547961,
                30.364636
            ]
        },
        {
            "type": "Feature",
            "geometry": {
                "type": "Point",
                "coordinates": [
                    -89.244619,
                    30.310919,
                    0
                ]
            },
            "properties": {
                "name": "passChristian",
                "styleUrl": "#m_ylw-pushpin",
                "icon-scale": 1.1,
                "icon-offset": [
                    20,
                    2
                ],
                "icon-offset-units": [
                    "pixels",
                    "pixels"
                ],
                "icon": "http://maps.google.com/mapfiles/kml/pushpin/ylw-pushpin.png",
                "@id": "4ea1468e-8de7-11f1-96d2-65089a13c14f"
            },
            "bbox": [
                -89.244619,
                30.310919,
                -89.244619,
                30.310919
            ]
        },
        {
            "type": "Feature",
            "geometry": {
                "type": "Point",
                "coordinates": [
                    -88.735494,
                    30.362294,
                    0
                ]
            },
            "properties": {
                "name": "nolanHome",
                "styleUrl": "#m_ylw-pushpin",
                "icon-scale": 1.1,
                "icon-offset": [
                    20,
                    2
                ],
                "icon-offset-units": [
                    "pixels",
                    "pixels"
                ],
                "icon": "http://maps.google.com/mapfiles/kml/pushpin/ylw-pushpin.png",
                "@id": "4ea1468f-8de7-11f1-96d2-65089a13c14f"
            },
            "bbox": [
                -88.735494,
                30.362294,
                -88.735494,
                30.362294
            ]
        },
        {
            "type": "Feature",
            "properties": {
                "stroke-width": 1,
                "stroke-opacity": 1,
                "stroke": "rgba(64, 255, 0, 1)",
                "name": "Palm Beach → El Camino → Horn Island @ 9:56 AM",
                "@id": "6dd54050-8de7-11f1-96d2-65089a13c14f"
            },
            "geometry": {
                "type": "LineString",
                "coordinates": [
                    [
                        -88.777433,
                        30.243758
                    ],
                    [
                        -88.812107,
                        30.364201
                    ],
                    [
                        -88.846307,
                        30.407053
                    ],
                    [
                        -88.855416,
                        30.424343
                    ],
                    [
                        -88.850233,
                        30.431791
                    ],
                    [
                        -88.848672,
                        30.433271
                    ],
                    [
                        -88.848482,
                        30.434209
                    ],
                    [
                        -88.847969,
                        30.434604
                    ],
                    [
                        -88.846844,
                        30.434558
                    ]
                ]
            },
            "bbox": [
                -88.855416,
                30.243758,
                -88.777433,
                30.434604
            ]
        },
        {
            "type": "Feature",
            "properties": {
                "stroke-width": 1,
                "stroke-opacity": 1,
                "stroke": "rgba(251, 255, 0, 1)",
                "name": "Palm Beach → Horn Island → El Camino @ unknown time",
                "@id": "6b435560-8de8-11f1-96d2-65089a13c14f"
            },
            "geometry": {
                "type": "LineString",
                "coordinates": [
                    [
                        -88.777433,
                        30.243758
                    ],
                    [
                        -88.811796,
                        30.364334
                    ],
                    [
                        -88.845927,
                        30.40728
                    ],
                    [
                        -88.855197,
                        30.42433
                    ],
                    [
                        -88.85019,
                        30.431769
                    ],
                    [
                        -88.84864,
                        30.433254
                    ],
                    [
                        -88.848463,
                        30.434202
                    ],
                    [
                        -88.847961,
                        30.434588
                    ],
                    [
                        -88.846844,
                        30.434558
                    ]
                ]
            },
            "bbox": [
                -88.855197,
                30.243758,
                -88.777433,
                30.434588
            ]
        },
        {
            "type": "Feature",
            "properties": {
                "stroke-width": 1,
                "stroke-opacity": 1,
                "stroke": "rgba(255, 162, 0, 1)",
                "name": "Palm Beach → El Camino → Fort Bayou @ unknown time",
                "@id": "ff3b1ff0-8de8-11f1-96d2-65089a13c14f"
            },
            "geometry": {
                "type": "LineString",
                "coordinates": [
                    [
                        -88.846844,
                        30.434558
                    ],
                    [
                        -88.847953,
                        30.434569
                    ],
                    [
                        -88.848444,
                        30.434195
                    ],
                    [
                        -88.848607,
                        30.433238
                    ],
                    [
                        -88.850147,
                        30.43174
                    ],
                    [
                        -88.850151,
                        30.430906
                    ],
                    [
                        -88.843136,
                        30.422023
                    ],
                    [
                        -88.831022,
                        30.419047
                    ],
                    [
                        -88.827825,
                        30.419464
                    ]
                ]
            },
            "bbox": [
                -88.850151,
                30.419047,
                -88.827825,
                30.434569
            ]
        },
        {
            "type": "Feature",
            "properties": {
                "stroke-width": 1,
                "stroke": "rgba(217, 93, 255, 1)",
                "stroke-opacity": 1,
                "name": "Palm Beach → Fort Bayou → Bart's home @ unknown time",
                "@id": "d409e070-8dff-11f1-8bb3-6b7ac88198c9"
            },
            "geometry": {
                "type": "LineString",
                "coordinates": [
                    [
                        -88.827825,
                        30.419464
                    ],
                    [
                        -88.824971,
                        30.420828
                    ],
                    [
                        -88.822014,
                        30.424062
                    ],
                    [
                        -88.819116,
                        30.423117
                    ],
                    [
                        -88.81851,
                        30.423705
                    ],
                    [
                        -88.818794,
                        30.425338
                    ],
                    [
                        -88.81817,
                        30.425825
                    ],
                    [
                        -88.817052,
                        30.425811
                    ],
                    [
                        -88.812879,
                        30.42458
                    ],
                    [
                        -88.812797,
                        30.424206
                    ]
                ]
            },
            "bbox": [
                -88.827825,
                30.419464,
                -88.812797,
                30.425825
            ]
        }
    ]
}