{
    "type": "FeatureCollection",
    "features": [
        {
            "type": "Feature",
            "geometry": {
                "type": "Point",
                "coordinates": [
                    -88.764183,
                    30.360767,
                    0
                ]
            },
            "properties": {
                "name": "lakemarsPier",
                "styleUrl": "#m_ylw-pushpin",
                "icon-scale": 1.1,
                "icon-offset": [
                    20,
                    2
                ],
                "icon-offset-units": [
                    "pixels",
                    "pixels"
                ],
                "icon": "http://maps.google.com/mapfiles/kml/pushpin/ylw-pushpin.png",
                "@id": "385f7da0-8de7-11f1-9429-8fa8e6949403"
            },
            "bbox": [
                -88.764183,
                30.360767,
                -88.764183,
                30.360767
            ]
        },
        {
            "type": "Feature",
            "geometry": {
                "type": "Point",
                "coordinates": [
                    -88.529708,
                    30.379697,
                    0
                ]
            },
            "properties": {
                "name": "coroner",
                "styleUrl": "#m_ylw-pushpin",
                "icon-scale": 1.1,
                "icon-offset": [
                    20,
                    2
                ],
                "icon-offset-units": [
                    "pixels",
                    "pixels"
                ],
                "icon": "http://maps.google.com/mapfiles/kml/pushpin/ylw-pushpin.png",
                "@id": "385f7da1-8de7-11f1-9429-8fa8e6949403"
            },
            "bbox": [
                -88.529708,
                30.379697,
                -88.529708,
                30.379697
            ]
        },
        {
            "type": "Feature",
            "geometry": {
                "type": "Point",
                "coordinates": [
                    -88.716672,
                    30.429278,
                    0
                ]
            },
            "properties": {
                "name": "church",
                "styleUrl": "#m_ylw-pushpin",
                "icon-scale": 1.1,
                "icon-offset": [
                    20,
                    2
                ],
                "icon-offset-units": [
                    "pixels",
                    "pixels"
                ],
                "icon": "http://maps.google.com/mapfiles/kml/pushpin/ylw-pushpin.png",
                "@id": "385f7da2-8de7-11f1-9429-8fa8e6949403"
            },
            "bbox": [
                -88.716672,
                30.429278,
                -88.716672,
                30.429278
            ]
        },
        {
            "type": "Feature",
            "geometry": {
                "type": "Point",
                "coordinates": [
                    -88.531639,
                    30.380206,
                    0
                ]
            },
            "properties": {
                "name": "fairgrounds",
                "styleUrl": "#m_ylw-pushpin",
                "icon-scale": 1.1,
                "icon-offset": [
                    20,
                    2
                ],
                "icon-offset-units": [
                    "pixels",
                    "pixels"
                ],
                "icon": "http://maps.google.com/mapfiles/kml/pushpin/ylw-pushpin.png",
                "@id": "385f7da3-8de7-11f1-9429-8fa8e6949403"
            },
            "bbox": [
                -88.531639,
                30.380206,
                -88.531639,
                30.380206
            ]
        },
        {
            "type": "Feature",
            "geometry": {
                "type": "Point",
                "coordinates": [
                    -88.827825,
                    30.419464,
                    0
                ]
            },
            "properties": {
                "name": "fortbayouLaunch",
                "styleUrl": "#m_ylw-pushpin",
                "icon-scale": 1.1,
                "icon-offset": [
                    20,
                    2
                ],
                "icon-offset-units": [
                    "pixels",
                    "pixels"
                ],
                "icon": "http://maps.google.com/mapfiles/kml/pushpin/ylw-pushpin.png",
                "@id": "385f7da4-8de7-11f1-9429-8fa8e6949403"
            },
            "bbox": [
                -88.827825,
                30.419464,
                -88.827825,
                30.419464
            ]
        },
        {
            "type": "Feature",
            "geometry": {
                "type": "Point",
                "coordinates": [
                    -87.620675,
                    41.850669,
                    0
                ]
            },
            "properties": {
                "name": "naacpChicago",
                "styleUrl": "#m_ylw-pushpin",
                "icon-scale": 1.1,
                "icon-offset": [
                    20,
                    2
                ],
                "icon-offset-units": [
                    "pixels",
                    "pixels"
                ],
                "icon": "http://maps.google.com/mapfiles/kml/pushpin/ylw-pushpin.png",
                "@id": "385f7da5-8de7-11f1-9429-8fa8e6949403"
            },
            "bbox": [
                -87.620675,
                41.850669,
                -87.620675,
                41.850669
            ]
        },
        {
            "type": "Feature",
            "geometry": {
                "type": "Point",
                "coordinates": [
                    -77.018392,
                    38.883664,
                    0
                ]
            },
            "properties": {
                "name": "medicalexaminerwashingtoDC",
                "styleUrl": "#m_ylw-pushpin",
                "icon-scale": 1.1,
                "icon-offset": [
                    20,
                    2
                ],
                "icon-offset-units": [
                    "pixels",
                    "pixels"
                ],
                "icon": "http://maps.google.com/mapfiles/kml/pushpin/ylw-pushpin.png",
                "@id": "385f7da6-8de7-11f1-9429-8fa8e6949403"
            },
            "bbox": [
                -77.018392,
                38.883664,
                -77.018392,
                38.883664
            ]
        },
        {
            "type": "Feature",
            "geometry": {
                "type": "Point",
                "coordinates": [
                    -88.5589,
                    30.3656,
                    0
                ]
            },
            "properties": {
                "name": "districtAttorney",
                "styleUrl": "#m_ylw-pushpin",
                "icon-scale": 1.1,
                "icon-offset": [
                    20,
                    2
                ],
                "icon-offset-units": [
                    "pixels",
                    "pixels"
                ],
                "icon": "http://maps.google.com/mapfiles/kml/pushpin/ylw-pushpin.png",
                "@id": "385f7da7-8de7-11f1-9429-8fa8e6949403"
            },
            "bbox": [
                -88.5589,
                30.3656,
                -88.5589,
                30.3656
            ]
        },
        {
            "type": "Feature",
            "geometry": {
                "type": "Point",
                "coordinates": [
                    -88.558317,
                    30.36545,
                    0
                ]
            },
            "properties": {
                "name": "jcsd",
                "styleUrl": "#m_ylw-pushpin",
                "icon-scale": 1.1,
                "icon-offset": [
                    20,
                    2
                ],
                "icon-offset-units": [
                    "pixels",
                    "pixels"
                ],
                "icon": "http://maps.google.com/mapfiles/kml/pushpin/ylw-pushpin.png",
                "@id": "385f7da8-8de7-11f1-9429-8fa8e6949403"
            },
            "bbox": [
                -88.558317,
                30.36545,
                -88.558317,
                30.36545
            ]
        },
        {
            "type": "Feature",
            "geometry": {
                "type": "Point",
                "coordinates": [
                    -88.765086,
                    30.409167,
                    0
                ]
            },
            "properties": {
                "name": "ospd",
                "styleUrl": "#m_ylw-pushpin",
                "icon-scale": 1.1,
                "icon-offset": [
                    20,
                    2
                ],
                "icon-offset-units": [
                    "pixels",
                    "pixels"
                ],
                "icon": "http://maps.google.com/mapfiles/kml/pushpin/ylw-pushpin.png",
                "@id": "385f7da9-8de7-11f1-9429-8fa8e6949403"
            },
            "bbox": [
                -88.765086,
                30.409167,
                -88.765086,
                30.409167
            ]
        },
        {
            "type": "Feature",
            "geometry": {
                "type": "Point",
                "coordinates": [
                    -88.936117,
                    30.433178,
                    0
                ]
            },
            "properties": {
                "name": "dmr",
                "styleUrl": "#m_ylw-pushpin",
                "icon-scale": 1.1,
                "icon-offset": [
                    20,
                    2
                ],
                "icon-offset-units": [
                    "pixels",
                    "pixels"
                ],
                "icon": "http://maps.google.com/mapfiles/kml/pushpin/ylw-pushpin.png",
                "@id": "385f7daa-8de7-11f1-9429-8fa8e6949403"
            },
            "bbox": [
                -88.936117,
                30.433178,
                -88.936117,
                30.433178
            ]
        },
        {
            "type": "Feature",
            "geometry": {
                "type": "Point",
                "coordinates": [
                    -88.759083,
                    30.409531,
                    0
                ]
            },
            "properties": {
                "name": "mcDonalds",
                "styleUrl": "#m_ylw-pushpin",
                "icon-scale": 1.1,
                "icon-offset": [
                    20,
                    2
                ],
                "icon-offset-units": [
                    "pixels",
                    "pixels"
                ],
                "icon": "http://maps.google.com/mapfiles/kml/pushpin/ylw-pushpin.png",
                "@id": "385f7dab-8de7-11f1-9429-8fa8e6949403"
            },
            "bbox": [
                -88.759083,
                30.409531,
                -88.759083,
                30.409531
            ]
        },
        {
            "type": "Feature",
            "geometry": {
                "type": "Point",
                "coordinates": [
                    -88.870861,
                    30.42765,
                    0
                ]
            },
            "properties": {
                "name": "saintmartinBayou",
                "styleUrl": "#m_ylw-pushpin",
                "icon-scale": 1.1,
                "icon-offset": [
                    20,
                    2
                ],
                "icon-offset-units": [
                    "pixels",
                    "pixels"
                ],
                "icon": "http://maps.google.com/mapfiles/kml/pushpin/ylw-pushpin.png",
                "@id": "385f7dac-8de7-11f1-9429-8fa8e6949403"
            },
            "bbox": [
                -88.870861,
                30.42765,
                -88.870861,
                30.42765
            ]
        },
        {
            "type": "Feature",
            "geometry": {
                "type": "Point",
                "coordinates": [
                    -88.886153,
                    30.392019,
                    0
                ]
            },
            "properties": {
                "name": "biloxismallcraftHarbour",
                "styleUrl": "#m_ylw-pushpin",
                "icon-scale": 1.1,
                "icon-offset": [
                    20,
                    2
                ],
                "icon-offset-units": [
                    "pixels",
                    "pixels"
                ],
                "icon": "http://maps.google.com/mapfiles/kml/pushpin/ylw-pushpin.png",
                "@id": "385f7dad-8de7-11f1-9429-8fa8e6949403"
            },
            "bbox": [
                -88.886153,
                30.392019,
                -88.886153,
                30.392019
            ]
        },
        {
            "type": "Feature",
            "geometry": {
                "type": "Point",
                "coordinates": [
                    -88.812797,
                    30.424206,
                    0
                ]
            },
            "properties": {
                "name": "edminstonLaunch",
                "styleUrl": "#m_ylw-pushpin",
                "icon-scale": 1.1,
                "icon-offset": [
                    20,
                    2
                ],
                "icon-offset-units": [
                    "pixels",
                    "pixels"
                ],
                "icon": "http://maps.google.com/mapfiles/kml/pushpin/ylw-pushpin.png",
                "@id": "385f7dae-8de7-11f1-9429-8fa8e6949403"
            },
            "bbox": [
                -88.812797,
                30.424206,
                -88.812797,
                30.424206
            ]
        },
        {
            "type": "Feature",
            "geometry": {
                "type": "Point",
                "coordinates": [
                    -88.626503,
                    30.405522,
                    0
                ]
            },
            "properties": {
                "name": "siouxbayouLaunch",
                "styleUrl": "#m_ylw-pushpin",
                "icon-scale": 1.1,
                "icon-offset": [
                    20,
                    2
                ],
                "icon-offset-units": [
                    "pixels",
                    "pixels"
                ],
                "icon": "http://maps.google.com/mapfiles/kml/pushpin/ylw-pushpin.png",
                "@id": "385f7daf-8de7-11f1-9429-8fa8e6949403"
            },
            "bbox": [
                -88.626503,
                30.405522,
                -88.626503,
                30.405522
            ]
        },
        {
            "type": "Feature",
            "geometry": {
                "type": "Point",
                "coordinates": [
                    -88.777154,
                    30.243766,
                    0
                ]
            },
            "properties": {
                "name": "tritonGPS",
                "styleUrl": "#m_ylw-pushpin",
                "icon-scale": 1.1,
                "icon-offset": [
                    20,
                    2
                ],
                "icon-offset-units": [
                    "pixels",
                    "pixels"
                ],
                "icon": "http://maps.google.com/mapfiles/kml/pushpin/ylw-pushpin.png",
                "@id": "385f7db0-8de7-11f1-9429-8fa8e6949403"
            },
            "bbox": [
                -88.777154,
                30.243766,
                -88.777154,
                30.243766
            ]
        },
        {
            "type": "Feature",
            "geometry": {
                "type": "Point",
                "coordinates": [
                    -88.648353,
                    30.233197,
                    0
                ]
            },
            "properties": {
                "name": "chimneyStacks",
                "styleUrl": "#m_ylw-pushpin",
                "icon-scale": 1.1,
                "icon-offset": [
                    20,
                    2
                ],
                "icon-offset-units": [
                    "pixels",
                    "pixels"
                ],
                "icon": "http://maps.google.com/mapfiles/kml/pushpin/ylw-pushpin.png",
                "@id": "385f7db1-8de7-11f1-9429-8fa8e6949403"
            },
            "bbox": [
                -88.648353,
                30.233197,
                -88.648353,
                30.233197
            ]
        },
        {
            "type": "Feature",
            "geometry": {
                "type": "Point",
                "coordinates": [
                    -88.530925,
                    30.352083,
                    0
                ]
            },
            "properties": {
                "name": "knockandtalkartimeseAve",
                "styleUrl": "#m_ylw-pushpin",
                "icon-scale": 1.1,
                "icon-offset": [
                    20,
                    2
                ],
                "icon-offset-units": [
                    "pixels",
                    "pixels"
                ],
                "icon": "http://maps.google.com/mapfiles/kml/pushpin/ylw-pushpin.png",
                "@id": "385f7db2-8de7-11f1-9429-8fa8e6949403"
            },
            "bbox": [
                -88.530925,
                30.352083,
                -88.530925,
                30.352083
            ]
        },
        {
            "type": "Feature",
            "geometry": {
                "type": "Point",
                "coordinates": [
                    -88.812781,
                    30.422764,
                    0
                ]
            },
            "properties": {
                "name": "bartHome",
                "styleUrl": "#m_ylw-pushpin",
                "icon-scale": 1.1,
                "icon-offset": [
                    20,
                    2
                ],
                "icon-offset-units": [
                    "pixels",
                    "pixels"
                ],
                "icon": "http://maps.google.com/mapfiles/kml/pushpin/ylw-pushpin.png",
                "@id": "385f7db3-8de7-11f1-9429-8fa8e6949403"
            },
            "bbox": [
                -88.812781,
                30.422764,
                -88.812781,
                30.422764
            ]
        },
        {
            "type": "Feature",
            "geometry": {
                "type": "Point",
                "coordinates": [
                    -88.836647,
                    30.41675,
                    0
                ]
            },
            "properties": {
                "name": "jaxHome",
                "styleUrl": "#m_ylw-pushpin",
                "icon-scale": 1.1,
                "icon-offset": [
                    20,
                    2
                ],
                "icon-offset-units": [
                    "pixels",
                    "pixels"
                ],
                "icon": "http://maps.google.com/mapfiles/kml/pushpin/ylw-pushpin.png",
                "@id": "385f7db4-8de7-11f1-9429-8fa8e6949403"
            },
            "bbox": [
                -88.836647,
                30.41675,
                -88.836647,
                30.41675
            ]
        },
        {
            "type": "Feature",
            "geometry": {
                "type": "Point",
                "coordinates": [
                    -88.846844,
                    30.434558,
                    0
                ]
            },
            "properties": {
                "name": "elcaminoLaunch",
                "styleUrl": "#m_ylw-pushpin",
                "icon-scale": 1.1,
                "icon-offset": [
                    20,
                    2
                ],
                "icon-offset-units": [
                    "pixels",
                    "pixels"
                ],
                "icon": "http://maps.google.com/mapfiles/kml/pushpin/ylw-pushpin.png",
                "@id": "385f7db5-8de7-11f1-9429-8fa8e6949403"
            },
            "bbox": [
                -88.846844,
                30.434558,
                -88.846844,
                30.434558
            ]
        },
        {
            "type": "Feature",
            "geometry": {
                "type": "Point",
                "coordinates": [
                    -88.442811,
                    30.204564,
                    0
                ]
            },
            "properties": {
                "name": "petitboisIsland",
                "styleUrl": "#m_ylw-pushpin",
                "icon-scale": 1.1,
                "icon-offset": [
                    20,
                    2
                ],
                "icon-offset-units": [
                    "pixels",
                    "pixels"
                ],
                "icon": "http://maps.google.com/mapfiles/kml/pushpin/ylw-pushpin.png",
                "@id": "385f7db6-8de7-11f1-9429-8fa8e6949403"
            },
            "bbox": [
                -88.442811,
                30.204564,
                -88.442811,
                30.204564
            ]
        },
        {
            "type": "Feature",
            "geometry": {
                "type": "Point",
                "coordinates": [
                    -88.842364,
                    29.837778,
                    0
                ]
            },
            "properties": {
                "name": "chandeleurIslands",
                "styleUrl": "#m_ylw-pushpin",
                "icon-scale": 1.1,
                "icon-offset": [
                    20,
                    2
                ],
                "icon-offset-units": [
                    "pixels",
                    "pixels"
                ],
                "icon": "http://maps.google.com/mapfiles/kml/pushpin/ylw-pushpin.png",
                "@id": "385f7db7-8de7-11f1-9429-8fa8e6949403"
            },
            "bbox": [
                -88.842364,
                29.837778,
                -88.842364,
                29.837778
            ]
        },
        {
            "type": "Feature",
            "geometry": {
                "type": "Point",
                "coordinates": [
                    -88.556889,
                    30.347994,
                    0
                ]
            },
            "properties": {
                "name": "warrenHome",
                "styleUrl": "#m_ylw-pushpin",
                "icon-scale": 1.1,
                "icon-offset": [
                    20,
                    2
                ],
                "icon-offset-units": [
                    "pixels",
                    "pixels"
                ],
                "icon": "http://maps.google.com/mapfiles/kml/pushpin/ylw-pushpin.png",
                "@id": "385f7db8-8de7-11f1-9429-8fa8e6949403"
            },
            "bbox": [
                -88.556889,
                30.347994,
                -88.556889,
                30.347994
            ]
        },
        {
            "type": "Feature",
            "geometry": {
                "type": "Point",
                "coordinates": [
                    -88.9853,
                    30.466581,
                    0
                ]
            },
            "properties": {
                "name": "cardinalLane",
                "styleUrl": "#m_ylw-pushpin",
                "icon-scale": 1.1,
                "icon-offset": [
                    20,
                    2
                ],
                "icon-offset-units": [
                    "pixels",
                    "pixels"
                ],
                "icon": "http://maps.google.com/mapfiles/kml/pushpin/ylw-pushpin.png",
                "@id": "385f7db9-8de7-11f1-9429-8fa8e6949403"
            },
            "bbox": [
                -88.9853,
                30.466581,
                -88.9853,
                30.466581
            ]
        },
        {
            "type": "Feature",
            "geometry": {
                "type": "Point",
                "coordinates": [
                    -88.845542,
                    30.420958,
                    0
                ]
            },
            "properties": {
                "name": "avapoolParty",
                "styleUrl": "#m_ylw-pushpin",
                "icon-scale": 1.1,
                "icon-offset": [
                    20,
                    2
                ],
                "icon-offset-units": [
                    "pixels",
                    "pixels"
                ],
                "icon": "http://maps.google.com/mapfiles/kml/pushpin/ylw-pushpin.png",
                "@id": "385f7dba-8de7-11f1-9429-8fa8e6949403"
            },
            "bbox": [
                -88.845542,
                30.420958,
                -88.845542,
                30.420958
            ]
        },
        {
            "type": "Feature",
            "geometry": {
                "type": "Point",
                "coordinates": [
                    -88.782217,
                    30.404839,
                    0
                ]
            },
            "properties": {
                "name": "knockandtalkJacob",
                "styleUrl": "#m_ylw-pushpin",
                "icon-scale": 1.1,
                "icon-offset": [
                    20,
                    2
                ],
                "icon-offset-units": [
                    "pixels",
                    "pixels"
                ],
                "icon": "http://maps.google.com/mapfiles/kml/pushpin/ylw-pushpin.png",
                "@id": "385f7dbb-8de7-11f1-9429-8fa8e6949403"
            },
            "bbox": [
                -88.782217,
                30.404839,
                -88.782217,
                30.404839
            ]
        },
        {
            "type": "Feature",
            "geometry": {
                "type": "Point",
                "coordinates": [
                    -88.783306,
                    30.420214,
                    0
                ]
            },
            "properties": {
                "name": "knockandtalkDrew",
                "styleUrl": "#m_ylw-pushpin",
                "icon-scale": 1.1,
                "icon-offset": [
                    20,
                    2
                ],
                "icon-offset-units": [
                    "pixels",
                    "pixels"
                ],
                "icon": "http://maps.google.com/mapfiles/kml/pushpin/ylw-pushpin.png",
                "@id": "385f7dbc-8de7-11f1-9429-8fa8e6949403"
            },
            "bbox": [
                -88.783306,
                30.420214,
                -88.783306,
                30.420214
            ]
        },
        {
            "type": "Feature",
            "geometry": {
                "type": "Point",
                "coordinates": [
                    -88.53125,
                    30.346961,
                    0
                ]
            },
            "properties": {
                "name": "knockandtalkLaney",
                "styleUrl": "#m_ylw-pushpin",
                "icon-scale": 1.1,
                "icon-offset": [
                    20,
                    2
                ],
                "icon-offset-units": [
                    "pixels",
                    "pixels"
                ],
                "icon": "http://maps.google.com/mapfiles/kml/pushpin/ylw-pushpin.png",
                "@id": "385f7dbd-8de7-11f1-9429-8fa8e6949403"
            },
            "bbox": [
                -88.53125,
                30.346961,
                -88.53125,
                30.346961
            ]
        },
        {
            "type": "Feature",
            "geometry": {
                "type": "Point",
                "coordinates": [
                    -88.534161,
                    30.376311,
                    0
                ]
            },
            "properties": {
                "name": "knockandtalkoceanspringsHospital",
                "styleUrl": "#m_ylw-pushpin",
                "icon-scale": 1.1,
                "icon-offset": [
                    20,
                    2
                ],
                "icon-offset-units": [
                    "pixels",
                    "pixels"
                ],
                "icon": "http://maps.google.com/mapfiles/kml/pushpin/ylw-pushpin.png",
                "@id": "385f7dbe-8de7-11f1-9429-8fa8e6949403"
            },
            "bbox": [
                -88.534161,
                30.376311,
                -88.534161,
                30.376311
            ]
        },
        {
            "type": "Feature",
            "geometry": {
                "type": "Point",
                "coordinates": [
                    -88.889767,
                    30.395792,
                    0
                ]
            },
            "properties": {
                "name": "knockandtalkbiloxiHospital",
                "styleUrl": "#m_ylw-pushpin",
                "icon-scale": 1.1,
                "icon-offset": [
                    20,
                    2
                ],
                "icon-offset-units": [
                    "pixels",
                    "pixels"
                ],
                "icon": "http://maps.google.com/mapfiles/kml/pushpin/ylw-pushpin.png",
                "@id": "385f7dbf-8de7-11f1-9429-8fa8e6949403"
            },
            "bbox": [
                -88.889767,
                30.395792,
                -88.889767,
                30.395792
            ]
        },
        {
            "type": "Feature",
            "geometry": {
                "type": "Point",
                "coordinates": [
                    -88.782886,
                    30.243097,
                    0
                ]
            },
            "properties": {
                "name": "bodyFound",
                "styleUrl": "#m_ylw-pushpin",
                "icon-scale": 1.1,
                "icon-offset": [
                    20,
                    2
                ],
                "icon-offset-units": [
                    "pixels",
                    "pixels"
                ],
                "icon": "http://maps.google.com/mapfiles/kml/pushpin/ylw-pushpin.png",
                "@id": "385f7dc0-8de7-11f1-9429-8fa8e6949403"
            },
            "bbox": [
                -88.782886,
                30.243097,
                -88.782886,
                30.243097
            ]
        },
        {
            "type": "Feature",
            "geometry": {
                "type": "Point",
                "coordinates": [
                    -88.777433,
                    30.243758,
                    0
                ]
            },
            "properties": {
                "name": "palmBeach",
                "styleUrl": "#m_ylw-pushpin",
                "icon-scale": 1.1,
                "icon-offset": [
                    20,
                    2
                ],
                "icon-offset-units": [
                    "pixels",
                    "pixels"
                ],
                "icon": "http://maps.google.com/mapfiles/kml/pushpin/ylw-pushpin.png",
                "@id": "385f7dc1-8de7-11f1-9429-8fa8e6949403"
            },
            "bbox": [
                -88.777433,
                30.243758,
                -88.777433,
                30.243758
            ]
        },
        {
            "type": "Feature",
            "geometry": {
                "type": "Point",
                "coordinates": [
                    -88.777642,
                    30.243753,
                    0
                ]
            },
            "properties": {
                "name": "tideline",
                "styleUrl": "#m_ylw-pushpin",
                "icon-scale": 1.1,
                "icon-offset": [
                    20,
                    2
                ],
                "icon-offset-units": [
                    "pixels",
                    "pixels"
                ],
                "icon": "http://maps.google.com/mapfiles/kml/pushpin/ylw-pushpin.png",
                "@id": "385f7dc2-8de7-11f1-9429-8fa8e6949403"
            },
            "bbox": [
                -88.777642,
                30.243753,
                -88.777642,
                30.243753
            ]
        },
        {
            "type": "Feature",
            "geometry": {
                "type": "Point",
                "coordinates": [
                    -88.777328,
                    30.243683,
                    0
                ]
            },
            "properties": {
                "name": "tracestin",
                "styleUrl": "#m_ylw-pushpin",
                "icon-scale": 1.1,
                "icon-offset": [
                    20,
                    2
                ],
                "icon-offset-units": [
                    "pixels",
                    "pixels"
                ],
                "icon": "http://maps.google.com/mapfiles/kml/pushpin/ylw-pushpin.png",
                "@id": "385f7dc3-8de7-11f1-9429-8fa8e6949403"
            },
            "bbox": [
                -88.777328,
                30.243683,
                -88.777328,
                30.243683
            ]
        },
        {
            "type": "Feature",
            "geometry": {
                "type": "Point",
                "coordinates": [
                    -88.776653,
                    30.2437,
                    0
                ]
            },
            "properties": {
                "name": "lucas",
                "styleUrl": "#m_ylw-pushpin",
                "icon-scale": 1.1,
                "icon-offset": [
                    20,
                    2
                ],
                "icon-offset-units": [
                    "pixels",
                    "pixels"
                ],
                "icon": "http://maps.google.com/mapfiles/kml/pushpin/ylw-pushpin.png",
                "@id": "385f7dc4-8de7-11f1-9429-8fa8e6949403"
            },
            "bbox": [
                -88.776653,
                30.2437,
                -88.776653,
                30.2437
            ]
        },
        {
            "type": "Feature",
            "geometry": {
                "type": "Point",
                "coordinates": [
                    -88.776569,
                    30.243642,
                    0
                ]
            },
            "properties": {
                "name": "katie",
                "styleUrl": "#m_ylw-pushpin",
                "icon-scale": 1.1,
                "icon-offset": [
                    20,
                    2
                ],
                "icon-offset-units": [
                    "pixels",
                    "pixels"
                ],
                "icon": "http://maps.google.com/mapfiles/kml/pushpin/ylw-pushpin.png",
                "@id": "385f7dc5-8de7-11f1-9429-8fa8e6949403"
            },
            "bbox": [
                -88.776569,
                30.243642,
                -88.776569,
                30.243642
            ]
        },
        {
            "type": "Feature",
            "geometry": {
                "type": "Point",
                "coordinates": [
                    -88.875853,
                    30.425633,
                    0
                ]
            },
            "properties": {
                "name": "coachboatLaunch",
                "styleUrl": "#m_ylw-pushpin",
                "icon-scale": 1.1,
                "icon-offset": [
                    20,
                    2
                ],
                "icon-offset-units": [
                    "pixels",
                    "pixels"
                ],
                "icon": "http://maps.google.com/mapfiles/kml/pushpin/ylw-pushpin.png",
                "@id": "385f7dc6-8de7-11f1-9429-8fa8e6949403"
            },
            "bbox": [
                -88.875853,
                30.425633,
                -88.875853,
                30.425633
            ]
        },
        {
            "type": "Feature",
            "geometry": {
                "type": "Point",
                "coordinates": [
                    -88.785119,
                    30.409419,
                    0
                ]
            },
            "properties": {
                "name": "wyattHome",
                "styleUrl": "#m_ylw-pushpin",
                "icon-scale": 1.1,
                "icon-offset": [
                    20,
                    2
                ],
                "icon-offset-units": [
                    "pixels",
                    "pixels"
                ],
                "icon": "http://maps.google.com/mapfiles/kml/pushpin/ylw-pushpin.png",
                "@id": "385f7dc7-8de7-11f1-9429-8fa8e6949403"
            },
            "bbox": [
                -88.785119,
                30.409419,
                -88.785119,
                30.409419
            ]
        },
        {
            "type": "Feature",
            "geometry": {
                "type": "LineString",
                "coordinates": [
                    [
                        -88.785119,
                        30.40942
                    ],
                    [
                        -88.784819,
                        30.409421
                    ],
                    [
                        -88.784819,
                        30.409804
                    ],
                    [
                        -88.784785,
                        30.4099
                    ],
                    [
                        -88.785076,
                        30.410058
                    ],
                    [
                        -88.785406,
                        30.410216
                    ],
                    [
                        -88.78567,
                        30.410323
                    ],
                    [
                        -88.785932,
                        30.41041
                    ],
                    [
                        -88.785853,
                        30.410742
                    ],
                    [
                        -88.785788,
                        30.410856
                    ],
                    [
                        -88.785697,
                        30.410962
                    ],
                    [
                        -88.78556,
                        30.411061
                    ],
                    [
                        -88.785415,
                        30.411143
                    ],
                    [
                        -88.784323,
                        30.411627
                    ],
                    [
                        -88.783723,
                        30.411883
                    ],
                    [
                        -88.783116,
                        30.412133
                    ],
                    [
                        -88.782969,
                        30.412197
                    ],
                    [
                        -88.782899,
                        30.412238
                    ],
                    [
                        -88.782844,
                        30.412279
                    ],
                    [
                        -88.782803,
                        30.41233
                    ],
                    [
                        -88.782774,
                        30.412382
                    ],
                    [
                        -88.782738,
                        30.412502
                    ],
                    [
                        -88.782717,
                        30.412618
                    ],
                    [
                        -88.780969,
                        30.412334
                    ],
                    [
                        -88.779899,
                        30.412167
                    ],
                    [
                        -88.778826,
                        30.411989
                    ],
                    [
                        -88.776765,
                        30.411646
                    ],
                    [
                        -88.774701,
                        30.411314
                    ],
                    [
                        -88.770689,
                        30.41066
                    ],
                    [
                        -88.766628,
                        30.40999
                    ],
                    [
                        -88.765918,
                        30.40986
                    ],
                    [
                        -88.764893,
                        30.409706
                    ],
                    [
                        -88.763136,
                        30.409424
                    ],
                    [
                        -88.759598,
                        30.408851
                    ],
                    [
                        -88.755636,
                        30.408213
                    ],
                    [
                        -88.751631,
                        30.407546
                    ],
                    [
                        -88.749358,
                        30.407191
                    ],
                    [
                        -88.747634,
                        30.406911
                    ],
                    [
                        -88.743635,
                        30.406262
                    ],
                    [
                        -88.739634,
                        30.405606
                    ],
                    [
                        -88.735524,
                        30.40494
                    ],
                    [
                        -88.732167,
                        30.40439
                    ],
                    [
                        -88.728715,
                        30.403827
                    ],
                    [
                        -88.719515,
                        30.402332
                    ],
                    [
                        -88.713655,
                        30.401374
                    ],
                    [
                        -88.706194,
                        30.400167
                    ],
                    [
                        -88.703185,
                        30.399679
                    ],
                    [
                        -88.700164,
                        30.399206
                    ],
                    [
                        -88.693821,
                        30.398228
                    ],
                    [
                        -88.68564,
                        30.396977
                    ],
                    [
                        -88.677429,
                        30.3957
                    ],
                    [
                        -88.672554,
                        30.394962
                    ],
                    [
                        -88.665041,
                        30.393815
                    ],
                    [
                        -88.659199,
                        30.392917
                    ],
                    [
                        -88.654446,
                        30.392183
                    ],
                    [
                        -88.651758,
                        30.391777
                    ],
                    [
                        -88.648907,
                        30.391324
                    ],
                    [
                        -88.646006,
                        30.390886
                    ],
                    [
                        -88.641706,
                        30.39023
                    ],
                    [
                        -88.640431,
                        30.390026
                    ],
                    [
                        -88.639143,
                        30.389787
                    ],
                    [
                        -88.638094,
                        30.389592
                    ],
                    [
                        -88.637519,
                        30.389472
                    ],
                    [
                        -88.637039,
                        30.389351
                    ],
                    [
                        -88.632997,
                        30.388433
                    ],
                    [
                        -88.627704,
                        30.387213
                    ],
                    [
                        -88.625595,
                        30.386738
                    ],
                    [
                        -88.62343,
                        30.386226
                    ],
                    [
                        -88.620049,
                        30.385456
                    ],
                    [
                        -88.61215,
                        30.383644
                    ],
                    [
                        -88.609435,
                        30.382992
                    ],
                    [
                        -88.606678,
                        30.382368
                    ],
                    [
                        -88.601202,
                        30.381107
                    ],
                    [
                        -88.597681,
                        30.380304
                    ],
                    [
                        -88.594119,
                        30.379473
                    ],
                    [
                        -88.58604,
                        30.37761
                    ],
                    [
                        -88.578516,
                        30.375871
                    ],
                    [
                        -88.576668,
                        30.375465
                    ],
                    [
                        -88.57477,
                        30.375032
                    ],
                    [
                        -88.573056,
                        30.374621
                    ],
                    [
                        -88.570964,
                        30.374067
                    ],
                    [
                        -88.568512,
                        30.373405
                    ],
                    [
                        -88.56549,
                        30.372768
                    ],
                    [
                        -88.557883,
                        30.371236
                    ],
                    [
                        -88.557161,
                        30.371089
                    ],
                    [
                        -88.55645,
                        30.370979
                    ],
                    [
                        -88.555525,
                        30.370884
                    ],
                    [
                        -88.5545,
                        30.370837
                    ],
                    [
                        -88.552963,
                        30.370849
                    ],
                    [
                        -88.551423,
                        30.370841
                    ],
                    [
                        -88.548615,
                        30.370824
                    ],
                    [
                        -88.548522,
                        30.354836
                    ],
                    [
                        -88.554015,
                        30.354724
                    ],
                    [
                        -88.553762,
                        30.353524
                    ],
                    [
                        -88.553642,
                        30.352932
                    ],
                    [
                        -88.553579,
                        30.352489
                    ],
                    [
                        -88.553516,
                        30.351842
                    ],
                    [
                        -88.553497,
                        30.351199
                    ],
                    [
                        -88.553524,
                        30.349658
                    ],
                    [
                        -88.554649,
                        30.349658
                    ],
                    [
                        -88.555114,
                        30.349649
                    ],
                    [
                        -88.555343,
                        30.349632
                    ],
                    [
                        -88.555595,
                        30.349594
                    ],
                    [
                        -88.556183,
                        30.349497
                    ],
                    [
                        -88.556155,
                        30.348925
                    ],
                    [
                        -88.556182,
                        30.348785
                    ],
                    [
                        -88.556211,
                        30.348721
                    ],
                    [
                        -88.55627,
                        30.348665
                    ],
                    [
                        -88.556359,
                        30.348629
                    ],
                    [
                        -88.556484,
                        30.348599
                    ],
                    [
                        -88.556915,
                        30.348502
                    ],
                    [
                        -88.556889,
                        30.347995
                    ]
                ]
            },
            "properties": {
                "name": "Warren → Wyatt's → home",
                "stroke-width": 1,
                "stroke-opacity": 1,
                "stroke": "rgba(251, 255, 0, 1)",
                "@id": "385f7dc8-8de7-11f1-9429-8fa8e6949403"
            },
            "bbox": [
                -88.785932,
                30.347995,
                -88.548522,
                30.412618
            ]
        },
        {
            "type": "Feature",
            "geometry": {
                "type": "Point",
                "coordinates": [
                    -88.547963,
                    30.364674
                ]
            },
            "properties": {
                "marker-size": "large",
                "marker-symbol": "restaurant",
                "name": "mcdonaldsPascagoula",
                "marker-color": "rgba(8, 0, 255, 1)",
                "@id": "385f7dc9-8de7-11f1-9429-8fa8e6949403"
            },
            "bbox": [
                -88.547963,
                30.364674,
                -88.547963,
                30.364674
            ]
        },
        {
            "type": "Feature",
            "geometry": {
                "type": "LineString",
                "coordinates": [
                    [
                        -88.556889,
                        30.347995
                    ],
                    [
                        -88.556915,
                        30.348502
                    ],
                    [
                        -88.556359,
                        30.348629
                    ],
                    [
                        -88.55627,
                        30.348665
                    ],
                    [
                        -88.55621,
                        30.348721
                    ],
                    [
                        -88.556182,
                        30.348785
                    ],
                    [
                        -88.556154,
                        30.348925
                    ],
                    [
                        -88.556183,
                        30.349497
                    ],
                    [
                        -88.55569,
                        30.34958
                    ],
                    [
                        -88.555345,
                        30.349631
                    ],
                    [
                        -88.555118,
                        30.349649
                    ],
                    [
                        -88.554722,
                        30.349657
                    ],
                    [
                        -88.554329,
                        30.349658
                    ],
                    [
                        -88.553524,
                        30.349658
                    ],
                    [
                        -88.553504,
                        30.350893
                    ],
                    [
                        -88.553498,
                        30.351204
                    ],
                    [
                        -88.553505,
                        30.351472
                    ],
                    [
                        -88.553515,
                        30.351788
                    ],
                    [
                        -88.553516,
                        30.351834
                    ],
                    [
                        -88.55352,
                        30.351875
                    ],
                    [
                        -88.553537,
                        30.352059
                    ],
                    [
                        -88.55358,
                        30.352495
                    ],
                    [
                        -88.553643,
                        30.35293
                    ],
                    [
                        -88.553741,
                        30.353424
                    ],
                    [
                        -88.554015,
                        30.354724
                    ],
                    [
                        -88.548419,
                        30.354838
                    ],
                    [
                        -88.548432,
                        30.357139
                    ],
                    [
                        -88.548438,
                        30.35833
                    ],
                    [
                        -88.548448,
                        30.358924
                    ],
                    [
                        -88.54845,
                        30.359582
                    ],
                    [
                        -88.548463,
                        30.363981
                    ],
                    [
                        -88.548469,
                        30.364502
                    ],
                    [
                        -88.547964,
                        30.364488
                    ],
                    [
                        -88.547902,
                        30.364486
                    ],
                    [
                        -88.547887,
                        30.364486
                    ],
                    [
                        -88.54787,
                        30.364487
                    ],
                    [
                        -88.547853,
                        30.36449
                    ],
                    [
                        -88.547836,
                        30.364494
                    ],
                    [
                        -88.547818,
                        30.364499
                    ],
                    [
                        -88.547803,
                        30.364505
                    ],
                    [
                        -88.547791,
                        30.364513
                    ],
                    [
                        -88.547784,
                        30.364518
                    ],
                    [
                        -88.547774,
                        30.364526
                    ],
                    [
                        -88.547767,
                        30.364534
                    ],
                    [
                        -88.547763,
                        30.364546
                    ],
                    [
                        -88.54776,
                        30.364558
                    ],
                    [
                        -88.547757,
                        30.364582
                    ],
                    [
                        -88.547757,
                        30.364603
                    ],
                    [
                        -88.547758,
                        30.364642
                    ],
                    [
                        -88.547762,
                        30.364673
                    ],
                    [
                        -88.547763,
                        30.364684
                    ],
                    [
                        -88.547766,
                        30.364694
                    ],
                    [
                        -88.547773,
                        30.364704
                    ],
                    [
                        -88.547779,
                        30.364709
                    ],
                    [
                        -88.547796,
                        30.364721
                    ],
                    [
                        -88.547806,
                        30.364725
                    ],
                    [
                        -88.547815,
                        30.364728
                    ],
                    [
                        -88.547839,
                        30.364731
                    ],
                    [
                        -88.547887,
                        30.364734
                    ],
                    [
                        -88.547963,
                        30.364735
                    ],
                    [
                        -88.548084,
                        30.364737
                    ],
                    [
                        -88.548159,
                        30.364735
                    ],
                    [
                        -88.548173,
                        30.364734
                    ],
                    [
                        -88.548187,
                        30.364733
                    ],
                    [
                        -88.548204,
                        30.364729
                    ],
                    [
                        -88.548215,
                        30.364724
                    ],
                    [
                        -88.548223,
                        30.364718
                    ],
                    [
                        -88.54823,
                        30.364711
                    ],
                    [
                        -88.548232,
                        30.364702
                    ],
                    [
                        -88.548238,
                        30.364537
                    ]
                ]
            },
            "properties": {
                "stroke-opacity": 1,
                "stroke": "rgba(0, 255, 25, 1)",
                "name": "Warren → McDonald's → Wyatt's",
                "@id": "385f7dca-8de7-11f1-9429-8fa8e6949403"
            },
            "bbox": [
                -88.556915,
                30.347995,
                -88.547757,
                30.364737
            ]
        },
        {
            "type": "Feature",
            "geometry": {
                "type": "LineString",
                "coordinates": [
                    [
                        -88.548238,
                        30.364537
                    ],
                    [
                        -88.548469,
                        30.364545
                    ],
                    [
                        -88.54847,
                        30.365079
                    ],
                    [
                        -88.548476,
                        30.365522
                    ],
                    [
                        -88.548488,
                        30.366694
                    ],
                    [
                        -88.548487,
                        30.36786
                    ],
                    [
                        -88.548494,
                        30.369409
                    ],
                    [
                        -88.548503,
                        30.370193
                    ],
                    [
                        -88.548507,
                        30.370965
                    ],
                    [
                        -88.550008,
                        30.37097
                    ],
                    [
                        -88.551432,
                        30.370976
                    ],
                    [
                        -88.552996,
                        30.370981
                    ],
                    [
                        -88.554407,
                        30.370986
                    ],
                    [
                        -88.555329,
                        30.371042
                    ],
                    [
                        -88.556151,
                        30.371121
                    ],
                    [
                        -88.556995,
                        30.37125
                    ],
                    [
                        -88.557841,
                        30.371419
                    ],
                    [
                        -88.55964,
                        30.371781
                    ],
                    [
                        -88.561638,
                        30.372183
                    ],
                    [
                        -88.56544,
                        30.372951
                    ],
                    [
                        -88.566159,
                        30.373097
                    ],
                    [
                        -88.566899,
                        30.373248
                    ],
                    [
                        -88.567896,
                        30.373447
                    ],
                    [
                        -88.568355,
                        30.37351
                    ],
                    [
                        -88.56966,
                        30.37384
                    ],
                    [
                        -88.570966,
                        30.374197
                    ],
                    [
                        -88.573158,
                        30.374787
                    ],
                    [
                        -88.5753,
                        30.375323
                    ],
                    [
                        -88.580704,
                        30.376549
                    ],
                    [
                        -88.587478,
                        30.378115
                    ],
                    [
                        -88.594798,
                        30.379797
                    ],
                    [
                        -88.603042,
                        30.3817
                    ],
                    [
                        -88.605846,
                        30.382329
                    ],
                    [
                        -88.608633,
                        30.382968
                    ],
                    [
                        -88.610403,
                        30.383372
                    ],
                    [
                        -88.612155,
                        30.383798
                    ],
                    [
                        -88.614711,
                        30.384398
                    ],
                    [
                        -88.616084,
                        30.384713
                    ],
                    [
                        -88.617398,
                        30.38501
                    ],
                    [
                        -88.618031,
                        30.385167
                    ],
                    [
                        -88.619263,
                        30.385459
                    ],
                    [
                        -88.62011,
                        30.385665
                    ],
                    [
                        -88.62247,
                        30.386225
                    ],
                    [
                        -88.623467,
                        30.386436
                    ],
                    [
                        -88.625587,
                        30.386932
                    ],
                    [
                        -88.627705,
                        30.387414
                    ],
                    [
                        -88.630543,
                        30.388073
                    ],
                    [
                        -88.632949,
                        30.388623
                    ],
                    [
                        -88.635185,
                        30.389138
                    ],
                    [
                        -88.637031,
                        30.389563
                    ],
                    [
                        -88.639152,
                        30.39
                    ],
                    [
                        -88.640681,
                        30.390271
                    ],
                    [
                        -88.641735,
                        30.39044
                    ],
                    [
                        -88.645968,
                        30.391091
                    ],
                    [
                        -88.651747,
                        30.391981
                    ],
                    [
                        -88.652727,
                        30.392122
                    ],
                    [
                        -88.654413,
                        30.392387
                    ],
                    [
                        -88.657629,
                        30.392892
                    ],
                    [
                        -88.659217,
                        30.393122
                    ],
                    [
                        -88.660761,
                        30.393353
                    ],
                    [
                        -88.661897,
                        30.393522
                    ],
                    [
                        -88.663913,
                        30.393842
                    ],
                    [
                        -88.66505,
                        30.394003
                    ],
                    [
                        -88.668309,
                        30.394499
                    ],
                    [
                        -88.67001,
                        30.39476
                    ],
                    [
                        -88.671314,
                        30.394958
                    ],
                    [
                        -88.677946,
                        30.39596
                    ],
                    [
                        -88.683739,
                        30.396859
                    ],
                    [
                        -88.693788,
                        30.398408
                    ],
                    [
                        -88.700193,
                        30.399384
                    ],
                    [
                        -88.706628,
                        30.400414
                    ],
                    [
                        -88.714333,
                        30.401668
                    ],
                    [
                        -88.718273,
                        30.402312
                    ],
                    [
                        -88.719668,
                        30.402545
                    ],
                    [
                        -88.722515,
                        30.403001
                    ],
                    [
                        -88.731049,
                        30.40439
                    ],
                    [
                        -88.738316,
                        30.405579
                    ],
                    [
                        -88.739602,
                        30.405787
                    ],
                    [
                        -88.741185,
                        30.406053
                    ],
                    [
                        -88.742323,
                        30.406242
                    ],
                    [
                        -88.743767,
                        30.406466
                    ],
                    [
                        -88.744895,
                        30.406642
                    ],
                    [
                        -88.747022,
                        30.406998
                    ],
                    [
                        -88.749046,
                        30.40732
                    ],
                    [
                        -88.751606,
                        30.407727
                    ],
                    [
                        -88.753737,
                        30.408081
                    ],
                    [
                        -88.756574,
                        30.408547
                    ],
                    [
                        -88.759579,
                        30.409029
                    ],
                    [
                        -88.761027,
                        30.409259
                    ],
                    [
                        -88.763797,
                        30.409715
                    ],
                    [
                        -88.765668,
                        30.410018
                    ],
                    [
                        -88.768763,
                        30.410517
                    ],
                    [
                        -88.770228,
                        30.410754
                    ],
                    [
                        -88.771916,
                        30.411037
                    ],
                    [
                        -88.776731,
                        30.411822
                    ],
                    [
                        -88.779573,
                        30.4123
                    ],
                    [
                        -88.781141,
                        30.41254
                    ],
                    [
                        -88.782683,
                        30.412797
                    ],
                    [
                        -88.782717,
                        30.41262
                    ],
                    [
                        -88.782734,
                        30.412534
                    ],
                    [
                        -88.782753,
                        30.41245
                    ],
                    [
                        -88.782776,
                        30.412378
                    ],
                    [
                        -88.782827,
                        30.412295
                    ],
                    [
                        -88.782888,
                        30.412246
                    ],
                    [
                        -88.782976,
                        30.412195
                    ],
                    [
                        -88.783114,
                        30.412133
                    ],
                    [
                        -88.783727,
                        30.411882
                    ],
                    [
                        -88.784332,
                        30.411624
                    ],
                    [
                        -88.78495,
                        30.411349
                    ],
                    [
                        -88.785385,
                        30.411158
                    ],
                    [
                        -88.78556,
                        30.411061
                    ],
                    [
                        -88.785696,
                        30.410962
                    ],
                    [
                        -88.785789,
                        30.410855
                    ],
                    [
                        -88.785853,
                        30.410742
                    ],
                    [
                        -88.785932,
                        30.41041
                    ],
                    [
                        -88.785678,
                        30.410326
                    ],
                    [
                        -88.785421,
                        30.410223
                    ],
                    [
                        -88.785096,
                        30.410067
                    ],
                    [
                        -88.784785,
                        30.4099
                    ],
                    [
                        -88.784819,
                        30.409803
                    ],
                    [
                        -88.784819,
                        30.409421
                    ],
                    [
                        -88.784972,
                        30.40942
                    ],
                    [
                        -88.785049,
                        30.40942
                    ],
                    [
                        -88.785119,
                        30.40942
                    ]
                ]
            },
            "properties": {
                "stroke-width": 1,
                "stroke-opacity": 1,
                "stroke": "rgba(0, 255, 251, 1)",
                "name": "Warren → McDonald's → Wyatt's",
                "@id": "385f7dcb-8de7-11f1-9429-8fa8e6949403"
            },
            "bbox": [
                -88.785932,
                30.364537,
                -88.548238,
                30.412797
            ]
        },
        {
            "type": "Feature",
            "geometry": {
                "type": "LineString",
                "coordinates": [
                    [
                        -88.82753,
                        30.418864
                    ],
                    [
                        -88.827563,
                        30.418353
                    ],
                    [
                        -88.827523,
                        30.418184
                    ],
                    [
                        -88.827494,
                        30.418004
                    ],
                    [
                        -88.827672,
                        30.41798
                    ],
                    [
                        -88.827656,
                        30.417286
                    ],
                    [
                        -88.827666,
                        30.416133
                    ],
                    [
                        -88.826343,
                        30.416126
                    ],
                    [
                        -88.824476,
                        30.416155
                    ],
                    [
                        -88.822585,
                        30.416183
                    ],
                    [
                        -88.81879,
                        30.416239
                    ],
                    [
                        -88.816773,
                        30.416277
                    ],
                    [
                        -88.816173,
                        30.416281
                    ],
                    [
                        -88.815569,
                        30.416297
                    ],
                    [
                        -88.814219,
                        30.416336
                    ],
                    [
                        -88.812935,
                        30.416364
                    ],
                    [
                        -88.811372,
                        30.416372
                    ],
                    [
                        -88.810484,
                        30.416396
                    ],
                    [
                        -88.809595,
                        30.41641
                    ],
                    [
                        -88.808335,
                        30.416433
                    ],
                    [
                        -88.806907,
                        30.416449
                    ],
                    [
                        -88.806337,
                        30.41644
                    ],
                    [
                        -88.805766,
                        30.416419
                    ],
                    [
                        -88.804993,
                        30.41636
                    ],
                    [
                        -88.804023,
                        30.416248
                    ],
                    [
                        -88.803505,
                        30.416168
                    ],
                    [
                        -88.802984,
                        30.416079
                    ],
                    [
                        -88.80142,
                        30.415835
                    ],
                    [
                        -88.799772,
                        30.415566
                    ],
                    [
                        -88.798678,
                        30.415393
                    ],
                    [
                        -88.797547,
                        30.415209
                    ],
                    [
                        -88.795384,
                        30.414856
                    ],
                    [
                        -88.791845,
                        30.414282
                    ],
                    [
                        -88.789068,
                        30.413837
                    ],
                    [
                        -88.787525,
                        30.413583
                    ],
                    [
                        -88.785919,
                        30.413323
                    ],
                    [
                        -88.784301,
                        30.413067
                    ],
                    [
                        -88.782683,
                        30.412797
                    ],
                    [
                        -88.782718,
                        30.412617
                    ],
                    [
                        -88.78274,
                        30.412501
                    ],
                    [
                        -88.782774,
                        30.412381
                    ],
                    [
                        -88.782802,
                        30.412334
                    ],
                    [
                        -88.782835,
                        30.41229
                    ],
                    [
                        -88.782863,
                        30.412265
                    ],
                    [
                        -88.782896,
                        30.412241
                    ],
                    [
                        -88.782967,
                        30.412199
                    ],
                    [
                        -88.783113,
                        30.412135
                    ],
                    [
                        -88.783723,
                        30.411882
                    ],
                    [
                        -88.784331,
                        30.411624
                    ],
                    [
                        -88.785028,
                        30.411316
                    ],
                    [
                        -88.785416,
                        30.411143
                    ],
                    [
                        -88.785562,
                        30.411059
                    ],
                    [
                        -88.785695,
                        30.410963
                    ],
                    [
                        -88.785788,
                        30.410856
                    ],
                    [
                        -88.785853,
                        30.410743
                    ],
                    [
                        -88.785932,
                        30.41041
                    ],
                    [
                        -88.785675,
                        30.410324
                    ],
                    [
                        -88.785415,
                        30.410221
                    ],
                    [
                        -88.785083,
                        30.410062
                    ],
                    [
                        -88.784785,
                        30.4099
                    ],
                    [
                        -88.784819,
                        30.409804
                    ],
                    [
                        -88.784819,
                        30.409421
                    ],
                    [
                        -88.785119,
                        30.40942
                    ]
                ]
            },
            "properties": {
                "stroke-width": 1,
                "stroke-opacity": 1,
                "stroke": "rgba(255, 178, 5, 1)",
                "name": "Warren, Wyatt, Nolan → Wyatt's → Fort Bayou",
                "@id": "385f7dcc-8de7-11f1-9429-8fa8e6949403"
            },
            "bbox": [
                -88.827672,
                30.40942,
                -88.782683,
                30.418864
            ]
        },
        {
            "type": "Feature",
            "properties": {
                "stroke-width": 1,
                "stroke-opacity": 1,
                "stroke": "rgba(27, 255, 1, 1)",
                "name": "Triton → Fort Bayou → El Camino",
                "@id": "f9e13bc0-8e33-11f1-8e95-6fda5e738b6b"
            },
            "geometry": {
                "type": "LineString",
                "coordinates": [
                    [
                        -88.827825,
                        30.419464
                    ],
                    [
                        -88.831508,
                        30.41913
                    ],
                    [
                        -88.84312,
                        30.422284
                    ],
                    [
                        -88.85032,
                        30.431652
                    ],
                    [
                        -88.848857,
                        30.433377
                    ],
                    [
                        -88.84852,
                        30.434259
                    ],
                    [
                        -88.847941,
                        30.434568
                    ],
                    [
                        -88.846844,
                        30.434558
                    ]
                ]
            },
            "bbox": [
                -88.85032,
                30.41913,
                -88.827825,
                30.434568
            ]
        },
        {
            "type": "Feature",
            "properties": {
                "stroke-width": 1,
                "stroke-opacity": 1,
                "stroke": "rgba(0, 255, 212, 1)",
                "name": "Palm Beach → Fort Bayou → El Camino",
                "@id": "49c6b980-8e34-11f1-8e95-6fda5e738b6b"
            },
            "geometry": {
                "type": "LineString",
                "coordinates": [
                    [
                        -88.827825,
                        30.419464
                    ],
                    [
                        -88.831507,
                        30.419029
                    ],
                    [
                        -88.843193,
                        30.422209
                    ],
                    [
                        -88.8504,
                        30.431655
                    ],
                    [
                        -88.848905,
                        30.433396
                    ],
                    [
                        -88.848561,
                        30.434284
                    ],
                    [
                        -88.847954,
                        30.434601
                    ],
                    [
                        -88.846844,
                        30.434558
                    ]
                ]
            },
            "bbox": [
                -88.8504,
                30.419029,
                -88.827825,
                30.434601
            ]
        },
        {
            "type": "Feature",
            "properties": {
                "name": "Bart → home → Tideline → El Camino",
                "stroke-width": 1,
                "stroke-opacity": 1,
                "stroke": "rgba(187, 113, 255, 1)",
                "@id": "a721cd90-8e34-11f1-8e95-6fda5e738b6b"
            },
            "geometry": {
                "type": "LineString",
                "coordinates": [
                    [
                        -88.812797,
                        30.424206
                    ],
                    [
                        -88.813282,
                        30.424658
                    ],
                    [
                        -88.817654,
                        30.425915
                    ],
                    [
                        -88.818815,
                        30.4256
                    ],
                    [
                        -88.818389,
                        30.423595
                    ],
                    [
                        -88.819378,
                        30.422995
                    ],
                    [
                        -88.821548,
                        30.424212
                    ],
                    [
                        -88.822478,
                        30.423975
                    ],
                    [
                        -88.824243,
                        30.421244
                    ],
                    [
                        -88.827825,
                        30.419464
                    ],
                    [
                        -88.831509,
                        30.418931
                    ],
                    [
                        -88.843263,
                        30.422119
                    ],
                    [
                        -88.850503,
                        30.431663
                    ],
                    [
                        -88.84895,
                        30.433412
                    ],
                    [
                        -88.848603,
                        30.434306
                    ],
                    [
                        -88.847964,
                        30.434635
                    ],
                    [
                        -88.846844,
                        30.434558
                    ]
                ]
            },
            "bbox": [
                -88.850503,
                30.418931,
                -88.812797,
                30.434635
            ]
        }
    ]
}