{
    "type": "FeatureCollection",
    "features": [
        {
            "type": "Feature",
            "geometry": {
                "type": "Point",
                "coordinates": [
                    -89.247543,
                    30.315753,
                    0
                ]
            },
            "properties": {
                "name": "Pass Christian",
                "styleUrl": "#m_ylw-pushpin",
                "icon-scale": 1.1,
                "icon-offset": [
                    20,
                    2
                ],
                "icon-offset-units": [
                    "pixels",
                    "pixels"
                ],
                "icon": "http://maps.google.com/mapfiles/kml/pushpin/ylw-pushpin.png",
                "@id": "9635e2b0-8785-11f1-8673-1b92640e7de6"
            },
            "bbox": [
                -89.247543,
                30.315753,
                -89.247543,
                30.315753
            ]
        },
        {
            "type": "Feature",
            "geometry": {
                "type": "Point",
                "coordinates": [
                    -88.764184,
                    30.360766,
                    0
                ]
            },
            "properties": {
                "name": "Lake Mars Pier",
                "styleUrl": "#m_ylw-pushpin",
                "icon-scale": 1.1,
                "icon-offset": [
                    20,
                    2
                ],
                "icon-offset-units": [
                    "pixels",
                    "pixels"
                ],
                "icon": "http://maps.google.com/mapfiles/kml/pushpin/ylw-pushpin.png",
                "@id": "9635e2b1-8785-11f1-8673-1b92640e7de6"
            },
            "bbox": [
                -88.764184,
                30.360766,
                -88.764184,
                30.360766
            ]
        },
        {
            "type": "Feature",
            "geometry": {
                "type": "Point",
                "coordinates": [
                    -88.529708,
                    30.379697,
                    0
                ]
            },
            "properties": {
                "name": "Coroner",
                "styleUrl": "#m_ylw-pushpin",
                "icon-scale": 1.1,
                "icon-offset": [
                    20,
                    2
                ],
                "icon-offset-units": [
                    "pixels",
                    "pixels"
                ],
                "icon": "http://maps.google.com/mapfiles/kml/pushpin/ylw-pushpin.png",
                "@id": "9635e2b2-8785-11f1-8673-1b92640e7de6"
            },
            "bbox": [
                -88.529708,
                30.379697,
                -88.529708,
                30.379697
            ]
        },
        {
            "type": "Feature",
            "geometry": {
                "type": "Point",
                "coordinates": [
                    -88.716673,
                    30.429279,
                    0
                ]
            },
            "properties": {
                "name": "Church",
                "styleUrl": "#m_ylw-pushpin",
                "icon-scale": 1.1,
                "icon-offset": [
                    20,
                    2
                ],
                "icon-offset-units": [
                    "pixels",
                    "pixels"
                ],
                "icon": "http://maps.google.com/mapfiles/kml/pushpin/ylw-pushpin.png",
                "@id": "9635e2b3-8785-11f1-8673-1b92640e7de6"
            },
            "bbox": [
                -88.716673,
                30.429279,
                -88.716673,
                30.429279
            ]
        },
        {
            "type": "Feature",
            "geometry": {
                "type": "Point",
                "coordinates": [
                    -88.531639,
                    30.380207,
                    0
                ]
            },
            "properties": {
                "name": "Fairgrounds",
                "styleUrl": "#m_ylw-pushpin",
                "icon-scale": 1.1,
                "icon-offset": [
                    20,
                    2
                ],
                "icon-offset-units": [
                    "pixels",
                    "pixels"
                ],
                "icon": "http://maps.google.com/mapfiles/kml/pushpin/ylw-pushpin.png",
                "@id": "9635e2b4-8785-11f1-8673-1b92640e7de6"
            },
            "bbox": [
                -88.531639,
                30.380207,
                -88.531639,
                30.380207
            ]
        },
        {
            "type": "Feature",
            "geometry": {
                "type": "Point",
                "coordinates": [
                    -88.559012,
                    30.347295,
                    0
                ]
            },
            "properties": {
                "name": "Warren home",
                "styleUrl": "#m_ylw-pushpin",
                "icon-scale": 1.1,
                "icon-offset": [
                    20,
                    2
                ],
                "icon-offset-units": [
                    "pixels",
                    "pixels"
                ],
                "icon": "http://maps.google.com/mapfiles/kml/pushpin/ylw-pushpin.png",
                "@id": "9635e2b5-8785-11f1-8673-1b92640e7de6"
            },
            "bbox": [
                -88.559012,
                30.347295,
                -88.559012,
                30.347295
            ]
        },
        {
            "type": "Feature",
            "geometry": {
                "type": "Point",
                "coordinates": [
                    -88.887046,
                    30.395427,
                    0
                ]
            },
            "properties": {
                "name": "Wyatt home",
                "styleUrl": "#m_ylw-pushpin",
                "icon-scale": 1.1,
                "icon-offset": [
                    20,
                    2
                ],
                "icon-offset-units": [
                    "pixels",
                    "pixels"
                ],
                "icon": "http://maps.google.com/mapfiles/kml/pushpin/ylw-pushpin.png",
                "@id": "9635e2b6-8785-11f1-8673-1b92640e7de6"
            },
            "bbox": [
                -88.887046,
                30.395427,
                -88.887046,
                30.395427
            ]
        },
        {
            "type": "Feature",
            "geometry": {
                "type": "Point",
                "coordinates": [
                    -88.790443,
                    30.288446,
                    0
                ]
            },
            "properties": {
                "name": "22 Triton in distress @ 4:31 PM",
                "styleUrl": "#m_ylw-pushpin",
                "icon-scale": 1.1,
                "icon-offset": [
                    20,
                    2
                ],
                "icon-offset-units": [
                    "pixels",
                    "pixels"
                ],
                "icon": "http://maps.google.com/mapfiles/kml/pushpin/ylw-pushpin.png",
                "@id": "9635e2b7-8785-11f1-8673-1b92640e7de6"
            },
            "bbox": [
                -88.790443,
                30.288446,
                -88.790443,
                30.288446
            ]
        },
        {
            "type": "Feature",
            "geometry": {
                "type": "Point",
                "coordinates": [
                    -88.845947,
                    30.433925,
                    0
                ]
            },
            "properties": {
                "name": "24 Tide Lane depart @ 9:56 AM",
                "styleUrl": "#m_ylw-pushpin",
                "icon-scale": 1.1,
                "icon-offset": [
                    20,
                    2
                ],
                "icon-offset-units": [
                    "pixels",
                    "pixels"
                ],
                "icon": "http://maps.google.com/mapfiles/kml/pushpin/ylw-pushpin.png",
                "@id": "9635e2b8-8785-11f1-8673-1b92640e7de6"
            },
            "bbox": [
                -88.845947,
                30.433925,
                -88.845947,
                30.433925
            ]
        },
        {
            "type": "Feature",
            "geometry": {
                "type": "Point",
                "coordinates": [
                    -88.778603,
                    30.243564,
                    0
                ]
            },
            "properties": {
                "name": "Triton arrival @ 11:14 AM",
                "styleUrl": "#m_ylw-pushpin",
                "icon-scale": 1.1,
                "icon-offset": [
                    20,
                    2
                ],
                "icon-offset-units": [
                    "pixels",
                    "pixels"
                ],
                "icon": "http://maps.google.com/mapfiles/kml/pushpin/ylw-pushpin.png",
                "@id": "9635e2b9-8785-11f1-8673-1b92640e7de6"
            },
            "bbox": [
                -88.778603,
                30.243564,
                -88.778603,
                30.243564
            ]
        },
        {
            "type": "Feature",
            "geometry": {
                "type": "Point",
                "coordinates": [
                    -88.777569,
                    30.243681,
                    0
                ]
            },
            "properties": {
                "name": "18 Palm Beach",
                "styleUrl": "#m_ylw-pushpin",
                "icon-scale": 1.1,
                "icon-offset": [
                    20,
                    2
                ],
                "icon-offset-units": [
                    "pixels",
                    "pixels"
                ],
                "icon": "http://maps.google.com/mapfiles/kml/pushpin/ylw-pushpin.png",
                "@id": "9635e2ba-8785-11f1-8673-1b92640e7de6"
            },
            "bbox": [
                -88.777569,
                30.243681,
                -88.777569,
                30.243681
            ]
        },
        {
            "type": "Feature",
            "geometry": {
                "type": "Point",
                "coordinates": [
                    -88.779744,
                    30.243331,
                    0
                ]
            },
            "properties": {
                "name": "24 Tide Lane",
                "styleUrl": "#m_ylw-pushpin",
                "icon-scale": 1.1,
                "icon-offset": [
                    20,
                    2
                ],
                "icon-offset-units": [
                    "pixels",
                    "pixels"
                ],
                "icon": "http://maps.google.com/mapfiles/kml/pushpin/ylw-pushpin.png",
                "@id": "9635e2bb-8785-11f1-8673-1b92640e7de6"
            },
            "bbox": [
                -88.779744,
                30.243331,
                -88.779744,
                30.243331
            ]
        },
        {
            "type": "Feature",
            "geometry": {
                "type": "Point",
                "coordinates": [
                    -88.785033,
                    30.242956,
                    0
                ]
            },
            "properties": {
                "name": "Body found @ 8:40 AM",
                "styleUrl": "#m_ylw-pushpin",
                "icon-scale": 1.1,
                "icon-offset": [
                    20,
                    2
                ],
                "icon-offset-units": [
                    "pixels",
                    "pixels"
                ],
                "icon": "http://maps.google.com/mapfiles/kml/pushpin/ylw-pushpin.png",
                "@id": "9635e2bc-8785-11f1-8673-1b92640e7de6"
            },
            "bbox": [
                -88.785033,
                30.242956,
                -88.785033,
                30.242956
            ]
        },
        {
            "type": "Feature",
            "geometry": {
                "type": "Point",
                "coordinates": [
                    -88.827825,
                    30.419464,
                    0
                ]
            },
            "properties": {
                "name": "Ft. Bayou @ 7:19 PM",
                "styleUrl": "#m_ylw-pushpin",
                "icon-scale": 1.1,
                "icon-offset": [
                    20,
                    2
                ],
                "icon-offset-units": [
                    "pixels",
                    "pixels"
                ],
                "icon": "http://maps.google.com/mapfiles/kml/pushpin/ylw-pushpin.png",
                "@id": "9635e2bd-8785-11f1-8673-1b92640e7de6"
            },
            "bbox": [
                -88.827825,
                30.419464,
                -88.827825,
                30.419464
            ]
        },
        {
            "type": "Feature",
            "geometry": {
                "type": "Point",
                "coordinates": [
                    -88.827939,
                    30.420506,
                    0
                ]
            },
            "properties": {
                "name": "Ft. Bayou boat launch",
                "styleUrl": "#m_ylw-pushpin",
                "icon-scale": 1.1,
                "icon-offset": [
                    20,
                    2
                ],
                "icon-offset-units": [
                    "pixels",
                    "pixels"
                ],
                "icon": "http://maps.google.com/mapfiles/kml/pushpin/ylw-pushpin.png",
                "@id": "9635e2be-8785-11f1-8673-1b92640e7de6"
            },
            "bbox": [
                -88.827939,
                30.420506,
                -88.827939,
                30.420506
            ]
        },
        {
            "type": "Feature",
            "geometry": {
                "type": "Point",
                "coordinates": [
                    -89.149614,
                    30.489272,
                    0
                ]
            },
            "properties": {
                "name": "22 Triton to Cardinal Ln @ 7:47 PM",
                "styleUrl": "#m_ylw-pushpin",
                "icon-scale": 1.1,
                "icon-offset": [
                    20,
                    2
                ],
                "icon-offset-units": [
                    "pixels",
                    "pixels"
                ],
                "icon": "http://maps.google.com/mapfiles/kml/pushpin/ylw-pushpin.png",
                "@id": "9635e2bf-8785-11f1-8673-1b92640e7de6"
            },
            "bbox": [
                -89.149614,
                30.489272,
                -89.149614,
                30.489272
            ]
        },
        {
            "type": "Feature",
            "geometry": {
                "type": "Point",
                "coordinates": [
                    -88.848361,
                    30.426164,
                    0
                ]
            },
            "properties": {
                "name": "East to Ft. Bayou @ 5:52 PM",
                "styleUrl": "#m_ylw-pushpin",
                "icon-scale": 1.1,
                "icon-offset": [
                    20,
                    2
                ],
                "icon-offset-units": [
                    "pixels",
                    "pixels"
                ],
                "icon": "http://maps.google.com/mapfiles/kml/pushpin/ylw-pushpin.png",
                "@id": "9635e2c0-8785-11f1-8673-1b92640e7de6"
            },
            "bbox": [
                -88.848361,
                30.426164,
                -88.848361,
                30.426164
            ]
        },
        {
            "type": "Feature",
            "geometry": {
                "type": "Point",
                "coordinates": [
                    -88.828258,
                    30.419411,
                    0
                ]
            },
            "properties": {
                "name": "22 Triton underway @ 6:34 PM",
                "styleUrl": "#m_ylw-pushpin",
                "icon-scale": 1.1,
                "icon-offset": [
                    20,
                    2
                ],
                "icon-offset-units": [
                    "pixels",
                    "pixels"
                ],
                "icon": "http://maps.google.com/mapfiles/kml/pushpin/ylw-pushpin.png",
                "@id": "9635e2c1-8785-11f1-8673-1b92640e7de6"
            },
            "bbox": [
                -88.828258,
                30.419411,
                -88.828258,
                30.419411
            ]
        },
        {
            "type": "Feature",
            "geometry": {
                "type": "Point",
                "coordinates": [
                    -88.845928,
                    30.433858,
                    0
                ]
            },
            "properties": {
                "name": "24 Tide Lane return @ 5:44 PM",
                "styleUrl": "#m_ylw-pushpin",
                "icon-scale": 1.1,
                "icon-offset": [
                    20,
                    2
                ],
                "icon-offset-units": [
                    "pixels",
                    "pixels"
                ],
                "icon": "http://maps.google.com/mapfiles/kml/pushpin/ylw-pushpin.png",
                "@id": "9635e2c2-8785-11f1-8673-1b92640e7de6"
            },
            "bbox": [
                -88.845928,
                30.433858,
                -88.845928,
                30.433858
            ]
        },
        {
            "type": "Feature",
            "properties": {
                "stroke-width": 1,
                "stroke-opacity": 1,
                "stroke": "rgba(255, 251, 0, 1)",
                "name": "24 Tide Lan return @ 5:44 AM",
                "icon": "24 Tide Lane depart @ 9:56 AM",
                "@id": "940ca4a0-8786-11f1-8673-1b92640e7de6"
            },
            "geometry": {
                "type": "LineString",
                "coordinates": [
                    [
                        -88.845947,
                        30.433925
                    ],
                    [
                        -88.848765,
                        30.433062
                    ],
                    [
                        -88.850081,
                        30.431795
                    ],
                    [
                        -88.855009,
                        30.424222
                    ],
                    [
                        -88.814719,
                        30.362865
                    ],
                    [
                        -88.779744,
                        30.243331
                    ]
                ]
            },
            "bbox": [
                -88.855009,
                30.243331,
                -88.779744,
                30.433925
            ]
        },
        {
            "type": "Feature",
            "properties": {
                "stroke-width": 1,
                "stroke-opacity": 1,
                "stroke": "rgba(200, 0, 255, 1)",
                "name": "22 Triton in distress @ 4:31 PM",
                "@id": "99832700-8787-11f1-8673-1b92640e7de6"
            },
            "geometry": {
                "type": "LineString",
                "coordinates": [
                    [
                        -88.778603,
                        30.243564
                    ],
                    [
                        -88.790443,
                        30.288446
                    ]
                ]
            },
            "bbox": [
                -88.790443,
                30.243564,
                -88.778603,
                30.288446
            ]
        },
        {
            "type": "Feature",
            "properties": {
                "stroke-width": 1,
                "stroke-opacity": 1,
                "name": "22 Triton east to Ft. Bayou @ 5:52 PM",
                "@id": "08103d20-8788-11f1-8673-1b92640e7de6"
            },
            "geometry": {
                "type": "LineString",
                "coordinates": [
                    [
                        -88.790443,
                        30.288446
                    ],
                    [
                        -88.813739,
                        30.363289
                    ],
                    [
                        -88.854551,
                        30.424243
                    ],
                    [
                        -88.853348,
                        30.425855
                    ],
                    [
                        -88.848361,
                        30.426164
                    ]
                ]
            },
            "bbox": [
                -88.854551,
                30.288446,
                -88.790443,
                30.426164
            ]
        },
        {
            "type": "Feature",
            "properties": {
                "stroke-width": 1,
                "stroke-opacity": 1,
                "name": "22 Triton to underway",
                "@id": "7350e760-8788-11f1-8673-1b92640e7de6"
            },
            "geometry": {
                "type": "LineString",
                "coordinates": [
                    [
                        -88.848361,
                        30.426164
                    ],
                    [
                        -88.843004,
                        30.422024
                    ],
                    [
                        -88.833157,
                        30.419225
                    ],
                    [
                        -88.828258,
                        30.419411
                    ]
                ]
            },
            "bbox": [
                -88.848361,
                30.419225,
                -88.828258,
                30.426164
            ]
        },
        {
            "type": "Feature",
            "properties": {
                "stroke-width": 1,
                "stroke-opacity": 1,
                "stroke": "rgba(72, 255, 0, 1)",
                "name": "18 Palm Beach",
                "@id": "c5cd8ac0-8788-11f1-8673-1b92640e7de6"
            },
            "geometry": {
                "type": "LineString",
                "coordinates": [
                    [
                        -88.559011,
                        30.347295
                    ],
                    [
                        -88.565314,
                        30.343999
                    ],
                    [
                        -88.585714,
                        30.339897
                    ],
                    [
                        -88.777569,
                        30.243681
                    ]
                ]
            },
            "bbox": [
                -88.777569,
                30.243681,
                -88.559011,
                30.347295
            ]
        },
        {
            "type": "Feature",
            "properties": {
                "stroke-width": 1,
                "stroke-opacity": 1,
                "stroke": "rgba(187, 0, 255, 1)",
                "name": "12 Triton underway @ 6:32 PM",
                "@id": "458c7be0-8789-11f1-8673-1b92640e7de6"
            },
            "geometry": {
                "type": "LineString",
                "coordinates": [
                    [
                        -88.828258,
                        30.419411
                    ],
                    [
                        -88.827825,
                        30.419464
                    ]
                ]
            },
            "bbox": [
                -88.828258,
                30.419411,
                -88.827825,
                30.419464
            ]
        },
        {
            "type": "Feature",
            "properties": {
                "stroke-width": 1,
                "stroke-opacity": 1,
                "stroke": "rgba(0, 221, 255, 1)",
                "name": "Tow to Biloxi @ 7:19 PM",
                "@id": "c22cc080-878c-11f1-8673-1b92640e7de6"
            },
            "geometry": {
                "type": "LineString",
                "coordinates": [
                    [
                        -88.827825,
                        30.419464
                    ],
                    [
                        -88.827939,
                        30.420506
                    ],
                    [
                        -88.828208,
                        30.421114
                    ],
                    [
                        -88.828257,
                        30.421274
                    ],
                    [
                        -88.828304,
                        30.421491
                    ],
                    [
                        -88.828514,
                        30.422108
                    ],
                    [
                        -88.828606,
                        30.422407
                    ],
                    [
                        -88.828652,
                        30.422576
                    ],
                    [
                        -88.828654,
                        30.422778
                    ],
                    [
                        -88.828642,
                        30.422975
                    ],
                    [
                        -88.828584,
                        30.423458
                    ],
                    [
                        -88.828572,
                        30.423524
                    ],
                    [
                        -88.828576,
                        30.423592
                    ],
                    [
                        -88.828591,
                        30.423644
                    ],
                    [
                        -88.828618,
                        30.423672
                    ],
                    [
                        -88.828654,
                        30.423698
                    ],
                    [
                        -88.828731,
                        30.42372
                    ],
                    [
                        -88.828859,
                        30.42373
                    ],
                    [
                        -88.828979,
                        30.423749
                    ],
                    [
                        -88.829191,
                        30.426356
                    ],
                    [
                        -88.829243,
                        30.427067
                    ],
                    [
                        -88.829231,
                        30.427778
                    ],
                    [
                        -88.829188,
                        30.429116
                    ],
                    [
                        -88.829723,
                        30.432116
                    ],
                    [
                        -88.829953,
                        30.433268
                    ],
                    [
                        -88.830163,
                        30.434407
                    ],
                    [
                        -88.83022,
                        30.434731
                    ],
                    [
                        -88.83029,
                        30.435012
                    ],
                    [
                        -88.830377,
                        30.435239
                    ],
                    [
                        -88.830474,
                        30.435451
                    ],
                    [
                        -88.830661,
                        30.435751
                    ],
                    [
                        -88.830818,
                        30.435994
                    ],
                    [
                        -88.831267,
                        30.436436
                    ],
                    [
                        -88.832433,
                        30.437473
                    ],
                    [
                        -88.834499,
                        30.439307
                    ],
                    [
                        -88.835583,
                        30.440274
                    ],
                    [
                        -88.836638,
                        30.44123
                    ],
                    [
                        -88.837849,
                        30.442326
                    ],
                    [
                        -88.838251,
                        30.442683
                    ],
                    [
                        -88.838552,
                        30.443007
                    ],
                    [
                        -88.838748,
                        30.443252
                    ],
                    [
                        -88.838906,
                        30.443502
                    ],
                    [
                        -88.839064,
                        30.443823
                    ],
                    [
                        -88.839189,
                        30.444127
                    ],
                    [
                        -88.839476,
                        30.444906
                    ],
                    [
                        -88.839756,
                        30.445683
                    ],
                    [
                        -88.840823,
                        30.448623
                    ],
                    [
                        -88.841916,
                        30.451618
                    ],
                    [
                        -88.842063,
                        30.452125
                    ],
                    [
                        -88.842208,
                        30.452525
                    ],
                    [
                        -88.842467,
                        30.45317
                    ],
                    [
                        -88.84267,
                        30.453807
                    ],
                    [
                        -88.842842,
                        30.454393
                    ],
                    [
                        -88.869104,
                        30.454205
                    ],
                    [
                        -88.882505,
                        30.454113
                    ],
                    [
                        -88.885772,
                        30.454075
                    ],
                    [
                        -88.887312,
                        30.454059
                    ],
                    [
                        -88.888129,
                        30.454066
                    ],
                    [
                        -88.888943,
                        30.454058
                    ],
                    [
                        -88.890706,
                        30.454037
                    ],
                    [
                        -88.891564,
                        30.454019
                    ],
                    [
                        -88.892539,
                        30.453958
                    ],
                    [
                        -88.89343,
                        30.453886
                    ],
                    [
                        -88.894315,
                        30.453777
                    ],
                    [
                        -88.895193,
                        30.453633
                    ],
                    [
                        -88.896036,
                        30.453461
                    ],
                    [
                        -88.897033,
                        30.453222
                    ],
                    [
                        -88.898017,
                        30.452934
                    ],
                    [
                        -88.899976,
                        30.452276
                    ],
                    [
                        -88.903832,
                        30.450958
                    ],
                    [
                        -88.906239,
                        30.450131
                    ],
                    [
                        -88.908661,
                        30.449321
                    ],
                    [
                        -88.909509,
                        30.449064
                    ],
                    [
                        -88.910362,
                        30.44883
                    ],
                    [
                        -88.911251,
                        30.448604
                    ],
                    [
                        -88.912138,
                        30.448405
                    ],
                    [
                        -88.912996,
                        30.448229
                    ],
                    [
                        -88.913763,
                        30.448089
                    ],
                    [
                        -88.914766,
                        30.447938
                    ],
                    [
                        -88.915213,
                        30.447865
                    ],
                    [
                        -88.915702,
                        30.447801
                    ],
                    [
                        -88.916567,
                        30.447694
                    ],
                    [
                        -88.917455,
                        30.447616
                    ],
                    [
                        -88.918357,
                        30.447548
                    ],
                    [
                        -88.919252,
                        30.447496
                    ],
                    [
                        -88.920129,
                        30.447468
                    ],
                    [
                        -88.921027,
                        30.447467
                    ],
                    [
                        -88.921887,
                        30.447475
                    ],
                    [
                        -88.922742,
                        30.447505
                    ],
                    [
                        -88.924234,
                        30.447586
                    ],
                    [
                        -88.925758,
                        30.447733
                    ],
                    [
                        -88.927188,
                        30.447925
                    ],
                    [
                        -88.928535,
                        30.448152
                    ],
                    [
                        -88.929279,
                        30.44829
                    ],
                    [
                        -88.929988,
                        30.448442
                    ],
                    [
                        -88.931435,
                        30.44879
                    ],
                    [
                        -88.932201,
                        30.449
                    ],
                    [
                        -88.932902,
                        30.449207
                    ],
                    [
                        -88.93427,
                        30.449642
                    ],
                    [
                        -88.935154,
                        30.449961
                    ],
                    [
                        -88.936047,
                        30.450294
                    ],
                    [
                        -88.93691,
                        30.450648
                    ],
                    [
                        -88.937745,
                        30.451018
                    ],
                    [
                        -88.938542,
                        30.451391
                    ],
                    [
                        -88.939249,
                        30.451745
                    ],
                    [
                        -88.939952,
                        30.4521
                    ],
                    [
                        -88.940637,
                        30.452468
                    ],
                    [
                        -88.950679,
                        30.458098
                    ],
                    [
                        -88.951362,
                        30.458473
                    ],
                    [
                        -88.95205,
                        30.458825
                    ],
                    [
                        -88.952786,
                        30.459151
                    ],
                    [
                        -88.953508,
                        30.459432
                    ],
                    [
                        -88.954546,
                        30.459806
                    ],
                    [
                        -88.955644,
                        30.46011
                    ],
                    [
                        -88.956401,
                        30.460296
                    ],
                    [
                        -88.957205,
                        30.460454
                    ],
                    [
                        -88.958047,
                        30.460587
                    ],
                    [
                        -88.958879,
                        30.460682
                    ],
                    [
                        -88.959725,
                        30.460741
                    ],
                    [
                        -88.960552,
                        30.460762
                    ],
                    [
                        -88.962294,
                        30.460761
                    ],
                    [
                        -88.964385,
                        30.460759
                    ],
                    [
                        -88.966495,
                        30.460767
                    ],
                    [
                        -88.970691,
                        30.460767
                    ],
                    [
                        -88.973558,
                        30.460759
                    ],
                    [
                        -88.974869,
                        30.460763
                    ],
                    [
                        -88.975565,
                        30.460718
                    ],
                    [
                        -88.976258,
                        30.460648
                    ],
                    [
                        -88.977485,
                        30.460479
                    ],
                    [
                        -88.978687,
                        30.460238
                    ],
                    [
                        -88.979879,
                        30.459933
                    ],
                    [
                        -88.981052,
                        30.459544
                    ],
                    [
                        -88.982367,
                        30.459017
                    ],
                    [
                        -88.983531,
                        30.458439
                    ],
                    [
                        -88.984048,
                        30.458156
                    ],
                    [
                        -88.984563,
                        30.457849
                    ],
                    [
                        -88.985073,
                        30.457528
                    ],
                    [
                        -88.985576,
                        30.457187
                    ],
                    [
                        -88.987617,
                        30.455768
                    ],
                    [
                        -88.989704,
                        30.454333
                    ],
                    [
                        -88.991258,
                        30.45326
                    ],
                    [
                        -88.992052,
                        30.452739
                    ],
                    [
                        -88.992823,
                        30.45228
                    ],
                    [
                        -88.993455,
                        30.451942
                    ],
                    [
                        -88.99411,
                        30.451643
                    ],
                    [
                        -88.994894,
                        30.451298
                    ],
                    [
                        -88.995686,
                        30.450989
                    ],
                    [
                        -88.99627,
                        30.450797
                    ],
                    [
                        -88.996871,
                        30.450619
                    ],
                    [
                        -88.997425,
                        30.450459
                    ],
                    [
                        -88.998013,
                        30.450325
                    ],
                    [
                        -88.998542,
                        30.450208
                    ],
                    [
                        -88.999062,
                        30.450112
                    ],
                    [
                        -89.000222,
                        30.449935
                    ],
                    [
                        -89.004557,
                        30.449249
                    ],
                    [
                        -89.013513,
                        30.447934
                    ],
                    [
                        -89.015719,
                        30.447599
                    ],
                    [
                        -89.017907,
                        30.447217
                    ],
                    [
                        -89.020074,
                        30.446795
                    ],
                    [
                        -89.022229,
                        30.446304
                    ],
                    [
                        -89.026948,
                        30.44525
                    ],
                    [
                        -89.0289,
                        30.444856
                    ],
                    [
                        -89.030871,
                        30.44451
                    ],
                    [
                        -89.03314,
                        30.444174
                    ],
                    [
                        -89.035459,
                        30.443829
                    ],
                    [
                        -89.039573,
                        30.443212
                    ],
                    [
                        -89.048317,
                        30.441906
                    ],
                    [
                        -89.065801,
                        30.439296
                    ],
                    [
                        -89.067791,
                        30.438994
                    ],
                    [
                        -89.069779,
                        30.438702
                    ],
                    [
                        -89.071737,
                        30.438402
                    ],
                    [
                        -89.072654,
                        30.438253
                    ],
                    [
                        -89.07357,
                        30.438083
                    ],
                    [
                        -89.074826,
                        30.43782
                    ],
                    [
                        -89.07608,
                        30.437503
                    ],
                    [
                        -89.078682,
                        30.436817
                    ],
                    [
                        -89.083762,
                        30.435464
                    ],
                    [
                        -89.093919,
                        30.432769
                    ],
                    [
                        -89.097289,
                        30.431865
                    ],
                    [
                        -89.10039,
                        30.431048
                    ],
                    [
                        -89.106531,
                        30.429464
                    ],
                    [
                        -89.118644,
                        30.426419
                    ],
                    [
                        -89.120899,
                        30.425849
                    ],
                    [
                        -89.123183,
                        30.425299
                    ],
                    [
                        -89.125047,
                        30.42494
                    ],
                    [
                        -89.126958,
                        30.424658
                    ],
                    [
                        -89.128154,
                        30.42453
                    ],
                    [
                        -89.129363,
                        30.424432
                    ],
                    [
                        -89.130598,
                        30.424376
                    ],
                    [
                        -89.131818,
                        30.424354
                    ],
                    [
                        -89.134275,
                        30.42437
                    ],
                    [
                        -89.136732,
                        30.424403
                    ],
                    [
                        -89.136734,
                        30.425545
                    ],
                    [
                        -89.136735,
                        30.426434
                    ],
                    [
                        -89.136734,
                        30.426896
                    ],
                    [
                        -89.136717,
                        30.427337
                    ],
                    [
                        -89.136742,
                        30.427823
                    ],
                    [
                        -89.136746,
                        30.428309
                    ],
                    [
                        -89.136776,
                        30.43176
                    ],
                    [
                        -89.136802,
                        30.438416
                    ],
                    [
                        -89.136807,
                        30.439711
                    ],
                    [
                        -89.136818,
                        30.441007
                    ],
                    [
                        -89.136845,
                        30.443596
                    ],
                    [
                        -89.136916,
                        30.446192
                    ],
                    [
                        -89.136935,
                        30.447495
                    ],
                    [
                        -89.136922,
                        30.44878
                    ],
                    [
                        -89.136913,
                        30.451893
                    ],
                    [
                        -89.136918,
                        30.455003
                    ],
                    [
                        -89.136942,
                        30.456503
                    ],
                    [
                        -89.136929,
                        30.457923
                    ],
                    [
                        -89.136933,
                        30.460905
                    ],
                    [
                        -89.13694,
                        30.462407
                    ],
                    [
                        -89.136959,
                        30.463909
                    ],
                    [
                        -89.136971,
                        30.466967
                    ],
                    [
                        -89.136973,
                        30.470176
                    ],
                    [
                        -89.136979,
                        30.471617
                    ],
                    [
                        -89.136956,
                        30.472338
                    ],
                    [
                        -89.136923,
                        30.473024
                    ],
                    [
                        -89.137181,
                        30.473035
                    ],
                    [
                        -89.137427,
                        30.473075
                    ],
                    [
                        -89.138257,
                        30.473171
                    ],
                    [
                        -89.139124,
                        30.473283
                    ],
                    [
                        -89.139973,
                        30.473373
                    ],
                    [
                        -89.140534,
                        30.473441
                    ],
                    [
                        -89.140806,
                        30.473477
                    ],
                    [
                        -89.141049,
                        30.473524
                    ],
                    [
                        -89.141321,
                        30.473591
                    ],
                    [
                        -89.141575,
                        30.473674
                    ],
                    [
                        -89.142032,
                        30.473871
                    ],
                    [
                        -89.142293,
                        30.474018
                    ],
                    [
                        -89.142485,
                        30.474194
                    ],
                    [
                        -89.142618,
                        30.474427
                    ],
                    [
                        -89.142719,
                        30.474657
                    ],
                    [
                        -89.143186,
                        30.475941
                    ],
                    [
                        -89.143486,
                        30.476759
                    ],
                    [
                        -89.14379,
                        30.477574
                    ],
                    [
                        -89.144113,
                        30.478405
                    ],
                    [
                        -89.144414,
                        30.479212
                    ],
                    [
                        -89.144531,
                        30.47951
                    ],
                    [
                        -89.144652,
                        30.479828
                    ],
                    [
                        -89.144874,
                        30.480443
                    ],
                    [
                        -89.145129,
                        30.481076
                    ],
                    [
                        -89.145228,
                        30.481331
                    ],
                    [
                        -89.14531,
                        30.481488
                    ],
                    [
                        -89.14537,
                        30.481629
                    ],
                    [
                        -89.145616,
                        30.482003
                    ],
                    [
                        -89.145904,
                        30.482367
                    ],
                    [
                        -89.146364,
                        30.482925
                    ],
                    [
                        -89.146778,
                        30.483464
                    ],
                    [
                        -89.147803,
                        30.485478
                    ],
                    [
                        -89.148043,
                        30.485953
                    ],
                    [
                        -89.148313,
                        30.486482
                    ],
                    [
                        -89.148851,
                        30.487574
                    ],
                    [
                        -89.149361,
                        30.488646
                    ],
                    [
                        -89.149517,
                        30.489007
                    ],
                    [
                        -89.149614,
                        30.489272
                    ]
                ]
            },
            "bbox": [
                -89.149614,
                30.419464,
                -88.827825,
                30.489272
            ]
        }
    ]
}