{
    "type": "FeatureCollection",
    "features": [
        {
            "type": "Feature",
            "geometry": {
                "type": "Point",
                "coordinates": [
                    -88.764183,
                    30.360767,
                    0
                ]
            },
            "properties": {
                "name": "lakemarsPier",
                "styleUrl": "#m_ylw-pushpin0",
                "icon-scale": 1.1,
                "icon-offset": [
                    20,
                    2
                ],
                "icon-offset-units": [
                    "pixels",
                    "pixels"
                ],
                "icon": "http://maps.google.com/mapfiles/kml/pushpin/ylw-pushpin.png",
                "@id": "ca918800-8ec6-11f1-8632-17199d690492"
            },
            "bbox": [
                -88.764183,
                30.360767,
                -88.764183,
                30.360767
            ]
        },
        {
            "type": "Feature",
            "geometry": {
                "type": "Point",
                "coordinates": [
                    -88.529708,
                    30.379697,
                    0
                ]
            },
            "properties": {
                "name": "coroner",
                "styleUrl": "#m_ylw-pushpin",
                "icon-scale": 1.1,
                "icon-offset": [
                    20,
                    2
                ],
                "icon-offset-units": [
                    "pixels",
                    "pixels"
                ],
                "icon": "http://maps.google.com/mapfiles/kml/pushpin/ylw-pushpin.png",
                "@id": "ca918801-8ec6-11f1-8632-17199d690492"
            },
            "bbox": [
                -88.529708,
                30.379697,
                -88.529708,
                30.379697
            ]
        },
        {
            "type": "Feature",
            "geometry": {
                "type": "Point",
                "coordinates": [
                    -88.716672,
                    30.429278,
                    0
                ]
            },
            "properties": {
                "name": "church",
                "styleUrl": "#m_ylw-pushpin0",
                "icon-scale": 1.1,
                "icon-offset": [
                    20,
                    2
                ],
                "icon-offset-units": [
                    "pixels",
                    "pixels"
                ],
                "icon": "http://maps.google.com/mapfiles/kml/pushpin/ylw-pushpin.png",
                "@id": "ca918802-8ec6-11f1-8632-17199d690492"
            },
            "bbox": [
                -88.716672,
                30.429278,
                -88.716672,
                30.429278
            ]
        },
        {
            "type": "Feature",
            "geometry": {
                "type": "Point",
                "coordinates": [
                    -88.531639,
                    30.380206,
                    0
                ]
            },
            "properties": {
                "name": "fairgrounds",
                "styleUrl": "#m_ylw-pushpin0",
                "icon-scale": 1.1,
                "icon-offset": [
                    20,
                    2
                ],
                "icon-offset-units": [
                    "pixels",
                    "pixels"
                ],
                "icon": "http://maps.google.com/mapfiles/kml/pushpin/ylw-pushpin.png",
                "@id": "ca918803-8ec6-11f1-8632-17199d690492"
            },
            "bbox": [
                -88.531639,
                30.380206,
                -88.531639,
                30.380206
            ]
        },
        {
            "type": "Feature",
            "geometry": {
                "type": "Point",
                "coordinates": [
                    -88.827825,
                    30.419464,
                    0
                ]
            },
            "properties": {
                "name": "fortbayouLaunch",
                "styleUrl": "#m_ylw-pushpin0",
                "icon-scale": 1.1,
                "icon-offset": [
                    20,
                    2
                ],
                "icon-offset-units": [
                    "pixels",
                    "pixels"
                ],
                "icon": "http://maps.google.com/mapfiles/kml/pushpin/ylw-pushpin.png",
                "@id": "ca918804-8ec6-11f1-8632-17199d690492"
            },
            "bbox": [
                -88.827825,
                30.419464,
                -88.827825,
                30.419464
            ]
        },
        {
            "type": "Feature",
            "geometry": {
                "type": "Point",
                "coordinates": [
                    -87.620675,
                    41.850669,
                    0
                ]
            },
            "properties": {
                "name": "naacpChicago",
                "styleUrl": "#m_ylw-pushpin0",
                "icon-scale": 1.1,
                "icon-offset": [
                    20,
                    2
                ],
                "icon-offset-units": [
                    "pixels",
                    "pixels"
                ],
                "icon": "http://maps.google.com/mapfiles/kml/pushpin/ylw-pushpin.png",
                "@id": "ca918805-8ec6-11f1-8632-17199d690492"
            },
            "bbox": [
                -87.620675,
                41.850669,
                -87.620675,
                41.850669
            ]
        },
        {
            "type": "Feature",
            "geometry": {
                "type": "Point",
                "coordinates": [
                    -77.018392,
                    38.883664,
                    0
                ]
            },
            "properties": {
                "name": "medicalexaminerwashingtoDC",
                "styleUrl": "#m_ylw-pushpin0",
                "icon-scale": 1.1,
                "icon-offset": [
                    20,
                    2
                ],
                "icon-offset-units": [
                    "pixels",
                    "pixels"
                ],
                "icon": "http://maps.google.com/mapfiles/kml/pushpin/ylw-pushpin.png",
                "@id": "ca918806-8ec6-11f1-8632-17199d690492"
            },
            "bbox": [
                -77.018392,
                38.883664,
                -77.018392,
                38.883664
            ]
        },
        {
            "type": "Feature",
            "geometry": {
                "type": "Point",
                "coordinates": [
                    -88.5589,
                    30.3656,
                    0
                ]
            },
            "properties": {
                "name": "districtAttorney",
                "styleUrl": "#m_ylw-pushpin0",
                "icon-scale": 1.1,
                "icon-offset": [
                    20,
                    2
                ],
                "icon-offset-units": [
                    "pixels",
                    "pixels"
                ],
                "icon": "http://maps.google.com/mapfiles/kml/pushpin/ylw-pushpin.png",
                "@id": "ca918807-8ec6-11f1-8632-17199d690492"
            },
            "bbox": [
                -88.5589,
                30.3656,
                -88.5589,
                30.3656
            ]
        },
        {
            "type": "Feature",
            "geometry": {
                "type": "Point",
                "coordinates": [
                    -88.558317,
                    30.36545,
                    0
                ]
            },
            "properties": {
                "name": "jcsd",
                "styleUrl": "#m_ylw-pushpin0",
                "icon-scale": 1.1,
                "icon-offset": [
                    20,
                    2
                ],
                "icon-offset-units": [
                    "pixels",
                    "pixels"
                ],
                "icon": "http://maps.google.com/mapfiles/kml/pushpin/ylw-pushpin.png",
                "@id": "ca918808-8ec6-11f1-8632-17199d690492"
            },
            "bbox": [
                -88.558317,
                30.36545,
                -88.558317,
                30.36545
            ]
        },
        {
            "type": "Feature",
            "geometry": {
                "type": "Point",
                "coordinates": [
                    -88.765086,
                    30.409167,
                    0
                ]
            },
            "properties": {
                "name": "ospd",
                "styleUrl": "#m_ylw-pushpin0",
                "icon-scale": 1.1,
                "icon-offset": [
                    20,
                    2
                ],
                "icon-offset-units": [
                    "pixels",
                    "pixels"
                ],
                "icon": "http://maps.google.com/mapfiles/kml/pushpin/ylw-pushpin.png",
                "@id": "ca918809-8ec6-11f1-8632-17199d690492"
            },
            "bbox": [
                -88.765086,
                30.409167,
                -88.765086,
                30.409167
            ]
        },
        {
            "type": "Feature",
            "geometry": {
                "type": "Point",
                "coordinates": [
                    -88.936117,
                    30.433178,
                    0
                ]
            },
            "properties": {
                "name": "dmr",
                "styleUrl": "#m_ylw-pushpin0",
                "icon-scale": 1.1,
                "icon-offset": [
                    20,
                    2
                ],
                "icon-offset-units": [
                    "pixels",
                    "pixels"
                ],
                "icon": "http://maps.google.com/mapfiles/kml/pushpin/ylw-pushpin.png",
                "@id": "ca91880a-8ec6-11f1-8632-17199d690492"
            },
            "bbox": [
                -88.936117,
                30.433178,
                -88.936117,
                30.433178
            ]
        },
        {
            "type": "Feature",
            "geometry": {
                "type": "Point",
                "coordinates": [
                    -88.759083,
                    30.409531,
                    0
                ]
            },
            "properties": {
                "name": "mcDonalds",
                "styleUrl": "#m_ylw-pushpin0",
                "icon-scale": 1.1,
                "icon-offset": [
                    20,
                    2
                ],
                "icon-offset-units": [
                    "pixels",
                    "pixels"
                ],
                "icon": "http://maps.google.com/mapfiles/kml/pushpin/ylw-pushpin.png",
                "@id": "ca91880b-8ec6-11f1-8632-17199d690492"
            },
            "bbox": [
                -88.759083,
                30.409531,
                -88.759083,
                30.409531
            ]
        },
        {
            "type": "Feature",
            "geometry": {
                "type": "Point",
                "coordinates": [
                    -88.870861,
                    30.42765,
                    0
                ]
            },
            "properties": {
                "name": "saintmartinBayou",
                "styleUrl": "#m_ylw-pushpin0",
                "icon-scale": 1.1,
                "icon-offset": [
                    20,
                    2
                ],
                "icon-offset-units": [
                    "pixels",
                    "pixels"
                ],
                "icon": "http://maps.google.com/mapfiles/kml/pushpin/ylw-pushpin.png",
                "@id": "ca91880c-8ec6-11f1-8632-17199d690492"
            },
            "bbox": [
                -88.870861,
                30.42765,
                -88.870861,
                30.42765
            ]
        },
        {
            "type": "Feature",
            "geometry": {
                "type": "Point",
                "coordinates": [
                    -88.886153,
                    30.392019,
                    0
                ]
            },
            "properties": {
                "name": "biloxismallcraftHarbour",
                "styleUrl": "#m_ylw-pushpin0",
                "icon-scale": 1.1,
                "icon-offset": [
                    20,
                    2
                ],
                "icon-offset-units": [
                    "pixels",
                    "pixels"
                ],
                "icon": "http://maps.google.com/mapfiles/kml/pushpin/ylw-pushpin.png",
                "@id": "ca91880d-8ec6-11f1-8632-17199d690492"
            },
            "bbox": [
                -88.886153,
                30.392019,
                -88.886153,
                30.392019
            ]
        },
        {
            "type": "Feature",
            "geometry": {
                "type": "Point",
                "coordinates": [
                    -88.812797,
                    30.424206,
                    0
                ]
            },
            "properties": {
                "name": "edminstonLaunch",
                "styleUrl": "#m_ylw-pushpin0",
                "icon-scale": 1.1,
                "icon-offset": [
                    20,
                    2
                ],
                "icon-offset-units": [
                    "pixels",
                    "pixels"
                ],
                "icon": "http://maps.google.com/mapfiles/kml/pushpin/ylw-pushpin.png",
                "@id": "ca91880e-8ec6-11f1-8632-17199d690492"
            },
            "bbox": [
                -88.812797,
                30.424206,
                -88.812797,
                30.424206
            ]
        },
        {
            "type": "Feature",
            "geometry": {
                "type": "Point",
                "coordinates": [
                    -88.626503,
                    30.405522,
                    0
                ]
            },
            "properties": {
                "name": "siouxbayouLaunch",
                "styleUrl": "#m_ylw-pushpin0",
                "icon-scale": 1.1,
                "icon-offset": [
                    20,
                    2
                ],
                "icon-offset-units": [
                    "pixels",
                    "pixels"
                ],
                "icon": "http://maps.google.com/mapfiles/kml/pushpin/ylw-pushpin.png",
                "@id": "ca91880f-8ec6-11f1-8632-17199d690492"
            },
            "bbox": [
                -88.626503,
                30.405522,
                -88.626503,
                30.405522
            ]
        },
        {
            "type": "Feature",
            "geometry": {
                "type": "Point",
                "coordinates": [
                    -88.777154,
                    30.243766,
                    0
                ]
            },
            "properties": {
                "name": "tritonGPS",
                "styleUrl": "#m_ylw-pushpin0",
                "icon-scale": 1.1,
                "icon-offset": [
                    20,
                    2
                ],
                "icon-offset-units": [
                    "pixels",
                    "pixels"
                ],
                "icon": "http://maps.google.com/mapfiles/kml/pushpin/ylw-pushpin.png",
                "@id": "ca918810-8ec6-11f1-8632-17199d690492"
            },
            "bbox": [
                -88.777154,
                30.243766,
                -88.777154,
                30.243766
            ]
        },
        {
            "type": "Feature",
            "geometry": {
                "type": "Point",
                "coordinates": [
                    -88.648353,
                    30.233197,
                    0
                ]
            },
            "properties": {
                "name": "chimneyStacks",
                "styleUrl": "#m_ylw-pushpin0",
                "icon-scale": 1.1,
                "icon-offset": [
                    20,
                    2
                ],
                "icon-offset-units": [
                    "pixels",
                    "pixels"
                ],
                "icon": "http://maps.google.com/mapfiles/kml/pushpin/ylw-pushpin.png",
                "@id": "ca918811-8ec6-11f1-8632-17199d690492"
            },
            "bbox": [
                -88.648353,
                30.233197,
                -88.648353,
                30.233197
            ]
        },
        {
            "type": "Feature",
            "geometry": {
                "type": "Point",
                "coordinates": [
                    -88.530925,
                    30.352083,
                    0
                ]
            },
            "properties": {
                "name": "knockandtalkartimeseAve",
                "styleUrl": "#m_ylw-pushpin0",
                "icon-scale": 1.1,
                "icon-offset": [
                    20,
                    2
                ],
                "icon-offset-units": [
                    "pixels",
                    "pixels"
                ],
                "icon": "http://maps.google.com/mapfiles/kml/pushpin/ylw-pushpin.png",
                "@id": "ca918812-8ec6-11f1-8632-17199d690492"
            },
            "bbox": [
                -88.530925,
                30.352083,
                -88.530925,
                30.352083
            ]
        },
        {
            "type": "Feature",
            "geometry": {
                "type": "Point",
                "coordinates": [
                    -88.812781,
                    30.422764,
                    0
                ]
            },
            "properties": {
                "name": "bartHome",
                "styleUrl": "#m_ylw-pushpin0",
                "icon-scale": 1.1,
                "icon-offset": [
                    20,
                    2
                ],
                "icon-offset-units": [
                    "pixels",
                    "pixels"
                ],
                "icon": "http://maps.google.com/mapfiles/kml/pushpin/ylw-pushpin.png",
                "@id": "ca918813-8ec6-11f1-8632-17199d690492"
            },
            "bbox": [
                -88.812781,
                30.422764,
                -88.812781,
                30.422764
            ]
        },
        {
            "type": "Feature",
            "geometry": {
                "type": "Point",
                "coordinates": [
                    -88.836647,
                    30.41675,
                    0
                ]
            },
            "properties": {
                "name": "jaxHome",
                "styleUrl": "#m_ylw-pushpin0",
                "icon-scale": 1.1,
                "icon-offset": [
                    20,
                    2
                ],
                "icon-offset-units": [
                    "pixels",
                    "pixels"
                ],
                "icon": "http://maps.google.com/mapfiles/kml/pushpin/ylw-pushpin.png",
                "@id": "ca918814-8ec6-11f1-8632-17199d690492"
            },
            "bbox": [
                -88.836647,
                30.41675,
                -88.836647,
                30.41675
            ]
        },
        {
            "type": "Feature",
            "geometry": {
                "type": "Point",
                "coordinates": [
                    -88.846844,
                    30.434558,
                    0
                ]
            },
            "properties": {
                "name": "elcaminoLaunch",
                "styleUrl": "#m_ylw-pushpin0",
                "icon-scale": 1.1,
                "icon-offset": [
                    20,
                    2
                ],
                "icon-offset-units": [
                    "pixels",
                    "pixels"
                ],
                "icon": "http://maps.google.com/mapfiles/kml/pushpin/ylw-pushpin.png",
                "@id": "ca918815-8ec6-11f1-8632-17199d690492"
            },
            "bbox": [
                -88.846844,
                30.434558,
                -88.846844,
                30.434558
            ]
        },
        {
            "type": "Feature",
            "geometry": {
                "type": "Point",
                "coordinates": [
                    -88.442811,
                    30.204564,
                    0
                ]
            },
            "properties": {
                "name": "petitboisIsland",
                "styleUrl": "#m_ylw-pushpin0",
                "icon-scale": 1.1,
                "icon-offset": [
                    20,
                    2
                ],
                "icon-offset-units": [
                    "pixels",
                    "pixels"
                ],
                "icon": "http://maps.google.com/mapfiles/kml/pushpin/ylw-pushpin.png",
                "@id": "ca918816-8ec6-11f1-8632-17199d690492"
            },
            "bbox": [
                -88.442811,
                30.204564,
                -88.442811,
                30.204564
            ]
        },
        {
            "type": "Feature",
            "geometry": {
                "type": "Point",
                "coordinates": [
                    -88.842364,
                    29.837778,
                    0
                ]
            },
            "properties": {
                "name": "chandeleurIslands",
                "styleUrl": "#m_ylw-pushpin0",
                "icon-scale": 1.1,
                "icon-offset": [
                    20,
                    2
                ],
                "icon-offset-units": [
                    "pixels",
                    "pixels"
                ],
                "icon": "http://maps.google.com/mapfiles/kml/pushpin/ylw-pushpin.png",
                "@id": "ca918817-8ec6-11f1-8632-17199d690492"
            },
            "bbox": [
                -88.842364,
                29.837778,
                -88.842364,
                29.837778
            ]
        },
        {
            "type": "Feature",
            "geometry": {
                "type": "Point",
                "coordinates": [
                    -88.556889,
                    30.347994,
                    0
                ]
            },
            "properties": {
                "name": "warrenHome",
                "styleUrl": "#m_ylw-pushpin0",
                "icon-scale": 1.1,
                "icon-offset": [
                    20,
                    2
                ],
                "icon-offset-units": [
                    "pixels",
                    "pixels"
                ],
                "icon": "http://maps.google.com/mapfiles/kml/pushpin/ylw-pushpin.png",
                "@id": "ca918818-8ec6-11f1-8632-17199d690492"
            },
            "bbox": [
                -88.556889,
                30.347994,
                -88.556889,
                30.347994
            ]
        },
        {
            "type": "Feature",
            "geometry": {
                "type": "Point",
                "coordinates": [
                    -88.9853,
                    30.466581,
                    0
                ]
            },
            "properties": {
                "name": "cardinalLane",
                "styleUrl": "#m_ylw-pushpin0",
                "icon-scale": 1.1,
                "icon-offset": [
                    20,
                    2
                ],
                "icon-offset-units": [
                    "pixels",
                    "pixels"
                ],
                "icon": "http://maps.google.com/mapfiles/kml/pushpin/ylw-pushpin.png",
                "@id": "ca918819-8ec6-11f1-8632-17199d690492"
            },
            "bbox": [
                -88.9853,
                30.466581,
                -88.9853,
                30.466581
            ]
        },
        {
            "type": "Feature",
            "geometry": {
                "type": "Point",
                "coordinates": [
                    -88.845542,
                    30.420958,
                    0
                ]
            },
            "properties": {
                "name": "avapoolParty",
                "styleUrl": "#m_ylw-pushpin0",
                "icon-scale": 1.1,
                "icon-offset": [
                    20,
                    2
                ],
                "icon-offset-units": [
                    "pixels",
                    "pixels"
                ],
                "icon": "http://maps.google.com/mapfiles/kml/pushpin/ylw-pushpin.png",
                "@id": "ca91881a-8ec6-11f1-8632-17199d690492"
            },
            "bbox": [
                -88.845542,
                30.420958,
                -88.845542,
                30.420958
            ]
        },
        {
            "type": "Feature",
            "geometry": {
                "type": "Point",
                "coordinates": [
                    -88.782217,
                    30.404839,
                    0
                ]
            },
            "properties": {
                "name": "knockandtalkJacob",
                "styleUrl": "#m_ylw-pushpin0",
                "icon-scale": 1.1,
                "icon-offset": [
                    20,
                    2
                ],
                "icon-offset-units": [
                    "pixels",
                    "pixels"
                ],
                "icon": "http://maps.google.com/mapfiles/kml/pushpin/ylw-pushpin.png",
                "@id": "ca91881b-8ec6-11f1-8632-17199d690492"
            },
            "bbox": [
                -88.782217,
                30.404839,
                -88.782217,
                30.404839
            ]
        },
        {
            "type": "Feature",
            "geometry": {
                "type": "Point",
                "coordinates": [
                    -88.783306,
                    30.420214,
                    0
                ]
            },
            "properties": {
                "name": "knockandtalkDrew",
                "styleUrl": "#m_ylw-pushpin0",
                "icon-scale": 1.1,
                "icon-offset": [
                    20,
                    2
                ],
                "icon-offset-units": [
                    "pixels",
                    "pixels"
                ],
                "icon": "http://maps.google.com/mapfiles/kml/pushpin/ylw-pushpin.png",
                "@id": "ca91881c-8ec6-11f1-8632-17199d690492"
            },
            "bbox": [
                -88.783306,
                30.420214,
                -88.783306,
                30.420214
            ]
        },
        {
            "type": "Feature",
            "geometry": {
                "type": "Point",
                "coordinates": [
                    -88.53125,
                    30.346961,
                    0
                ]
            },
            "properties": {
                "name": "knockandtalkLaney",
                "styleUrl": "#m_ylw-pushpin0",
                "icon-scale": 1.1,
                "icon-offset": [
                    20,
                    2
                ],
                "icon-offset-units": [
                    "pixels",
                    "pixels"
                ],
                "icon": "http://maps.google.com/mapfiles/kml/pushpin/ylw-pushpin.png",
                "@id": "ca91881d-8ec6-11f1-8632-17199d690492"
            },
            "bbox": [
                -88.53125,
                30.346961,
                -88.53125,
                30.346961
            ]
        },
        {
            "type": "Feature",
            "geometry": {
                "type": "Point",
                "coordinates": [
                    -88.534161,
                    30.376311,
                    0
                ]
            },
            "properties": {
                "name": "knockandtalkoceanspringsHospital",
                "styleUrl": "#m_ylw-pushpin0",
                "icon-scale": 1.1,
                "icon-offset": [
                    20,
                    2
                ],
                "icon-offset-units": [
                    "pixels",
                    "pixels"
                ],
                "icon": "http://maps.google.com/mapfiles/kml/pushpin/ylw-pushpin.png",
                "@id": "ca91881e-8ec6-11f1-8632-17199d690492"
            },
            "bbox": [
                -88.534161,
                30.376311,
                -88.534161,
                30.376311
            ]
        },
        {
            "type": "Feature",
            "geometry": {
                "type": "Point",
                "coordinates": [
                    -88.889767,
                    30.395792,
                    0
                ]
            },
            "properties": {
                "name": "knockandtalkbiloxiHospital",
                "styleUrl": "#m_ylw-pushpin0",
                "icon-scale": 1.1,
                "icon-offset": [
                    20,
                    2
                ],
                "icon-offset-units": [
                    "pixels",
                    "pixels"
                ],
                "icon": "http://maps.google.com/mapfiles/kml/pushpin/ylw-pushpin.png",
                "@id": "ca91881f-8ec6-11f1-8632-17199d690492"
            },
            "bbox": [
                -88.889767,
                30.395792,
                -88.889767,
                30.395792
            ]
        },
        {
            "type": "Feature",
            "geometry": {
                "type": "Point",
                "coordinates": [
                    -88.782886,
                    30.243097,
                    0
                ]
            },
            "properties": {
                "name": "bodyFound",
                "styleUrl": "#m_ylw-pushpin0",
                "icon-scale": 1.1,
                "icon-offset": [
                    20,
                    2
                ],
                "icon-offset-units": [
                    "pixels",
                    "pixels"
                ],
                "icon": "http://maps.google.com/mapfiles/kml/pushpin/ylw-pushpin.png",
                "@id": "ca918820-8ec6-11f1-8632-17199d690492"
            },
            "bbox": [
                -88.782886,
                30.243097,
                -88.782886,
                30.243097
            ]
        },
        {
            "type": "Feature",
            "geometry": {
                "type": "Point",
                "coordinates": [
                    -88.777433,
                    30.243758,
                    0
                ]
            },
            "properties": {
                "name": "palmBeach",
                "styleUrl": "#m_ylw-pushpin0",
                "icon-scale": 1.1,
                "icon-offset": [
                    20,
                    2
                ],
                "icon-offset-units": [
                    "pixels",
                    "pixels"
                ],
                "icon": "http://maps.google.com/mapfiles/kml/pushpin/ylw-pushpin.png",
                "@id": "ca918821-8ec6-11f1-8632-17199d690492"
            },
            "bbox": [
                -88.777433,
                30.243758,
                -88.777433,
                30.243758
            ]
        },
        {
            "type": "Feature",
            "geometry": {
                "type": "Point",
                "coordinates": [
                    -88.777642,
                    30.243753,
                    0
                ]
            },
            "properties": {
                "name": "tideline",
                "styleUrl": "#m_ylw-pushpin0",
                "icon-scale": 1.1,
                "icon-offset": [
                    20,
                    2
                ],
                "icon-offset-units": [
                    "pixels",
                    "pixels"
                ],
                "icon": "http://maps.google.com/mapfiles/kml/pushpin/ylw-pushpin.png",
                "@id": "ca918822-8ec6-11f1-8632-17199d690492"
            },
            "bbox": [
                -88.777642,
                30.243753,
                -88.777642,
                30.243753
            ]
        },
        {
            "type": "Feature",
            "geometry": {
                "type": "Point",
                "coordinates": [
                    -88.777328,
                    30.243683,
                    0
                ]
            },
            "properties": {
                "name": "tracestin",
                "styleUrl": "#m_ylw-pushpin0",
                "icon-scale": 1.1,
                "icon-offset": [
                    20,
                    2
                ],
                "icon-offset-units": [
                    "pixels",
                    "pixels"
                ],
                "icon": "http://maps.google.com/mapfiles/kml/pushpin/ylw-pushpin.png",
                "@id": "ca918823-8ec6-11f1-8632-17199d690492"
            },
            "bbox": [
                -88.777328,
                30.243683,
                -88.777328,
                30.243683
            ]
        },
        {
            "type": "Feature",
            "geometry": {
                "type": "Point",
                "coordinates": [
                    -88.776653,
                    30.2437,
                    0
                ]
            },
            "properties": {
                "name": "lucas",
                "styleUrl": "#m_ylw-pushpin0",
                "icon-scale": 1.1,
                "icon-offset": [
                    20,
                    2
                ],
                "icon-offset-units": [
                    "pixels",
                    "pixels"
                ],
                "icon": "http://maps.google.com/mapfiles/kml/pushpin/ylw-pushpin.png",
                "@id": "ca918824-8ec6-11f1-8632-17199d690492"
            },
            "bbox": [
                -88.776653,
                30.2437,
                -88.776653,
                30.2437
            ]
        },
        {
            "type": "Feature",
            "geometry": {
                "type": "Point",
                "coordinates": [
                    -88.776569,
                    30.243642,
                    0
                ]
            },
            "properties": {
                "name": "katie",
                "styleUrl": "#m_ylw-pushpin0",
                "icon-scale": 1.1,
                "icon-offset": [
                    20,
                    2
                ],
                "icon-offset-units": [
                    "pixels",
                    "pixels"
                ],
                "icon": "http://maps.google.com/mapfiles/kml/pushpin/ylw-pushpin.png",
                "@id": "ca918825-8ec6-11f1-8632-17199d690492"
            },
            "bbox": [
                -88.776569,
                30.243642,
                -88.776569,
                30.243642
            ]
        },
        {
            "type": "Feature",
            "geometry": {
                "type": "Point",
                "coordinates": [
                    -88.875853,
                    30.425633,
                    0
                ]
            },
            "properties": {
                "name": "coachboatLaunch",
                "styleUrl": "#m_ylw-pushpin0",
                "icon-scale": 1.1,
                "icon-offset": [
                    20,
                    2
                ],
                "icon-offset-units": [
                    "pixels",
                    "pixels"
                ],
                "icon": "http://maps.google.com/mapfiles/kml/pushpin/ylw-pushpin.png",
                "@id": "ca918826-8ec6-11f1-8632-17199d690492"
            },
            "bbox": [
                -88.875853,
                30.425633,
                -88.875853,
                30.425633
            ]
        },
        {
            "type": "Feature",
            "geometry": {
                "type": "Point",
                "coordinates": [
                    -88.785119,
                    30.409419,
                    0
                ]
            },
            "properties": {
                "name": "wyattHome",
                "styleUrl": "#m_ylw-pushpin0",
                "icon-scale": 1.1,
                "icon-offset": [
                    20,
                    2
                ],
                "icon-offset-units": [
                    "pixels",
                    "pixels"
                ],
                "icon": "http://maps.google.com/mapfiles/kml/pushpin/ylw-pushpin.png",
                "@id": "ca918827-8ec6-11f1-8632-17199d690492"
            },
            "bbox": [
                -88.785119,
                30.409419,
                -88.785119,
                30.409419
            ]
        },
        {
            "type": "Feature",
            "geometry": {
                "type": "Point",
                "coordinates": [
                    -88.547961,
                    30.364636,
                    0
                ]
            },
            "properties": {
                "name": "mcdonaldsPascagoula",
                "styleUrl": "#m_ylw-pushpin0",
                "icon-scale": 1.1,
                "icon-offset": [
                    20,
                    2
                ],
                "icon-offset-units": [
                    "pixels",
                    "pixels"
                ],
                "icon": "http://maps.google.com/mapfiles/kml/pushpin/ylw-pushpin.png",
                "@id": "ca918828-8ec6-11f1-8632-17199d690492"
            },
            "bbox": [
                -88.547961,
                30.364636,
                -88.547961,
                30.364636
            ]
        },
        {
            "type": "Feature",
            "geometry": {
                "type": "Point",
                "coordinates": [
                    -89.244619,
                    30.310919,
                    0
                ]
            },
            "properties": {
                "name": "passChristian",
                "styleUrl": "#m_ylw-pushpin0",
                "icon-scale": 1.1,
                "icon-offset": [
                    20,
                    2
                ],
                "icon-offset-units": [
                    "pixels",
                    "pixels"
                ],
                "icon": "http://maps.google.com/mapfiles/kml/pushpin/ylw-pushpin.png",
                "@id": "ca918829-8ec6-11f1-8632-17199d690492"
            },
            "bbox": [
                -89.244619,
                30.310919,
                -89.244619,
                30.310919
            ]
        },
        {
            "type": "Feature",
            "geometry": {
                "type": "Point",
                "coordinates": [
                    -88.735494,
                    30.362294,
                    0
                ]
            },
            "properties": {
                "name": "nolanHome",
                "styleUrl": "#m_ylw-pushpin0",
                "icon-scale": 1.1,
                "icon-offset": [
                    20,
                    2
                ],
                "icon-offset-units": [
                    "pixels",
                    "pixels"
                ],
                "icon": "http://maps.google.com/mapfiles/kml/pushpin/ylw-pushpin.png",
                "@id": "ca91882a-8ec6-11f1-8632-17199d690492"
            },
            "bbox": [
                -88.735494,
                30.362294,
                -88.735494,
                30.362294
            ]
        },
        {
            "type": "Feature",
            "geometry": {
                "type": "Point",
                "coordinates": [
                    -88.964828,
                    30.210736,
                    0
                ]
            },
            "properties": {
                "name": "shipIsland",
                "styleUrl": "#m_ylw-pushpin",
                "icon-scale": 1.1,
                "icon-offset": [
                    20,
                    2
                ],
                "icon-offset-units": [
                    "pixels",
                    "pixels"
                ],
                "icon": "http://maps.google.com/mapfiles/kml/pushpin/ylw-pushpin.png",
                "@id": "ca91882b-8ec6-11f1-8632-17199d690492"
            },
            "bbox": [
                -88.964828,
                30.210736,
                -88.964828,
                30.210736
            ]
        },
        {
            "type": "Feature",
            "geometry": {
                "type": "Point",
                "coordinates": [
                    -88.775317,
                    30.243795,
                    0
                ]
            },
            "properties": {
                "name": "flight1topleft",
                "styleUrl": "#m_ylw-pushpin",
                "icon-scale": 1.1,
                "icon-offset": [
                    20,
                    2
                ],
                "icon-offset-units": [
                    "pixels",
                    "pixels"
                ],
                "icon": "http://maps.google.com/mapfiles/kml/pushpin/ylw-pushpin.png",
                "@id": "ca91882c-8ec6-11f1-8632-17199d690492"
            },
            "bbox": [
                -88.775317,
                30.243795,
                -88.775317,
                30.243795
            ]
        },
        {
            "type": "Feature",
            "geometry": {
                "type": "Point",
                "coordinates": [
                    -88.775714,
                    30.240267,
                    0
                ]
            },
            "properties": {
                "name": "flight1bottomleft",
                "styleUrl": "#m_ylw-pushpin",
                "icon-scale": 1.1,
                "icon-offset": [
                    20,
                    2
                ],
                "icon-offset-units": [
                    "pixels",
                    "pixels"
                ],
                "icon": "http://maps.google.com/mapfiles/kml/pushpin/ylw-pushpin.png",
                "@id": "ca91882d-8ec6-11f1-8632-17199d690492"
            },
            "bbox": [
                -88.775714,
                30.240267,
                -88.775714,
                30.240267
            ]
        },
        {
            "type": "Feature",
            "geometry": {
                "type": "Point",
                "coordinates": [
                    -88.761817,
                    30.242742,
                    0
                ]
            },
            "properties": {
                "name": "flight2topright",
                "styleUrl": "#m_ylw-pushpin",
                "icon-scale": 1.1,
                "icon-offset": [
                    20,
                    2
                ],
                "icon-offset-units": [
                    "pixels",
                    "pixels"
                ],
                "icon": "http://maps.google.com/mapfiles/kml/pushpin/ylw-pushpin.png",
                "@id": "ca91882e-8ec6-11f1-8632-17199d690492"
            },
            "bbox": [
                -88.761817,
                30.242742,
                -88.761817,
                30.242742
            ]
        },
        {
            "type": "Feature",
            "geometry": {
                "type": "Point",
                "coordinates": [
                    -88.761689,
                    30.240864,
                    0
                ]
            },
            "properties": {
                "name": "flight2bottomright",
                "styleUrl": "#m_ylw-pushpin",
                "icon-scale": 1.1,
                "icon-offset": [
                    20,
                    2
                ],
                "icon-offset-units": [
                    "pixels",
                    "pixels"
                ],
                "icon": "http://maps.google.com/mapfiles/kml/pushpin/ylw-pushpin.png",
                "@id": "ca91882f-8ec6-11f1-8632-17199d690492"
            },
            "bbox": [
                -88.761689,
                30.240864,
                -88.761689,
                30.240864
            ]
        },
        {
            "type": "Feature",
            "geometry": {
                "type": "Point",
                "coordinates": [
                    -88.768508,
                    30.242253,
                    0
                ]
            },
            "properties": {
                "name": "topmiddle",
                "styleUrl": "#m_ylw-pushpin",
                "icon-scale": 1.1,
                "icon-offset": [
                    20,
                    2
                ],
                "icon-offset-units": [
                    "pixels",
                    "pixels"
                ],
                "icon": "http://maps.google.com/mapfiles/kml/pushpin/ylw-pushpin.png",
                "@id": "ca918830-8ec6-11f1-8632-17199d690492"
            },
            "bbox": [
                -88.768508,
                30.242253,
                -88.768508,
                30.242253
            ]
        },
        {
            "type": "Feature",
            "geometry": {
                "type": "Point",
                "coordinates": [
                    -88.768494,
                    30.240539,
                    0
                ]
            },
            "properties": {
                "name": "bottommiddle",
                "styleUrl": "#m_ylw-pushpin",
                "icon-scale": 1.1,
                "icon-offset": [
                    20,
                    2
                ],
                "icon-offset-units": [
                    "pixels",
                    "pixels"
                ],
                "icon": "http://maps.google.com/mapfiles/kml/pushpin/ylw-pushpin.png",
                "@id": "ca91af10-8ec6-11f1-8632-17199d690492"
            },
            "bbox": [
                -88.768494,
                30.240539,
                -88.768494,
                30.240539
            ]
        },
        {
            "type": "Feature",
            "properties": {
                "stroke-width": 1,
                "stroke-opacity": 1,
                "stroke": "rgba(255, 189, 108, 1)",
                "name": "Nolan's coach boat launch → Horn Island",
                "@id": "d53cb3b0-8ec6-11f1-8632-17199d690492"
            },
            "geometry": {
                "type": "LineString",
                "coordinates": [
                    [
                        -88.875853,
                        30.425633
                    ],
                    [
                        -88.875407,
                        30.425745
                    ],
                    [
                        -88.874025,
                        30.425844
                    ],
                    [
                        -88.873506,
                        30.425675
                    ],
                    [
                        -88.859924,
                        30.414602
                    ],
                    [
                        -88.846024,
                        30.406911
                    ],
                    [
                        -88.817987,
                        30.371088
                    ],
                    [
                        -88.77964,
                        30.24136
                    ],
                    [
                        -88.77187,
                        30.238735
                    ],
                    [
                        -88.746512,
                        30.237724
                    ],
                    [
                        -88.718346,
                        30.241296
                    ]
                ]
            },
            "bbox": [
                -88.875853,
                30.237724,
                -88.718346,
                30.425844
            ]
        },
        {
            "type": "Feature",
            "properties": {
                "stroke-width": 1,
                "stroke-opacity": 1,
                "stroke": "rgba(250, 255, 147, 1)",
                "name": "Gex and Ewing → Biloxi harbor → NW tip of Horn Island",
                "@id": "451f47b0-8ec7-11f1-8632-17199d690492"
            },
            "geometry": {
                "type": "LineString",
                "coordinates": [
                    [
                        -88.886153,
                        30.39202
                    ],
                    [
                        -88.886147,
                        30.390898
                    ],
                    [
                        -88.875541,
                        30.389383
                    ],
                    [
                        -88.817987,
                        30.371088
                    ],
                    [
                        -88.77964,
                        30.24136
                    ],
                    [
                        -88.77187,
                        30.238735
                    ],
                    [
                        -88.746512,
                        30.237724
                    ],
                    [
                        -88.718346,
                        30.241296
                    ]
                ]
            },
            "bbox": [
                -88.886153,
                30.237724,
                -88.718346,
                30.39202
            ]
        },
        {
            "type": "Feature",
            "properties": {
                "stroke-width": 1,
                "stroke-opacity": 1,
                "stroke": "rgba(191, 126, 255, 1)",
                "name": "Tracestin, Wyatt, and friends → Horn Island",
                "@id": "34b6f6e0-8eca-11f1-8632-17199d690492"
            },
            "geometry": {
                "type": "LineString",
                "coordinates": [
                    [
                        -88.827825,
                        30.419464
                    ],
                    [
                        -88.831225,
                        30.418912
                    ],
                    [
                        -88.843199,
                        30.4221
                    ],
                    [
                        -88.848078,
                        30.425128
                    ],
                    [
                        -88.853859,
                        30.425991
                    ],
                    [
                        -88.854581,
                        30.423762
                    ],
                    [
                        -88.846024,
                        30.406911
                    ],
                    [
                        -88.817987,
                        30.371088
                    ],
                    [
                        -88.777154,
                        30.243766
                    ]
                ]
            },
            "bbox": [
                -88.854581,
                30.243766,
                -88.777154,
                30.425991
            ]
        },
        {
            "type": "Feature",
            "properties": {
                "stroke-width": 1,
                "stroke-opacity": 1,
                "stroke": "rgba(0, 234, 255, 1)",
                "name": "Wyatt family → Horn Island",
                "@id": "c309bf90-8eca-11f1-8632-17199d690492"
            },
            "geometry": {
                "type": "LineString",
                "coordinates": [
                    [
                        -88.557238,
                        30.347618
                    ],
                    [
                        -88.561122,
                        30.346581
                    ],
                    [
                        -88.565708,
                        30.343481
                    ],
                    [
                        -88.560542,
                        30.328454
                    ],
                    [
                        -88.606584,
                        30.318382
                    ],
                    [
                        -88.777756,
                        30.245645
                    ],
                    [
                        -88.777154,
                        30.243766
                    ]
                ]
            },
            "bbox": [
                -88.777756,
                30.243766,
                -88.557238,
                30.347618
            ]
        },
        {
            "type": "Feature",
            "properties": {
                "name": "Freeman, Smith, Kasovich → Horn Island",
                "@id": "b1212240-8ecb-11f1-8632-17199d690492"
            },
            "geometry": {
                "type": "LineString",
                "coordinates": []
            }
        },
        {
            "type": "Feature",
            "properties": {
                "stroke-width": 1,
                "stroke-opacity": 1,
                "stroke": "rgba(181, 255, 125, 1)",
                "name": "Sonar surveys",
                "@id": "f0809560-8ecb-11f1-8632-17199d690492"
            },
            "geometry": {
                "type": "LineString",
                "coordinates": [
                    [
                        -88.886153,
                        30.39202
                    ],
                    [
                        -88.886147,
                        30.390898
                    ],
                    [
                        -88.875541,
                        30.389383
                    ],
                    [
                        -88.817987,
                        30.371088
                    ],
                    [
                        -88.768653,
                        30.242712
                    ]
                ]
            },
            "bbox": [
                -88.886153,
                30.242712,
                -88.768653,
                30.39202
            ]
        },
        {
            "type": "Feature",
            "properties": {
                "stroke-width": 1,
                "stroke-opacity": 1,
                "stroke": "rgba(255, 173, 13, 1)",
                "name": "Last boats just before 8:00 AM",
                "@id": "2fcd3c70-8ecf-11f1-8632-17199d690492"
            },
            "geometry": {
                "type": "LineString",
                "coordinates": [
                    [
                        -88.764183,
                        30.360767
                    ],
                    [
                        -88.764869,
                        30.359416
                    ],
                    [
                        -88.648211,
                        30.235377
                    ]
                ]
            },
            "bbox": [
                -88.764869,
                30.235377,
                -88.648211,
                30.360767
            ]
        }
    ]
}