{
    "type": "FeatureCollection",
    "features": [
        {
            "type": "Feature",
            "geometry": {
                "type": "Point",
                "coordinates": [
                    -88.764183,
                    30.360767,
                    0
                ]
            },
            "properties": {
                "name": "lakemarsPier",
                "styleUrl": "#m_ylw-pushpin",
                "icon-scale": 1.1,
                "icon-offset": [
                    20,
                    2
                ],
                "icon-offset-units": [
                    "pixels",
                    "pixels"
                ],
                "icon": "http://maps.google.com/mapfiles/kml/pushpin/ylw-pushpin.png",
                "@id": "b10eaa90-8ded-11f1-96ec-894237f38196"
            },
            "bbox": [
                -88.764183,
                30.360767,
                -88.764183,
                30.360767
            ]
        },
        {
            "type": "Feature",
            "geometry": {
                "type": "Point",
                "coordinates": [
                    -88.529708,
                    30.379697,
                    0
                ]
            },
            "properties": {
                "name": "coroner",
                "styleUrl": "#m_ylw-pushpin",
                "icon-scale": 1.1,
                "icon-offset": [
                    20,
                    2
                ],
                "icon-offset-units": [
                    "pixels",
                    "pixels"
                ],
                "icon": "http://maps.google.com/mapfiles/kml/pushpin/ylw-pushpin.png",
                "@id": "b10ed1a0-8ded-11f1-96ec-894237f38196"
            },
            "bbox": [
                -88.529708,
                30.379697,
                -88.529708,
                30.379697
            ]
        },
        {
            "type": "Feature",
            "geometry": {
                "type": "Point",
                "coordinates": [
                    -88.716672,
                    30.429278,
                    0
                ]
            },
            "properties": {
                "name": "church",
                "styleUrl": "#m_ylw-pushpin",
                "icon-scale": 1.1,
                "icon-offset": [
                    20,
                    2
                ],
                "icon-offset-units": [
                    "pixels",
                    "pixels"
                ],
                "icon": "http://maps.google.com/mapfiles/kml/pushpin/ylw-pushpin.png",
                "@id": "b10ed1a1-8ded-11f1-96ec-894237f38196"
            },
            "bbox": [
                -88.716672,
                30.429278,
                -88.716672,
                30.429278
            ]
        },
        {
            "type": "Feature",
            "geometry": {
                "type": "Point",
                "coordinates": [
                    -88.531639,
                    30.380206,
                    0
                ]
            },
            "properties": {
                "name": "fairgrounds",
                "styleUrl": "#m_ylw-pushpin",
                "icon-scale": 1.1,
                "icon-offset": [
                    20,
                    2
                ],
                "icon-offset-units": [
                    "pixels",
                    "pixels"
                ],
                "icon": "http://maps.google.com/mapfiles/kml/pushpin/ylw-pushpin.png",
                "@id": "b10ed1a2-8ded-11f1-96ec-894237f38196"
            },
            "bbox": [
                -88.531639,
                30.380206,
                -88.531639,
                30.380206
            ]
        },
        {
            "type": "Feature",
            "geometry": {
                "type": "Point",
                "coordinates": [
                    -88.827825,
                    30.419464,
                    0
                ]
            },
            "properties": {
                "name": "fortbayouLaunch",
                "styleUrl": "#m_ylw-pushpin",
                "icon-scale": 1.1,
                "icon-offset": [
                    20,
                    2
                ],
                "icon-offset-units": [
                    "pixels",
                    "pixels"
                ],
                "icon": "http://maps.google.com/mapfiles/kml/pushpin/ylw-pushpin.png",
                "@id": "b10ed1a3-8ded-11f1-96ec-894237f38196"
            },
            "bbox": [
                -88.827825,
                30.419464,
                -88.827825,
                30.419464
            ]
        },
        {
            "type": "Feature",
            "geometry": {
                "type": "Point",
                "coordinates": [
                    -87.620675,
                    41.850669,
                    0
                ]
            },
            "properties": {
                "name": "naacpChicago",
                "styleUrl": "#m_ylw-pushpin",
                "icon-scale": 1.1,
                "icon-offset": [
                    20,
                    2
                ],
                "icon-offset-units": [
                    "pixels",
                    "pixels"
                ],
                "icon": "http://maps.google.com/mapfiles/kml/pushpin/ylw-pushpin.png",
                "@id": "b10ed1a4-8ded-11f1-96ec-894237f38196"
            },
            "bbox": [
                -87.620675,
                41.850669,
                -87.620675,
                41.850669
            ]
        },
        {
            "type": "Feature",
            "geometry": {
                "type": "Point",
                "coordinates": [
                    -77.018392,
                    38.883664,
                    0
                ]
            },
            "properties": {
                "name": "medicalexaminerwashingtoDC",
                "styleUrl": "#m_ylw-pushpin",
                "icon-scale": 1.1,
                "icon-offset": [
                    20,
                    2
                ],
                "icon-offset-units": [
                    "pixels",
                    "pixels"
                ],
                "icon": "http://maps.google.com/mapfiles/kml/pushpin/ylw-pushpin.png",
                "@id": "b10ed1a5-8ded-11f1-96ec-894237f38196"
            },
            "bbox": [
                -77.018392,
                38.883664,
                -77.018392,
                38.883664
            ]
        },
        {
            "type": "Feature",
            "geometry": {
                "type": "Point",
                "coordinates": [
                    -88.5589,
                    30.3656,
                    0
                ]
            },
            "properties": {
                "name": "districtAttorney",
                "styleUrl": "#m_ylw-pushpin",
                "icon-scale": 1.1,
                "icon-offset": [
                    20,
                    2
                ],
                "icon-offset-units": [
                    "pixels",
                    "pixels"
                ],
                "icon": "http://maps.google.com/mapfiles/kml/pushpin/ylw-pushpin.png",
                "@id": "b10ed1a6-8ded-11f1-96ec-894237f38196"
            },
            "bbox": [
                -88.5589,
                30.3656,
                -88.5589,
                30.3656
            ]
        },
        {
            "type": "Feature",
            "geometry": {
                "type": "Point",
                "coordinates": [
                    -88.558317,
                    30.36545,
                    0
                ]
            },
            "properties": {
                "name": "jcsd",
                "styleUrl": "#m_ylw-pushpin",
                "icon-scale": 1.1,
                "icon-offset": [
                    20,
                    2
                ],
                "icon-offset-units": [
                    "pixels",
                    "pixels"
                ],
                "icon": "http://maps.google.com/mapfiles/kml/pushpin/ylw-pushpin.png",
                "@id": "b10ed1a7-8ded-11f1-96ec-894237f38196"
            },
            "bbox": [
                -88.558317,
                30.36545,
                -88.558317,
                30.36545
            ]
        },
        {
            "type": "Feature",
            "geometry": {
                "type": "Point",
                "coordinates": [
                    -88.765086,
                    30.409167,
                    0
                ]
            },
            "properties": {
                "name": "ospd",
                "styleUrl": "#m_ylw-pushpin",
                "icon-scale": 1.1,
                "icon-offset": [
                    20,
                    2
                ],
                "icon-offset-units": [
                    "pixels",
                    "pixels"
                ],
                "icon": "http://maps.google.com/mapfiles/kml/pushpin/ylw-pushpin.png",
                "@id": "b10ed1a8-8ded-11f1-96ec-894237f38196"
            },
            "bbox": [
                -88.765086,
                30.409167,
                -88.765086,
                30.409167
            ]
        },
        {
            "type": "Feature",
            "geometry": {
                "type": "Point",
                "coordinates": [
                    -88.936117,
                    30.433178,
                    0
                ]
            },
            "properties": {
                "name": "dmr",
                "styleUrl": "#m_ylw-pushpin",
                "icon-scale": 1.1,
                "icon-offset": [
                    20,
                    2
                ],
                "icon-offset-units": [
                    "pixels",
                    "pixels"
                ],
                "icon": "http://maps.google.com/mapfiles/kml/pushpin/ylw-pushpin.png",
                "@id": "b10ed1a9-8ded-11f1-96ec-894237f38196"
            },
            "bbox": [
                -88.936117,
                30.433178,
                -88.936117,
                30.433178
            ]
        },
        {
            "type": "Feature",
            "geometry": {
                "type": "Point",
                "coordinates": [
                    -88.759083,
                    30.409531,
                    0
                ]
            },
            "properties": {
                "name": "mcDonalds",
                "styleUrl": "#m_ylw-pushpin",
                "icon-scale": 1.1,
                "icon-offset": [
                    20,
                    2
                ],
                "icon-offset-units": [
                    "pixels",
                    "pixels"
                ],
                "icon": "http://maps.google.com/mapfiles/kml/pushpin/ylw-pushpin.png",
                "@id": "b10ed1aa-8ded-11f1-96ec-894237f38196"
            },
            "bbox": [
                -88.759083,
                30.409531,
                -88.759083,
                30.409531
            ]
        },
        {
            "type": "Feature",
            "geometry": {
                "type": "Point",
                "coordinates": [
                    -88.870861,
                    30.42765,
                    0
                ]
            },
            "properties": {
                "name": "saintmartinBayou",
                "styleUrl": "#m_ylw-pushpin",
                "icon-scale": 1.1,
                "icon-offset": [
                    20,
                    2
                ],
                "icon-offset-units": [
                    "pixels",
                    "pixels"
                ],
                "icon": "http://maps.google.com/mapfiles/kml/pushpin/ylw-pushpin.png",
                "@id": "b10ed1ab-8ded-11f1-96ec-894237f38196"
            },
            "bbox": [
                -88.870861,
                30.42765,
                -88.870861,
                30.42765
            ]
        },
        {
            "type": "Feature",
            "geometry": {
                "type": "Point",
                "coordinates": [
                    -88.886153,
                    30.392019,
                    0
                ]
            },
            "properties": {
                "name": "biloxismallcraftHarbour",
                "styleUrl": "#m_ylw-pushpin",
                "icon-scale": 1.1,
                "icon-offset": [
                    20,
                    2
                ],
                "icon-offset-units": [
                    "pixels",
                    "pixels"
                ],
                "icon": "http://maps.google.com/mapfiles/kml/pushpin/ylw-pushpin.png",
                "@id": "b10ed1ac-8ded-11f1-96ec-894237f38196"
            },
            "bbox": [
                -88.886153,
                30.392019,
                -88.886153,
                30.392019
            ]
        },
        {
            "type": "Feature",
            "geometry": {
                "type": "Point",
                "coordinates": [
                    -88.812797,
                    30.424206,
                    0
                ]
            },
            "properties": {
                "name": "edminstonLaunch",
                "styleUrl": "#m_ylw-pushpin",
                "icon-scale": 1.1,
                "icon-offset": [
                    20,
                    2
                ],
                "icon-offset-units": [
                    "pixels",
                    "pixels"
                ],
                "icon": "http://maps.google.com/mapfiles/kml/pushpin/ylw-pushpin.png",
                "@id": "b10ed1ad-8ded-11f1-96ec-894237f38196"
            },
            "bbox": [
                -88.812797,
                30.424206,
                -88.812797,
                30.424206
            ]
        },
        {
            "type": "Feature",
            "geometry": {
                "type": "Point",
                "coordinates": [
                    -88.626503,
                    30.405522,
                    0
                ]
            },
            "properties": {
                "name": "siouxbayouLaunch",
                "styleUrl": "#m_ylw-pushpin",
                "icon-scale": 1.1,
                "icon-offset": [
                    20,
                    2
                ],
                "icon-offset-units": [
                    "pixels",
                    "pixels"
                ],
                "icon": "http://maps.google.com/mapfiles/kml/pushpin/ylw-pushpin.png",
                "@id": "b10ed1ae-8ded-11f1-96ec-894237f38196"
            },
            "bbox": [
                -88.626503,
                30.405522,
                -88.626503,
                30.405522
            ]
        },
        {
            "type": "Feature",
            "geometry": {
                "type": "Point",
                "coordinates": [
                    -88.777154,
                    30.243766,
                    0
                ]
            },
            "properties": {
                "name": "tritonGPS",
                "styleUrl": "#m_ylw-pushpin",
                "icon-scale": 1.1,
                "icon-offset": [
                    20,
                    2
                ],
                "icon-offset-units": [
                    "pixels",
                    "pixels"
                ],
                "icon": "http://maps.google.com/mapfiles/kml/pushpin/ylw-pushpin.png",
                "@id": "b10ed1af-8ded-11f1-96ec-894237f38196"
            },
            "bbox": [
                -88.777154,
                30.243766,
                -88.777154,
                30.243766
            ]
        },
        {
            "type": "Feature",
            "geometry": {
                "type": "Point",
                "coordinates": [
                    -88.648353,
                    30.233197,
                    0
                ]
            },
            "properties": {
                "name": "chimneyStacks",
                "styleUrl": "#m_ylw-pushpin",
                "icon-scale": 1.1,
                "icon-offset": [
                    20,
                    2
                ],
                "icon-offset-units": [
                    "pixels",
                    "pixels"
                ],
                "icon": "http://maps.google.com/mapfiles/kml/pushpin/ylw-pushpin.png",
                "@id": "b10ed1b0-8ded-11f1-96ec-894237f38196"
            },
            "bbox": [
                -88.648353,
                30.233197,
                -88.648353,
                30.233197
            ]
        },
        {
            "type": "Feature",
            "geometry": {
                "type": "Point",
                "coordinates": [
                    -88.530925,
                    30.352083,
                    0
                ]
            },
            "properties": {
                "name": "knockandtalkartimeseAve",
                "styleUrl": "#m_ylw-pushpin",
                "icon-scale": 1.1,
                "icon-offset": [
                    20,
                    2
                ],
                "icon-offset-units": [
                    "pixels",
                    "pixels"
                ],
                "icon": "http://maps.google.com/mapfiles/kml/pushpin/ylw-pushpin.png",
                "@id": "b10ed1b1-8ded-11f1-96ec-894237f38196"
            },
            "bbox": [
                -88.530925,
                30.352083,
                -88.530925,
                30.352083
            ]
        },
        {
            "type": "Feature",
            "geometry": {
                "type": "Point",
                "coordinates": [
                    -88.812781,
                    30.422764,
                    0
                ]
            },
            "properties": {
                "name": "bartHome",
                "styleUrl": "#m_ylw-pushpin",
                "icon-scale": 1.1,
                "icon-offset": [
                    20,
                    2
                ],
                "icon-offset-units": [
                    "pixels",
                    "pixels"
                ],
                "icon": "http://maps.google.com/mapfiles/kml/pushpin/ylw-pushpin.png",
                "@id": "b10ed1b2-8ded-11f1-96ec-894237f38196"
            },
            "bbox": [
                -88.812781,
                30.422764,
                -88.812781,
                30.422764
            ]
        },
        {
            "type": "Feature",
            "geometry": {
                "type": "Point",
                "coordinates": [
                    -88.836647,
                    30.41675,
                    0
                ]
            },
            "properties": {
                "name": "jaxHome",
                "styleUrl": "#m_ylw-pushpin",
                "icon-scale": 1.1,
                "icon-offset": [
                    20,
                    2
                ],
                "icon-offset-units": [
                    "pixels",
                    "pixels"
                ],
                "icon": "http://maps.google.com/mapfiles/kml/pushpin/ylw-pushpin.png",
                "@id": "b10ed1b3-8ded-11f1-96ec-894237f38196"
            },
            "bbox": [
                -88.836647,
                30.41675,
                -88.836647,
                30.41675
            ]
        },
        {
            "type": "Feature",
            "geometry": {
                "type": "Point",
                "coordinates": [
                    -88.846844,
                    30.434558,
                    0
                ]
            },
            "properties": {
                "name": "elcaminoLaunch",
                "styleUrl": "#m_ylw-pushpin",
                "icon-scale": 1.1,
                "icon-offset": [
                    20,
                    2
                ],
                "icon-offset-units": [
                    "pixels",
                    "pixels"
                ],
                "icon": "http://maps.google.com/mapfiles/kml/pushpin/ylw-pushpin.png",
                "@id": "b10ed1b4-8ded-11f1-96ec-894237f38196"
            },
            "bbox": [
                -88.846844,
                30.434558,
                -88.846844,
                30.434558
            ]
        },
        {
            "type": "Feature",
            "geometry": {
                "type": "Point",
                "coordinates": [
                    -88.442811,
                    30.204564,
                    0
                ]
            },
            "properties": {
                "name": "petitboisIsland",
                "styleUrl": "#m_ylw-pushpin",
                "icon-scale": 1.1,
                "icon-offset": [
                    20,
                    2
                ],
                "icon-offset-units": [
                    "pixels",
                    "pixels"
                ],
                "icon": "http://maps.google.com/mapfiles/kml/pushpin/ylw-pushpin.png",
                "@id": "b10ed1b5-8ded-11f1-96ec-894237f38196"
            },
            "bbox": [
                -88.442811,
                30.204564,
                -88.442811,
                30.204564
            ]
        },
        {
            "type": "Feature",
            "geometry": {
                "type": "Point",
                "coordinates": [
                    -88.842364,
                    29.837778,
                    0
                ]
            },
            "properties": {
                "name": "chandeleurIslands",
                "styleUrl": "#m_ylw-pushpin",
                "icon-scale": 1.1,
                "icon-offset": [
                    20,
                    2
                ],
                "icon-offset-units": [
                    "pixels",
                    "pixels"
                ],
                "icon": "http://maps.google.com/mapfiles/kml/pushpin/ylw-pushpin.png",
                "@id": "b10ed1b6-8ded-11f1-96ec-894237f38196"
            },
            "bbox": [
                -88.842364,
                29.837778,
                -88.842364,
                29.837778
            ]
        },
        {
            "type": "Feature",
            "geometry": {
                "type": "Point",
                "coordinates": [
                    -88.556889,
                    30.347994,
                    0
                ]
            },
            "properties": {
                "name": "warrenHome",
                "styleUrl": "#m_ylw-pushpin",
                "icon-scale": 1.1,
                "icon-offset": [
                    20,
                    2
                ],
                "icon-offset-units": [
                    "pixels",
                    "pixels"
                ],
                "icon": "http://maps.google.com/mapfiles/kml/pushpin/ylw-pushpin.png",
                "@id": "b10ed1b7-8ded-11f1-96ec-894237f38196"
            },
            "bbox": [
                -88.556889,
                30.347994,
                -88.556889,
                30.347994
            ]
        },
        {
            "type": "Feature",
            "geometry": {
                "type": "Point",
                "coordinates": [
                    -88.9853,
                    30.466581,
                    0
                ]
            },
            "properties": {
                "name": "cardinalLane",
                "styleUrl": "#m_ylw-pushpin",
                "icon-scale": 1.1,
                "icon-offset": [
                    20,
                    2
                ],
                "icon-offset-units": [
                    "pixels",
                    "pixels"
                ],
                "icon": "http://maps.google.com/mapfiles/kml/pushpin/ylw-pushpin.png",
                "@id": "b10ed1b8-8ded-11f1-96ec-894237f38196"
            },
            "bbox": [
                -88.9853,
                30.466581,
                -88.9853,
                30.466581
            ]
        },
        {
            "type": "Feature",
            "geometry": {
                "type": "Point",
                "coordinates": [
                    -88.845542,
                    30.420958,
                    0
                ]
            },
            "properties": {
                "name": "avapoolParty",
                "styleUrl": "#m_ylw-pushpin",
                "icon-scale": 1.1,
                "icon-offset": [
                    20,
                    2
                ],
                "icon-offset-units": [
                    "pixels",
                    "pixels"
                ],
                "icon": "http://maps.google.com/mapfiles/kml/pushpin/ylw-pushpin.png",
                "@id": "b10ed1b9-8ded-11f1-96ec-894237f38196"
            },
            "bbox": [
                -88.845542,
                30.420958,
                -88.845542,
                30.420958
            ]
        },
        {
            "type": "Feature",
            "geometry": {
                "type": "Point",
                "coordinates": [
                    -88.782217,
                    30.404839,
                    0
                ]
            },
            "properties": {
                "name": "knockandtalkJacob",
                "styleUrl": "#m_ylw-pushpin",
                "icon-scale": 1.1,
                "icon-offset": [
                    20,
                    2
                ],
                "icon-offset-units": [
                    "pixels",
                    "pixels"
                ],
                "icon": "http://maps.google.com/mapfiles/kml/pushpin/ylw-pushpin.png",
                "@id": "b10ed1ba-8ded-11f1-96ec-894237f38196"
            },
            "bbox": [
                -88.782217,
                30.404839,
                -88.782217,
                30.404839
            ]
        },
        {
            "type": "Feature",
            "geometry": {
                "type": "Point",
                "coordinates": [
                    -88.783306,
                    30.420214,
                    0
                ]
            },
            "properties": {
                "name": "knockandtalkDrew",
                "styleUrl": "#m_ylw-pushpin",
                "icon-scale": 1.1,
                "icon-offset": [
                    20,
                    2
                ],
                "icon-offset-units": [
                    "pixels",
                    "pixels"
                ],
                "icon": "http://maps.google.com/mapfiles/kml/pushpin/ylw-pushpin.png",
                "@id": "b10ed1bb-8ded-11f1-96ec-894237f38196"
            },
            "bbox": [
                -88.783306,
                30.420214,
                -88.783306,
                30.420214
            ]
        },
        {
            "type": "Feature",
            "geometry": {
                "type": "Point",
                "coordinates": [
                    -88.53125,
                    30.346961,
                    0
                ]
            },
            "properties": {
                "name": "knockandtalkLaney",
                "styleUrl": "#m_ylw-pushpin",
                "icon-scale": 1.1,
                "icon-offset": [
                    20,
                    2
                ],
                "icon-offset-units": [
                    "pixels",
                    "pixels"
                ],
                "icon": "http://maps.google.com/mapfiles/kml/pushpin/ylw-pushpin.png",
                "@id": "b10ed1bc-8ded-11f1-96ec-894237f38196"
            },
            "bbox": [
                -88.53125,
                30.346961,
                -88.53125,
                30.346961
            ]
        },
        {
            "type": "Feature",
            "geometry": {
                "type": "Point",
                "coordinates": [
                    -88.534161,
                    30.376311,
                    0
                ]
            },
            "properties": {
                "name": "knockandtalkoceanspringsHospital",
                "styleUrl": "#m_ylw-pushpin",
                "icon-scale": 1.1,
                "icon-offset": [
                    20,
                    2
                ],
                "icon-offset-units": [
                    "pixels",
                    "pixels"
                ],
                "icon": "http://maps.google.com/mapfiles/kml/pushpin/ylw-pushpin.png",
                "@id": "b10ed1bd-8ded-11f1-96ec-894237f38196"
            },
            "bbox": [
                -88.534161,
                30.376311,
                -88.534161,
                30.376311
            ]
        },
        {
            "type": "Feature",
            "geometry": {
                "type": "Point",
                "coordinates": [
                    -88.889767,
                    30.395792,
                    0
                ]
            },
            "properties": {
                "name": "knockandtalkbiloxiHospital",
                "styleUrl": "#m_ylw-pushpin",
                "icon-scale": 1.1,
                "icon-offset": [
                    20,
                    2
                ],
                "icon-offset-units": [
                    "pixels",
                    "pixels"
                ],
                "icon": "http://maps.google.com/mapfiles/kml/pushpin/ylw-pushpin.png",
                "@id": "b10ed1be-8ded-11f1-96ec-894237f38196"
            },
            "bbox": [
                -88.889767,
                30.395792,
                -88.889767,
                30.395792
            ]
        },
        {
            "type": "Feature",
            "geometry": {
                "type": "Point",
                "coordinates": [
                    -88.782886,
                    30.243097,
                    0
                ]
            },
            "properties": {
                "name": "bodyFound",
                "styleUrl": "#m_ylw-pushpin",
                "icon-scale": 1.1,
                "icon-offset": [
                    20,
                    2
                ],
                "icon-offset-units": [
                    "pixels",
                    "pixels"
                ],
                "icon": "http://maps.google.com/mapfiles/kml/pushpin/ylw-pushpin.png",
                "@id": "b10ed1bf-8ded-11f1-96ec-894237f38196"
            },
            "bbox": [
                -88.782886,
                30.243097,
                -88.782886,
                30.243097
            ]
        },
        {
            "type": "Feature",
            "geometry": {
                "type": "Point",
                "coordinates": [
                    -88.777433,
                    30.243758,
                    0
                ]
            },
            "properties": {
                "name": "palmBeach",
                "styleUrl": "#m_ylw-pushpin",
                "icon-scale": 1.1,
                "icon-offset": [
                    20,
                    2
                ],
                "icon-offset-units": [
                    "pixels",
                    "pixels"
                ],
                "icon": "http://maps.google.com/mapfiles/kml/pushpin/ylw-pushpin.png",
                "@id": "b10ed1c0-8ded-11f1-96ec-894237f38196"
            },
            "bbox": [
                -88.777433,
                30.243758,
                -88.777433,
                30.243758
            ]
        },
        {
            "type": "Feature",
            "geometry": {
                "type": "Point",
                "coordinates": [
                    -88.777642,
                    30.243753,
                    0
                ]
            },
            "properties": {
                "name": "tideline",
                "styleUrl": "#m_ylw-pushpin",
                "icon-scale": 1.1,
                "icon-offset": [
                    20,
                    2
                ],
                "icon-offset-units": [
                    "pixels",
                    "pixels"
                ],
                "icon": "http://maps.google.com/mapfiles/kml/pushpin/ylw-pushpin.png",
                "@id": "b10ed1c1-8ded-11f1-96ec-894237f38196"
            },
            "bbox": [
                -88.777642,
                30.243753,
                -88.777642,
                30.243753
            ]
        },
        {
            "type": "Feature",
            "geometry": {
                "type": "Point",
                "coordinates": [
                    -88.777328,
                    30.243683,
                    0
                ]
            },
            "properties": {
                "name": "tracestin",
                "styleUrl": "#m_ylw-pushpin",
                "icon-scale": 1.1,
                "icon-offset": [
                    20,
                    2
                ],
                "icon-offset-units": [
                    "pixels",
                    "pixels"
                ],
                "icon": "http://maps.google.com/mapfiles/kml/pushpin/ylw-pushpin.png",
                "@id": "b10ed1c2-8ded-11f1-96ec-894237f38196"
            },
            "bbox": [
                -88.777328,
                30.243683,
                -88.777328,
                30.243683
            ]
        },
        {
            "type": "Feature",
            "geometry": {
                "type": "Point",
                "coordinates": [
                    -88.776653,
                    30.2437,
                    0
                ]
            },
            "properties": {
                "name": "lucas",
                "styleUrl": "#m_ylw-pushpin",
                "icon-scale": 1.1,
                "icon-offset": [
                    20,
                    2
                ],
                "icon-offset-units": [
                    "pixels",
                    "pixels"
                ],
                "icon": "http://maps.google.com/mapfiles/kml/pushpin/ylw-pushpin.png",
                "@id": "b10ed1c3-8ded-11f1-96ec-894237f38196"
            },
            "bbox": [
                -88.776653,
                30.2437,
                -88.776653,
                30.2437
            ]
        },
        {
            "type": "Feature",
            "geometry": {
                "type": "Point",
                "coordinates": [
                    -88.776569,
                    30.243642,
                    0
                ]
            },
            "properties": {
                "name": "katie",
                "styleUrl": "#m_ylw-pushpin",
                "icon-scale": 1.1,
                "icon-offset": [
                    20,
                    2
                ],
                "icon-offset-units": [
                    "pixels",
                    "pixels"
                ],
                "icon": "http://maps.google.com/mapfiles/kml/pushpin/ylw-pushpin.png",
                "@id": "b10ed1c4-8ded-11f1-96ec-894237f38196"
            },
            "bbox": [
                -88.776569,
                30.243642,
                -88.776569,
                30.243642
            ]
        },
        {
            "type": "Feature",
            "geometry": {
                "type": "Point",
                "coordinates": [
                    -88.875853,
                    30.425633,
                    0
                ]
            },
            "properties": {
                "name": "coachboatLaunch",
                "styleUrl": "#m_ylw-pushpin",
                "icon-scale": 1.1,
                "icon-offset": [
                    20,
                    2
                ],
                "icon-offset-units": [
                    "pixels",
                    "pixels"
                ],
                "icon": "http://maps.google.com/mapfiles/kml/pushpin/ylw-pushpin.png",
                "@id": "b10ed1c5-8ded-11f1-96ec-894237f38196"
            },
            "bbox": [
                -88.875853,
                30.425633,
                -88.875853,
                30.425633
            ]
        },
        {
            "type": "Feature",
            "geometry": {
                "type": "Point",
                "coordinates": [
                    -88.785119,
                    30.409419,
                    0
                ]
            },
            "properties": {
                "name": "wyattHome",
                "styleUrl": "#m_ylw-pushpin",
                "icon-scale": 1.1,
                "icon-offset": [
                    20,
                    2
                ],
                "icon-offset-units": [
                    "pixels",
                    "pixels"
                ],
                "icon": "http://maps.google.com/mapfiles/kml/pushpin/ylw-pushpin.png",
                "@id": "b10ed1c6-8ded-11f1-96ec-894237f38196"
            },
            "bbox": [
                -88.785119,
                30.409419,
                -88.785119,
                30.409419
            ]
        },
        {
            "type": "Feature",
            "geometry": {
                "type": "Point",
                "coordinates": [
                    -88.547961,
                    30.364636,
                    0
                ]
            },
            "properties": {
                "name": "mcdonaldsPascagoula",
                "styleUrl": "#m_ylw-pushpin",
                "icon-scale": 1.1,
                "icon-offset": [
                    20,
                    2
                ],
                "icon-offset-units": [
                    "pixels",
                    "pixels"
                ],
                "icon": "http://maps.google.com/mapfiles/kml/pushpin/ylw-pushpin.png",
                "@id": "b10ed1c7-8ded-11f1-96ec-894237f38196"
            },
            "bbox": [
                -88.547961,
                30.364636,
                -88.547961,
                30.364636
            ]
        },
        {
            "type": "Feature",
            "geometry": {
                "type": "Point",
                "coordinates": [
                    -89.244619,
                    30.310919,
                    0
                ]
            },
            "properties": {
                "name": "passChristian",
                "styleUrl": "#m_ylw-pushpin",
                "icon-scale": 1.1,
                "icon-offset": [
                    20,
                    2
                ],
                "icon-offset-units": [
                    "pixels",
                    "pixels"
                ],
                "icon": "http://maps.google.com/mapfiles/kml/pushpin/ylw-pushpin.png",
                "@id": "b10ed1c8-8ded-11f1-96ec-894237f38196"
            },
            "bbox": [
                -89.244619,
                30.310919,
                -89.244619,
                30.310919
            ]
        },
        {
            "type": "Feature",
            "geometry": {
                "type": "Point",
                "coordinates": [
                    -88.735494,
                    30.362294,
                    0
                ]
            },
            "properties": {
                "name": "nolanHome",
                "styleUrl": "#m_ylw-pushpin",
                "icon-scale": 1.1,
                "icon-offset": [
                    20,
                    2
                ],
                "icon-offset-units": [
                    "pixels",
                    "pixels"
                ],
                "icon": "http://maps.google.com/mapfiles/kml/pushpin/ylw-pushpin.png",
                "@id": "b10ed1c9-8ded-11f1-96ec-894237f38196"
            },
            "bbox": [
                -88.735494,
                30.362294,
                -88.735494,
                30.362294
            ]
        },
        {
            "type": "Feature",
            "geometry": {
                "type": "LineString",
                "coordinates": [
                    [
                        -88.777154,
                        30.243766
                    ],
                    [
                        -88.777418,
                        30.245564
                    ]
                ]
            },
            "properties": {
                "stroke-width": 1,
                "stroke-opacity": 1,
                "stroke": "rgba(204, 112, 254, 1)",
                "name": "Triton → Distress point @ 4:31 PM",
                "@id": "b10ed1cb-8ded-11f1-96ec-894237f38196"
            },
            "bbox": [
                -88.777418,
                30.243766,
                -88.777154,
                30.245564
            ]
        },
        {
            "type": "Feature",
            "geometry": {
                "type": "LineString",
                "coordinates": [
                    [
                        -88.777418,
                        30.245564
                    ],
                    [
                        -88.814554,
                        30.362578
                    ],
                    [
                        -88.847078,
                        30.406118
                    ],
                    [
                        -88.855043,
                        30.423655
                    ],
                    [
                        -88.8534,
                        30.42633
                    ]
                ]
            },
            "properties": {
                "stroke-width": 1,
                "stroke-opacity": 1,
                "stroke": "rgba(255, 172, 103, 1)",
                "name": "Triton → Distress point → Tow ends @ 5:24 PM",
                "@id": "b10ed1cc-8ded-11f1-96ec-894237f38196"
            },
            "bbox": [
                -88.855043,
                30.245564,
                -88.777418,
                30.42633
            ]
        },
        {
            "type": "Feature",
            "geometry": {
                "type": "LineString",
                "coordinates": [
                    [
                        -88.8534,
                        30.42633
                    ],
                    [
                        -88.850213,
                        30.43184
                    ],
                    [
                        -88.848666,
                        30.433312
                    ],
                    [
                        -88.848419,
                        30.434354
                    ],
                    [
                        -88.847952,
                        30.434603
                    ],
                    [
                        -88.846844,
                        30.434558
                    ]
                ]
            },
            "properties": {
                "stroke-width": 1,
                "stroke-opacity": 1,
                "stroke": "rgba(97, 255, 0, 1)",
                "name": "Triton → 5:24 PM way point → El Camino @ 5:44 PM",
                "@id": "b10ed1cd-8ded-11f1-96ec-894237f38196"
            },
            "bbox": [
                -88.8534,
                30.42633,
                -88.846844,
                30.434603
            ]
        },
        {
            "type": "Feature",
            "properties": {
                "stroke-width": 1,
                "stroke-opacity": 1,
                "stroke": "rgba(255, 206, 80, 1)",
                "name": "Triton → El Camino → Way point @ 5:52 PM",
                "@id": "c5d24260-8dee-11f1-96ec-894237f38196"
            },
            "geometry": {
                "type": "LineString",
                "coordinates": [
                    [
                        -88.846844,
                        30.434558
                    ],
                    [
                        -88.847947,
                        30.434577
                    ],
                    [
                        -88.848376,
                        30.434331
                    ]
                ]
            },
            "bbox": [
                -88.848376,
                30.434331,
                -88.846844,
                30.434577
            ]
        },
        {
            "type": "Feature",
            "properties": {
                "stroke-width": 1,
                "stroke-opacity": 1,
                "stroke": "rgba(255, 119, 253, 1)",
                "name": "Triton → Fort Bayou → Cardinal Lane @ 7:47 PM",
                "@id": "58cd8480-8def-11f1-96ec-894237f38196"
            },
            "geometry": {
                "type": "LineString",
                "coordinates": [
                    [
                        -88.827825,
                        30.419464
                    ],
                    [
                        -88.827834,
                        30.419648
                    ],
                    [
                        -88.827896,
                        30.42002
                    ],
                    [
                        -88.827989,
                        30.420391
                    ],
                    [
                        -88.828116,
                        30.420862
                    ],
                    [
                        -88.828255,
                        30.421263
                    ],
                    [
                        -88.828311,
                        30.421509
                    ],
                    [
                        -88.828558,
                        30.422239
                    ],
                    [
                        -88.828637,
                        30.422501
                    ],
                    [
                        -88.828656,
                        30.422611
                    ],
                    [
                        -88.828646,
                        30.422938
                    ],
                    [
                        -88.828618,
                        30.423199
                    ],
                    [
                        -88.828573,
                        30.423549
                    ],
                    [
                        -88.828573,
                        30.423591
                    ],
                    [
                        -88.828593,
                        30.423645
                    ],
                    [
                        -88.828641,
                        30.423689
                    ],
                    [
                        -88.828695,
                        30.423713
                    ],
                    [
                        -88.828985,
                        30.423749
                    ],
                    [
                        -88.82925,
                        30.427404
                    ],
                    [
                        -88.829177,
                        30.428984
                    ],
                    [
                        -88.829249,
                        30.429613
                    ],
                    [
                        -88.829728,
                        30.432142
                    ],
                    [
                        -88.830266,
                        30.43492
                    ],
                    [
                        -88.830325,
                        30.435124
                    ],
                    [
                        -88.830471,
                        30.435447
                    ],
                    [
                        -88.830663,
                        30.435765
                    ],
                    [
                        -88.830837,
                        30.436016
                    ],
                    [
                        -88.831015,
                        30.436197
                    ],
                    [
                        -88.834797,
                        30.439577
                    ],
                    [
                        -88.835843,
                        30.440507
                    ],
                    [
                        -88.836911,
                        30.441472
                    ],
                    [
                        -88.83826,
                        30.44269
                    ],
                    [
                        -88.838548,
                        30.443002
                    ],
                    [
                        -88.838769,
                        30.443295
                    ],
                    [
                        -88.838955,
                        30.443597
                    ],
                    [
                        -88.83917,
                        30.44407
                    ],
                    [
                        -88.839492,
                        30.444945
                    ],
                    [
                        -88.839976,
                        30.446304
                    ],
                    [
                        -88.840948,
                        30.448999
                    ],
                    [
                        -88.841944,
                        30.451719
                    ],
                    [
                        -88.842202,
                        30.452493
                    ],
                    [
                        -88.842465,
                        30.453171
                    ],
                    [
                        -88.842845,
                        30.454395
                    ],
                    [
                        -88.869788,
                        30.454201
                    ],
                    [
                        -88.885905,
                        30.454088
                    ],
                    [
                        -88.888799,
                        30.45406
                    ],
                    [
                        -88.891669,
                        30.45401
                    ],
                    [
                        -88.89277,
                        30.453944
                    ],
                    [
                        -88.893865,
                        30.453845
                    ],
                    [
                        -88.894973,
                        30.453677
                    ],
                    [
                        -88.896035,
                        30.453455
                    ],
                    [
                        -88.896929,
                        30.453251
                    ],
                    [
                        -88.898046,
                        30.45293
                    ],
                    [
                        -88.900019,
                        30.452264
                    ],
                    [
                        -88.90385,
                        30.450958
                    ],
                    [
                        -88.907734,
                        30.449614
                    ],
                    [
                        -88.912264,
                        30.448375
                    ],
                    [
                        -88.91493,
                        30.4479
                    ],
                    [
                        -88.91721,
                        30.447633
                    ],
                    [
                        -88.918621,
                        30.44753
                    ],
                    [
                        -88.919916,
                        30.447474
                    ],
                    [
                        -88.921218,
                        30.447463
                    ],
                    [
                        -88.922844,
                        30.4475
                    ],
                    [
                        -88.925913,
                        30.447742
                    ],
                    [
                        -88.929272,
                        30.44829
                    ],
                    [
                        -88.930576,
                        30.448596
                    ],
                    [
                        -88.93188,
                        30.44891
                    ],
                    [
                        -88.934275,
                        30.449645
                    ],
                    [
                        -88.936966,
                        30.450643
                    ],
                    [
                        -88.944649,
                        30.454724
                    ],
                    [
                        -88.95223,
                        30.458917
                    ],
                    [
                        -88.954093,
                        30.459653
                    ],
                    [
                        -88.956448,
                        30.460345
                    ],
                    [
                        -88.95952,
                        30.460724
                    ],
                    [
                        -88.966881,
                        30.460766
                    ],
                    [
                        -88.967968,
                        30.460878
                    ],
                    [
                        -88.970479,
                        30.461587
                    ],
                    [
                        -88.97068,
                        30.462014
                    ],
                    [
                        -88.970738,
                        30.466442
                    ],
                    [
                        -88.970778,
                        30.471027
                    ],
                    [
                        -88.972047,
                        30.470393
                    ],
                    [
                        -88.973324,
                        30.469758
                    ],
                    [
                        -88.974037,
                        30.469655
                    ],
                    [
                        -88.977723,
                        30.470346
                    ],
                    [
                        -88.978509,
                        30.470589
                    ],
                    [
                        -88.979404,
                        30.471117
                    ],
                    [
                        -88.980365,
                        30.471615
                    ],
                    [
                        -88.980778,
                        30.471699
                    ],
                    [
                        -88.980617,
                        30.467856
                    ],
                    [
                        -88.980607,
                        30.464594
                    ],
                    [
                        -88.984847,
                        30.464606
                    ],
                    [
                        -88.985752,
                        30.465399
                    ],
                    [
                        -88.985722,
                        30.466613
                    ],
                    [
                        -88.9853,
                        30.466581
                    ]
                ]
            },
            "bbox": [
                -88.985752,
                30.419464,
                -88.827825,
                30.471699
            ]
        },
        {
            "type": "Feature",
            "properties": {
                "stroke-width": 1,
                "stroke-opacity": 1,
                "stroke": "rgba(99, 255, 246, 1)",
                "name": "Triton → 5:52 PM way point → Fort Bayou @ unknown time",
                "@id": "b4a3a540-8dfa-11f1-96ec-894237f38196"
            },
            "geometry": {
                "type": "LineString",
                "coordinates": [
                    [
                        -88.848376,
                        30.434331
                    ],
                    [
                        -88.848598,
                        30.433276
                    ],
                    [
                        -88.850156,
                        30.431809
                    ],
                    [
                        -88.843329,
                        30.422176
                    ],
                    [
                        -88.831582,
                        30.418922
                    ],
                    [
                        -88.827825,
                        30.419464
                    ]
                ]
            },
            "bbox": [
                -88.850156,
                30.418922,
                -88.827825,
                30.434331
            ]
        },
        {
            "type": "Feature",
            "properties": {
                "stroke-width": 1,
                "stroke-opacity": 1,
                "stroke": "rgba(255, 252, 0, 1)",
                "name": "Triton → Fort Bayou → El Camino @ 6:06 PM",
                "@id": "b6d20180-8dfb-11f1-96ec-894237f38196"
            },
            "geometry": {
                "type": "LineString",
                "coordinates": [
                    [
                        -88.827825,
                        30.419464
                    ],
                    [
                        -88.831588,
                        30.419022
                    ],
                    [
                        -88.843227,
                        30.422288
                    ],
                    [
                        -88.85008,
                        30.431796
                    ],
                    [
                        -88.848541,
                        30.433253
                    ],
                    [
                        -88.848337,
                        30.434308
                    ],
                    [
                        -88.847937,
                        30.434552
                    ],
                    [
                        -88.846844,
                        30.434558
                    ]
                ]
            },
            "bbox": [
                -88.85008,
                30.419022,
                -88.827825,
                30.434558
            ]
        },
        {
            "type": "Feature",
            "properties": {
                "stroke-width": 1,
                "stroke-opacity": 1,
                "stroke": "rgba(206, 83, 255, 1)",
                "name": "Triton → El Camino → Saint Martin @ 6:36 PM",
                "@id": "8c5bfdb0-8dfc-11f1-96ec-894237f38196"
            },
            "geometry": {
                "type": "LineString",
                "coordinates": [
                    [
                        -88.846844,
                        30.434558
                    ],
                    [
                        -88.847961,
                        30.434627
                    ],
                    [
                        -88.848471,
                        30.434376
                    ],
                    [
                        -88.84874,
                        30.433347
                    ],
                    [
                        -88.850277,
                        30.431892
                    ],
                    [
                        -88.851212,
                        30.430334
                    ],
                    [
                        -88.865178,
                        30.427125
                    ],
                    [
                        -88.870861,
                        30.42765
                    ]
                ]
            },
            "bbox": [
                -88.870861,
                30.427125,
                -88.846844,
                30.434627
            ]
        },
        {
            "type": "Feature",
            "properties": {
                "name": "Triton → Saint Martin → Fort Bayou @ 7:19 PM",
                "stroke-width": 1,
                "stroke-opacity": 1,
                "stroke": "rgba(0, 201, 255, 1)",
                "@id": "0dcc79f0-8dfe-11f1-a3de-291f26183ca3"
            },
            "geometry": {
                "type": "LineString",
                "coordinates": [
                    [
                        -88.870861,
                        30.42765
                    ],
                    [
                        -88.868446,
                        30.42685
                    ],
                    [
                        -88.845378,
                        30.40726
                    ],
                    [
                        -88.841888,
                        30.409325
                    ],
                    [
                        -88.845106,
                        30.408153
                    ],
                    [
                        -88.854703,
                        30.423624
                    ],
                    [
                        -88.853718,
                        30.425813
                    ],
                    [
                        -88.847565,
                        30.425255
                    ],
                    [
                        -88.843425,
                        30.422049
                    ],
                    [
                        -88.831575,
                        30.418804
                    ],
                    [
                        -88.827825,
                        30.419464
                    ]
                ]
            },
            "bbox": [
                -88.870861,
                30.40726,
                -88.827825,
                30.42765
            ]
        }
    ]
}