{
    "type": "FeatureCollection",
    "features": [
        {
            "type": "Feature",
            "properties": {
                "@id": "8ac44ae0-c13a-11f1-bb4d-b732e5293d29"
            },
            "geometry": {
                "type": "LineString",
                "coordinates": [
                    [
                        -88.175096,
                        35.679449
                    ],
                    [
                        -88.175096,
                        35.679449
                    ]
                ]
            },
            "bbox": [
                -88.175096,
                35.679449,
                -88.175096,
                35.679449
            ]
        },
        {
            "type": "Feature",
            "properties": {
                "stroke-width": 1,
                "stroke-opacity": 1,
                "stroke": "rgba(149, 255, 0, 1)",
                "name": "Ping @ 8:11 AM",
                "@id": "2b64e5e0-c13b-11f1-bb4d-b732e5293d29"
            },
            "geometry": {
                "type": "LineString",
                "coordinates": [
                    [
                        -88.175106,
                        35.6795
                    ],
                    [
                        -88.175191,
                        35.679571
                    ],
                    [
                        -88.175245,
                        35.679908
                    ],
                    [
                        -88.175737,
                        35.680924
                    ],
                    [
                        -88.175998,
                        35.681457
                    ],
                    [
                        -88.176263,
                        35.681995
                    ],
                    [
                        -88.176512,
                        35.682509
                    ],
                    [
                        -88.176563,
                        35.682617
                    ],
                    [
                        -88.176615,
                        35.683003
                    ],
                    [
                        -88.176678,
                        35.683501
                    ],
                    [
                        -88.176422,
                        35.684532
                    ],
                    [
                        -88.17626,
                        35.684784
                    ],
                    [
                        -88.175206,
                        35.685397
                    ],
                    [
                        -88.174635,
                        35.685925
                    ],
                    [
                        -88.174235,
                        35.686641
                    ],
                    [
                        -88.173253,
                        35.687765
                    ],
                    [
                        -88.175224,
                        35.688504
                    ],
                    [
                        -88.175583,
                        35.688776
                    ],
                    [
                        -88.175746,
                        35.689126
                    ],
                    [
                        -88.175695,
                        35.689596
                    ],
                    [
                        -88.175404,
                        35.690489
                    ],
                    [
                        -88.175418,
                        35.691288
                    ],
                    [
                        -88.175705,
                        35.692172
                    ],
                    [
                        -88.176729,
                        35.693099
                    ],
                    [
                        -88.177151,
                        35.693876
                    ],
                    [
                        -88.177122,
                        35.694532
                    ],
                    [
                        -88.176813,
                        35.695323
                    ],
                    [
                        -88.176842,
                        35.695757
                    ],
                    [
                        -88.177032,
                        35.696049
                    ],
                    [
                        -88.177619,
                        35.696452
                    ],
                    [
                        -88.177869,
                        35.696514
                    ],
                    [
                        -88.178916,
                        35.696308
                    ],
                    [
                        -88.180171,
                        35.696242
                    ],
                    [
                        -88.180867,
                        35.695827
                    ],
                    [
                        -88.181243,
                        35.695682
                    ],
                    [
                        -88.181289,
                        35.695995
                    ],
                    [
                        -88.181845,
                        35.696899
                    ],
                    [
                        -88.182165,
                        35.697575
                    ],
                    [
                        -88.182241,
                        35.698674
                    ],
                    [
                        -88.182332,
                        35.698853
                    ],
                    [
                        -88.183028,
                        35.699614
                    ],
                    [
                        -88.18365,
                        35.70046
                    ],
                    [
                        -88.183829,
                        35.701167
                    ],
                    [
                        -88.184285,
                        35.702018
                    ],
                    [
                        -88.184858,
                        35.702419
                    ],
                    [
                        -88.1854,
                        35.702786
                    ],
                    [
                        -88.186745,
                        35.703667
                    ],
                    [
                        -88.186912,
                        35.703811
                    ],
                    [
                        -88.187183,
                        35.704062
                    ],
                    [
                        -88.187731,
                        35.704853
                    ],
                    [
                        -88.188037,
                        35.705288
                    ],
                    [
                        -88.188182,
                        35.705721
                    ],
                    [
                        -88.188323,
                        35.70796
                    ],
                    [
                        -88.189123,
                        35.708288
                    ],
                    [
                        -88.190388,
                        35.709079
                    ],
                    [
                        -88.191398,
                        35.709583
                    ],
                    [
                        -88.192537,
                        35.710152
                    ],
                    [
                        -88.193713,
                        35.710846
                    ],
                    [
                        -88.194141,
                        35.710941
                    ],
                    [
                        -88.196776,
                        35.710756
                    ],
                    [
                        -88.198848,
                        35.710257
                    ],
                    [
                        -88.199683,
                        35.710297
                    ],
                    [
                        -88.200111,
                        35.710469
                    ],
                    [
                        -88.200456,
                        35.710732
                    ],
                    [
                        -88.20091,
                        35.711677
                    ],
                    [
                        -88.201102,
                        35.712273
                    ],
                    [
                        -88.201102,
                        35.712637
                    ],
                    [
                        -88.200848,
                        35.712908
                    ],
                    [
                        -88.199438,
                        35.713322
                    ],
                    [
                        -88.199183,
                        35.713545
                    ],
                    [
                        -88.198403,
                        35.714644
                    ],
                    [
                        -88.19825,
                        35.71579
                    ],
                    [
                        -88.19807,
                        35.71719
                    ],
                    [
                        -88.197835,
                        35.717559
                    ],
                    [
                        -88.196635,
                        35.71824
                    ],
                    [
                        -88.196186,
                        35.718714
                    ],
                    [
                        -88.195491,
                        35.720002
                    ],
                    [
                        -88.195366,
                        35.720568
                    ],
                    [
                        -88.195289,
                        35.721433
                    ],
                    [
                        -88.195151,
                        35.722877
                    ],
                    [
                        -88.195145,
                        35.723934
                    ],
                    [
                        -88.195152,
                        35.72455
                    ],
                    [
                        -88.195123,
                        35.725167
                    ],
                    [
                        -88.19505,
                        35.726539
                    ],
                    [
                        -88.194713,
                        35.726447
                    ],
                    [
                        -88.194146,
                        35.726415
                    ],
                    [
                        -88.191055,
                        35.726511
                    ],
                    [
                        -88.188375,
                        35.726593
                    ],
                    [
                        -88.187697,
                        35.726616
                    ],
                    [
                        -88.18702,
                        35.726641
                    ],
                    [
                        -88.185629,
                        35.726718
                    ],
                    [
                        -88.184312,
                        35.726969
                    ],
                    [
                        -88.184224,
                        35.727038
                    ],
                    [
                        -88.184311,
                        35.727156
                    ],
                    [
                        -88.184311,
                        35.727533
                    ],
                    [
                        -88.184562,
                        35.728295
                    ],
                    [
                        -88.184679,
                        35.72895
                    ],
                    [
                        -88.184815,
                        35.729486
                    ],
                    [
                        -88.185234,
                        35.730123
                    ],
                    [
                        -88.186245,
                        35.731
                    ],
                    [
                        -88.187174,
                        35.731456
                    ],
                    [
                        -88.18757,
                        35.731828
                    ],
                    [
                        -88.187845,
                        35.732255
                    ],
                    [
                        -88.187796,
                        35.733122
                    ],
                    [
                        -88.187679,
                        35.733496
                    ],
                    [
                        -88.187786,
                        35.734531
                    ],
                    [
                        -88.187878,
                        35.735103
                    ],
                    [
                        -88.187963,
                        35.735145
                    ],
                    [
                        -88.187988,
                        35.735369
                    ],
                    [
                        -88.19063,
                        35.738693
                    ],
                    [
                        -88.190795,
                        35.739052
                    ],
                    [
                        -88.191385,
                        35.739815
                    ],
                    [
                        -88.191834,
                        35.740863
                    ],
                    [
                        -88.192177,
                        35.742106
                    ],
                    [
                        -88.192259,
                        35.742149
                    ],
                    [
                        -88.192625,
                        35.743474
                    ],
                    [
                        -88.193293,
                        35.745894
                    ],
                    [
                        -88.19352,
                        35.74675
                    ],
                    [
                        -88.193552,
                        35.747388
                    ],
                    [
                        -88.193844,
                        35.748506
                    ],
                    [
                        -88.193995,
                        35.749077
                    ],
                    [
                        -88.194111,
                        35.749535
                    ],
                    [
                        -88.194116,
                        35.750049
                    ],
                    [
                        -88.194002,
                        35.750448
                    ],
                    [
                        -88.193305,
                        35.751322
                    ],
                    [
                        -88.192735,
                        35.751672
                    ],
                    [
                        -88.193101,
                        35.75435
                    ],
                    [
                        -88.193556,
                        35.755946
                    ],
                    [
                        -88.193803,
                        35.756796
                    ],
                    [
                        -88.19381,
                        35.757345
                    ],
                    [
                        -88.193634,
                        35.757577
                    ],
                    [
                        -88.193106,
                        35.75798
                    ],
                    [
                        -88.192762,
                        35.758243
                    ],
                    [
                        -88.192399,
                        35.758517
                    ],
                    [
                        -88.192084,
                        35.75904
                    ],
                    [
                        -88.191868,
                        35.759407
                    ],
                    [
                        -88.191585,
                        35.761078
                    ],
                    [
                        -88.191085,
                        35.762244
                    ],
                    [
                        -88.190698,
                        35.762908
                    ],
                    [
                        -88.190506,
                        35.763245
                    ],
                    [
                        -88.190297,
                        35.763568
                    ]
                ]
            },
            "bbox": [
                -88.201102,
                35.6795,
                -88.173253,
                35.763568
            ]
        },
        {
            "type": "Feature",
            "properties": {
                "name": "Ping @ 8:16 AM",
                "stroke-width": 1,
                "stroke-opacity": 1,
                "stroke": "rgba(255, 200, 105, 1)",
                "@id": "144782c0-c13e-11f1-bb4d-b732e5293d29"
            },
            "geometry": {
                "type": "LineString",
                "coordinates": [
                    [
                        -88.190297,
                        35.763568
                    ],
                    [
                        -88.190092,
                        35.763519
                    ],
                    [
                        -88.189275,
                        35.763272
                    ],
                    [
                        -88.188604,
                        35.763187
                    ],
                    [
                        -88.188094,
                        35.763156
                    ],
                    [
                        -88.187138,
                        35.763227
                    ],
                    [
                        -88.186209,
                        35.763265
                    ],
                    [
                        -88.185691,
                        35.763191
                    ],
                    [
                        -88.185325,
                        35.763111
                    ],
                    [
                        -88.183179,
                        35.761958
                    ],
                    [
                        -88.182234,
                        35.761436
                    ],
                    [
                        -88.181632,
                        35.761133
                    ],
                    [
                        -88.180986,
                        35.760836
                    ],
                    [
                        -88.179566,
                        35.76016
                    ],
                    [
                        -88.178102,
                        35.759411
                    ],
                    [
                        -88.176514,
                        35.758585
                    ],
                    [
                        -88.175931,
                        35.758223
                    ],
                    [
                        -88.175529,
                        35.757914
                    ],
                    [
                        -88.175193,
                        35.757615
                    ],
                    [
                        -88.174565,
                        35.756945
                    ],
                    [
                        -88.17451,
                        35.75843
                    ],
                    [
                        -88.174655,
                        35.759402
                    ],
                    [
                        -88.174596,
                        35.760392
                    ],
                    [
                        -88.174377,
                        35.760853
                    ],
                    [
                        -88.174186,
                        35.761236
                    ],
                    [
                        -88.174176,
                        35.761615
                    ],
                    [
                        -88.174536,
                        35.763154
                    ],
                    [
                        -88.174581,
                        35.76424
                    ],
                    [
                        -88.174638,
                        35.765325
                    ],
                    [
                        -88.174936,
                        35.765843
                    ],
                    [
                        -88.175198,
                        35.766214
                    ],
                    [
                        -88.175259,
                        35.766581
                    ],
                    [
                        -88.175292,
                        35.767188
                    ],
                    [
                        -88.175313,
                        35.768124
                    ],
                    [
                        -88.175317,
                        35.769056
                    ],
                    [
                        -88.175314,
                        35.769988
                    ],
                    [
                        -88.175309,
                        35.770449
                    ],
                    [
                        -88.175303,
                        35.77092
                    ],
                    [
                        -88.175299,
                        35.771413
                    ],
                    [
                        -88.175254,
                        35.771851
                    ],
                    [
                        -88.175162,
                        35.772778
                    ],
                    [
                        -88.175212,
                        35.773989
                    ],
                    [
                        -88.175317,
                        35.774498
                    ],
                    [
                        -88.175614,
                        35.775133
                    ],
                    [
                        -88.175923,
                        35.77554
                    ],
                    [
                        -88.176548,
                        35.775988
                    ],
                    [
                        -88.17702,
                        35.776345
                    ],
                    [
                        -88.177375,
                        35.776704
                    ],
                    [
                        -88.17757,
                        35.777121
                    ],
                    [
                        -88.177548,
                        35.777531
                    ],
                    [
                        -88.177358,
                        35.777983
                    ],
                    [
                        -88.177399,
                        35.778162
                    ],
                    [
                        -88.177444,
                        35.778362
                    ],
                    [
                        -88.177521,
                        35.778684
                    ],
                    [
                        -88.177606,
                        35.779023
                    ],
                    [
                        -88.177696,
                        35.779387
                    ],
                    [
                        -88.177783,
                        35.779751
                    ],
                    [
                        -88.177871,
                        35.780093
                    ],
                    [
                        -88.177909,
                        35.780732
                    ],
                    [
                        -88.17793,
                        35.781093
                    ],
                    [
                        -88.177965,
                        35.781702
                    ]
                ]
            },
            "bbox": [
                -88.190297,
                35.756945,
                -88.174176,
                35.781702
            ]
        },
        {
            "type": "Feature",
            "properties": {
                "stroke-width": 1,
                "stroke-opacity": 1,
                "stroke": "rgba(128, 255, 0, 1)",
                "name": "Ping @ 8:26 AM",
                "@id": "c9431340-c140-11f1-bb4d-b732e5293d29"
            },
            "geometry": {
                "type": "LineString",
                "coordinates": [
                    [
                        -88.177965,
                        35.781702
                    ],
                    [
                        -88.177983,
                        35.782004
                    ],
                    [
                        -88.177962,
                        35.782382
                    ],
                    [
                        -88.178162,
                        35.783882
                    ],
                    [
                        -88.178233,
                        35.784363
                    ],
                    [
                        -88.178264,
                        35.784717
                    ],
                    [
                        -88.178323,
                        35.785398
                    ],
                    [
                        -88.178426,
                        35.786573
                    ],
                    [
                        -88.178474,
                        35.787156
                    ],
                    [
                        -88.178529,
                        35.787754
                    ],
                    [
                        -88.178546,
                        35.787988
                    ],
                    [
                        -88.178556,
                        35.788223
                    ],
                    [
                        -88.178573,
                        35.788742
                    ],
                    [
                        -88.178402,
                        35.789157
                    ],
                    [
                        -88.178216,
                        35.78957
                    ],
                    [
                        -88.177306,
                        35.790502
                    ],
                    [
                        -88.177154,
                        35.790751
                    ],
                    [
                        -88.177132,
                        35.790967
                    ],
                    [
                        -88.177192,
                        35.791244
                    ],
                    [
                        -88.17752,
                        35.791985
                    ],
                    [
                        -88.177949,
                        35.79298
                    ],
                    [
                        -88.178004,
                        35.793303
                    ],
                    [
                        -88.178012,
                        35.793592
                    ],
                    [
                        -88.177826,
                        35.794184
                    ],
                    [
                        -88.177662,
                        35.794805
                    ],
                    [
                        -88.177614,
                        35.795954
                    ],
                    [
                        -88.177589,
                        35.796533
                    ],
                    [
                        -88.177569,
                        35.796975
                    ],
                    [
                        -88.177524,
                        35.797992
                    ],
                    [
                        -88.177317,
                        35.798985
                    ],
                    [
                        -88.177127,
                        35.799937
                    ],
                    [
                        -88.177058,
                        35.800328
                    ],
                    [
                        -88.177119,
                        35.800782
                    ],
                    [
                        -88.177196,
                        35.801398
                    ],
                    [
                        -88.177411,
                        35.80177
                    ],
                    [
                        -88.177667,
                        35.802205
                    ],
                    [
                        -88.177893,
                        35.802724
                    ],
                    [
                        -88.177981,
                        35.80293
                    ],
                    [
                        -88.178097,
                        35.803429
                    ],
                    [
                        -88.178046,
                        35.803846
                    ],
                    [
                        -88.177981,
                        35.804304
                    ],
                    [
                        -88.177586,
                        35.805569
                    ],
                    [
                        -88.177428,
                        35.806131
                    ],
                    [
                        -88.177279,
                        35.806694
                    ],
                    [
                        -88.176959,
                        35.807885
                    ],
                    [
                        -88.176761,
                        35.808484
                    ],
                    [
                        -88.176561,
                        35.809083
                    ],
                    [
                        -88.176609,
                        35.809821
                    ],
                    [
                        -88.176667,
                        35.810569
                    ],
                    [
                        -88.176503,
                        35.81177
                    ],
                    [
                        -88.176214,
                        35.812815
                    ]
                ]
            },
            "bbox": [
                -88.178573,
                35.781702,
                -88.176214,
                35.812815
            ]
        },
        {
            "type": "Feature",
            "properties": {
                "stroke-width": 1,
                "stroke-opacity": 1,
                "stroke": "rgba(255, 198, 55, 1)",
                "name": "Ping @ 9 AM",
                "@id": "d9e38e40-c141-11f1-bb4d-b732e5293d29"
            },
            "geometry": {
                "type": "LineString",
                "coordinates": [
                    [
                        -88.176214,
                        35.812815
                    ],
                    [
                        -88.17635,
                        35.813627
                    ],
                    [
                        -88.176463,
                        35.814084
                    ],
                    [
                        -88.17653,
                        35.814356
                    ],
                    [
                        -88.176351,
                        35.815523
                    ],
                    [
                        -88.176248,
                        35.81618
                    ],
                    [
                        -88.176241,
                        35.816565
                    ],
                    [
                        -88.176401,
                        35.816931
                    ],
                    [
                        -88.176701,
                        35.817243
                    ],
                    [
                        -88.177038,
                        35.817495
                    ],
                    [
                        -88.177382,
                        35.817739
                    ],
                    [
                        -88.177591,
                        35.817986
                    ],
                    [
                        -88.177779,
                        35.818314
                    ],
                    [
                        -88.177895,
                        35.818849
                    ],
                    [
                        -88.173822,
                        35.819467
                    ],
                    [
                        -88.172615,
                        35.819646
                    ],
                    [
                        -88.172039,
                        35.819736
                    ],
                    [
                        -88.171568,
                        35.819786
                    ],
                    [
                        -88.17058,
                        35.819872
                    ],
                    [
                        -88.17,
                        35.819922
                    ],
                    [
                        -88.169401,
                        35.819943
                    ],
                    [
                        -88.168523,
                        35.819947
                    ],
                    [
                        -88.167856,
                        35.819929
                    ],
                    [
                        -88.166041,
                        35.819809
                    ],
                    [
                        -88.164173,
                        35.819654
                    ],
                    [
                        -88.162356,
                        35.819515
                    ],
                    [
                        -88.160594,
                        35.819373
                    ],
                    [
                        -88.152383,
                        35.818721
                    ],
                    [
                        -88.151375,
                        35.818649
                    ]
                ]
            },
            "bbox": [
                -88.177895,
                35.812815,
                -88.151375,
                35.819947
            ]
        },
        {
            "type": "Feature",
            "properties": {
                "stroke-width": 1,
                "stroke-opacity": 1,
                "stroke": "rgba(106, 254, 0, 1)",
                "name": "Ping @ 9:06 AM",
                "@id": "b5c6c120-c142-11f1-bb4d-b732e5293d29"
            },
            "geometry": {
                "type": "LineString",
                "coordinates": [
                    [
                        -88.151375,
                        35.818649
                    ],
                    [
                        -88.151572,
                        35.818408
                    ],
                    [
                        -88.151767,
                        35.818155
                    ],
                    [
                        -88.15103,
                        35.818224
                    ],
                    [
                        -88.150385,
                        35.818287
                    ],
                    [
                        -88.149462,
                        35.818278
                    ],
                    [
                        -88.148773,
                        35.818285
                    ],
                    [
                        -88.148246,
                        35.818292
                    ],
                    [
                        -88.147893,
                        35.818317
                    ],
                    [
                        -88.147222,
                        35.818375
                    ],
                    [
                        -88.146558,
                        35.818442
                    ],
                    [
                        -88.145933,
                        35.818524
                    ],
                    [
                        -88.145685,
                        35.81856
                    ],
                    [
                        -88.145408,
                        35.818609
                    ],
                    [
                        -88.144776,
                        35.81873
                    ],
                    [
                        -88.144184,
                        35.818848
                    ],
                    [
                        -88.143923,
                        35.81891
                    ],
                    [
                        -88.143367,
                        35.819055
                    ],
                    [
                        -88.142583,
                        35.819261
                    ],
                    [
                        -88.141595,
                        35.81952
                    ],
                    [
                        -88.140752,
                        35.819741
                    ],
                    [
                        -88.139368,
                        35.8201
                    ],
                    [
                        -88.138592,
                        35.820302
                    ],
                    [
                        -88.137827,
                        35.820502
                    ],
                    [
                        -88.136267,
                        35.820904
                    ]
                ]
            },
            "bbox": [
                -88.151767,
                35.818155,
                -88.136267,
                35.820904
            ]
        },
        {
            "type": "Feature",
            "properties": {
                "stroke-width": 1,
                "stroke-opacity": 1,
                "stroke": "rgba(255, 193, 68, 1)",
                "name": "Ping @ 9:10 AM ",
                "@id": "414979e0-c143-11f1-bb4d-b732e5293d29"
            },
            "geometry": {
                "type": "LineString",
                "coordinates": [
                    [
                        -88.136266,
                        35.820904
                    ],
                    [
                        -88.13565,
                        35.82106
                    ],
                    [
                        -88.135396,
                        35.82112
                    ],
                    [
                        -88.135182,
                        35.821138
                    ],
                    [
                        -88.134957,
                        35.821147
                    ],
                    [
                        -88.134646,
                        35.821126
                    ],
                    [
                        -88.134292,
                        35.821071
                    ],
                    [
                        -88.133935,
                        35.820971
                    ],
                    [
                        -88.133719,
                        35.820884
                    ],
                    [
                        -88.133432,
                        35.820718
                    ],
                    [
                        -88.133136,
                        35.820535
                    ],
                    [
                        -88.132854,
                        35.820338
                    ],
                    [
                        -88.132571,
                        35.820131
                    ],
                    [
                        -88.132269,
                        35.819802
                    ],
                    [
                        -88.132136,
                        35.819591
                    ],
                    [
                        -88.13194,
                        35.819301
                    ],
                    [
                        -88.131755,
                        35.819055
                    ],
                    [
                        -88.131558,
                        35.818798
                    ],
                    [
                        -88.131356,
                        35.818599
                    ],
                    [
                        -88.131127,
                        35.8184
                    ],
                    [
                        -88.130849,
                        35.818211
                    ],
                    [
                        -88.13064,
                        35.818114
                    ],
                    [
                        -88.130226,
                        35.817954
                    ],
                    [
                        -88.129558,
                        35.817716
                    ],
                    [
                        -88.129136,
                        35.817588
                    ],
                    [
                        -88.128723,
                        35.817441
                    ],
                    [
                        -88.128111,
                        35.817116
                    ],
                    [
                        -88.127935,
                        35.816979
                    ],
                    [
                        -88.12751,
                        35.816477
                    ],
                    [
                        -88.127024,
                        35.815935
                    ],
                    [
                        -88.126557,
                        35.815509
                    ],
                    [
                        -88.12622,
                        35.814926
                    ],
                    [
                        -88.125863,
                        35.814412
                    ],
                    [
                        -88.125614,
                        35.813748
                    ],
                    [
                        -88.125492,
                        35.813414
                    ],
                    [
                        -88.125216,
                        35.812879
                    ],
                    [
                        -88.124543,
                        35.812167
                    ],
                    [
                        -88.123833,
                        35.811692
                    ],
                    [
                        -88.123086,
                        35.811185
                    ],
                    [
                        -88.123119,
                        35.810896
                    ],
                    [
                        -88.123087,
                        35.810532
                    ],
                    [
                        -88.122788,
                        35.809434
                    ],
                    [
                        -88.122564,
                        35.808649
                    ],
                    [
                        -88.122392,
                        35.808339
                    ],
                    [
                        -88.121441,
                        35.807262
                    ],
                    [
                        -88.121123,
                        35.806915
                    ],
                    [
                        -88.120684,
                        35.806117
                    ],
                    [
                        -88.121159,
                        35.805828
                    ],
                    [
                        -88.121336,
                        35.805761
                    ],
                    [
                        -88.122152,
                        35.805762
                    ],
                    [
                        -88.122765,
                        35.805765
                    ],
                    [
                        -88.123018,
                        35.805681
                    ],
                    [
                        -88.123233,
                        35.805567
                    ],
                    [
                        -88.123422,
                        35.80535
                    ],
                    [
                        -88.123655,
                        35.804778
                    ],
                    [
                        -88.124014,
                        35.804594
                    ],
                    [
                        -88.124198,
                        35.804464
                    ],
                    [
                        -88.124777,
                        35.803808
                    ],
                    [
                        -88.125029,
                        35.80376
                    ],
                    [
                        -88.125449,
                        35.802652
                    ],
                    [
                        -88.126142,
                        35.80172
                    ],
                    [
                        -88.127334,
                        35.800909
                    ],
                    [
                        -88.127581,
                        35.800552
                    ],
                    [
                        -88.127609,
                        35.799802
                    ],
                    [
                        -88.127499,
                        35.799097
                    ],
                    [
                        -88.127606,
                        35.798734
                    ],
                    [
                        -88.128085,
                        35.797888
                    ],
                    [
                        -88.128401,
                        35.797505
                    ],
                    [
                        -88.128681,
                        35.797164
                    ],
                    [
                        -88.127707,
                        35.797013
                    ],
                    [
                        -88.126716,
                        35.796856
                    ],
                    [
                        -88.125648,
                        35.796147
                    ],
                    [
                        -88.125028,
                        35.795285
                    ],
                    [
                        -88.124492,
                        35.794288
                    ],
                    [
                        -88.123851,
                        35.794016
                    ],
                    [
                        -88.123238,
                        35.793741
                    ],
                    [
                        -88.121993,
                        35.793155
                    ],
                    [
                        -88.121856,
                        35.793027
                    ],
                    [
                        -88.121659,
                        35.792778
                    ],
                    [
                        -88.12147,
                        35.792548
                    ],
                    [
                        -88.121034,
                        35.792065
                    ],
                    [
                        -88.120982,
                        35.791929
                    ],
                    [
                        -88.120998,
                        35.791569
                    ],
                    [
                        -88.121004,
                        35.791311
                    ],
                    [
                        -88.12095,
                        35.791069
                    ],
                    [
                        -88.120609,
                        35.790819
                    ],
                    [
                        -88.120352,
                        35.790617
                    ],
                    [
                        -88.119877,
                        35.790026
                    ],
                    [
                        -88.119689,
                        35.789852
                    ],
                    [
                        -88.118892,
                        35.789534
                    ],
                    [
                        -88.118336,
                        35.78931
                    ],
                    [
                        -88.117586,
                        35.788847
                    ],
                    [
                        -88.117116,
                        35.788558
                    ],
                    [
                        -88.11661,
                        35.788416
                    ],
                    [
                        -88.115737,
                        35.788348
                    ],
                    [
                        -88.115075,
                        35.788485
                    ],
                    [
                        -88.114439,
                        35.788681
                    ],
                    [
                        -88.11403,
                        35.788632
                    ],
                    [
                        -88.112416,
                        35.788856
                    ],
                    [
                        -88.111332,
                        35.788911
                    ],
                    [
                        -88.110092,
                        35.788972
                    ],
                    [
                        -88.109948,
                        35.788931
                    ],
                    [
                        -88.109858,
                        35.788782
                    ],
                    [
                        -88.10987,
                        35.78843
                    ],
                    [
                        -88.109701,
                        35.787917
                    ],
                    [
                        -88.109658,
                        35.787557
                    ],
                    [
                        -88.109147,
                        35.786594
                    ],
                    [
                        -88.108617,
                        35.786467
                    ],
                    [
                        -88.10746,
                        35.786329
                    ],
                    [
                        -88.107204,
                        35.786244
                    ],
                    [
                        -88.106953,
                        35.786044
                    ],
                    [
                        -88.106667,
                        35.78577
                    ],
                    [
                        -88.105788,
                        35.784733
                    ],
                    [
                        -88.105607,
                        35.784678
                    ],
                    [
                        -88.104637,
                        35.784646
                    ],
                    [
                        -88.10415,
                        35.784558
                    ],
                    [
                        -88.103639,
                        35.784263
                    ],
                    [
                        -88.103155,
                        35.783841
                    ],
                    [
                        -88.103085,
                        35.783668
                    ],
                    [
                        -88.103081,
                        35.783505
                    ],
                    [
                        -88.103339,
                        35.783114
                    ],
                    [
                        -88.10342,
                        35.782833
                    ],
                    [
                        -88.103372,
                        35.782293
                    ],
                    [
                        -88.103452,
                        35.781838
                    ],
                    [
                        -88.103424,
                        35.781611
                    ],
                    [
                        -88.103055,
                        35.781051
                    ],
                    [
                        -88.10294,
                        35.780688
                    ],
                    [
                        -88.102809,
                        35.780526
                    ],
                    [
                        -88.102024,
                        35.780049
                    ],
                    [
                        -88.099763,
                        35.778412
                    ],
                    [
                        -88.099367,
                        35.778024
                    ],
                    [
                        -88.099138,
                        35.777711
                    ],
                    [
                        -88.098927,
                        35.777039
                    ],
                    [
                        -88.098841,
                        35.776674
                    ],
                    [
                        -88.098722,
                        35.776159
                    ],
                    [
                        -88.098593,
                        35.77593
                    ],
                    [
                        -88.0984,
                        35.775744
                    ],
                    [
                        -88.097964,
                        35.775323
                    ],
                    [
                        -88.097668,
                        35.775046
                    ],
                    [
                        -88.097262,
                        35.774704
                    ],
                    [
                        -88.097129,
                        35.774542
                    ]
                ]
            },
            "bbox": [
                -88.136266,
                35.774542,
                -88.097129,
                35.821147
            ]
        },
        {
            "type": "Feature",
            "properties": {
                "stroke-width": 1,
                "stroke": "rgba(89, 255, 0, 1)",
                "stroke-opacity": 1,
                "name": "Final ping @ 9:25 AM",
                "@id": "455759a0-c146-11f1-bb4d-b732e5293d29"
            },
            "geometry": {
                "type": "LineString",
                "coordinates": [
                    [
                        -88.097129,
                        35.774542
                    ],
                    [
                        -88.096931,
                        35.774303
                    ],
                    [
                        -88.097047,
                        35.774035
                    ],
                    [
                        -88.09722,
                        35.773571
                    ],
                    [
                        -88.097303,
                        35.772987
                    ],
                    [
                        -88.097376,
                        35.772421
                    ],
                    [
                        -88.097437,
                        35.771962
                    ],
                    [
                        -88.097605,
                        35.771231
                    ],
                    [
                        -88.097722,
                        35.770697
                    ],
                    [
                        -88.097832,
                        35.770233
                    ],
                    [
                        -88.097904,
                        35.769872
                    ],
                    [
                        -88.098026,
                        35.769766
                    ],
                    [
                        -88.098284,
                        35.769664
                    ],
                    [
                        -88.098804,
                        35.769606
                    ],
                    [
                        -88.098972,
                        35.769588
                    ],
                    [
                        -88.099324,
                        35.769492
                    ],
                    [
                        -88.099935,
                        35.769154
                    ],
                    [
                        -88.100208,
                        35.768902
                    ],
                    [
                        -88.100484,
                        35.768645
                    ],
                    [
                        -88.10075,
                        35.768455
                    ],
                    [
                        -88.101152,
                        35.768205
                    ],
                    [
                        -88.101893,
                        35.767753
                    ],
                    [
                        -88.102028,
                        35.767599
                    ],
                    [
                        -88.102084,
                        35.767479
                    ],
                    [
                        -88.102151,
                        35.76734
                    ],
                    [
                        -88.102272,
                        35.767208
                    ],
                    [
                        -88.10281,
                        35.766823
                    ],
                    [
                        -88.103028,
                        35.766667
                    ],
                    [
                        -88.103255,
                        35.766552
                    ],
                    [
                        -88.103531,
                        35.766467
                    ],
                    [
                        -88.103948,
                        35.766336
                    ],
                    [
                        -88.104223,
                        35.766277
                    ],
                    [
                        -88.104638,
                        35.766354
                    ],
                    [
                        -88.105838,
                        35.766417
                    ],
                    [
                        -88.106818,
                        35.766329
                    ],
                    [
                        -88.10706,
                        35.765948
                    ],
                    [
                        -88.10738,
                        35.765442
                    ],
                    [
                        -88.107409,
                        35.765152
                    ],
                    [
                        -88.107371,
                        35.764885
                    ],
                    [
                        -88.107209,
                        35.764421
                    ],
                    [
                        -88.107196,
                        35.764258
                    ],
                    [
                        -88.107559,
                        35.763759
                    ],
                    [
                        -88.107632,
                        35.763569
                    ],
                    [
                        -88.107643,
                        35.762906
                    ],
                    [
                        -88.107531,
                        35.762659
                    ],
                    [
                        -88.107283,
                        35.762431
                    ],
                    [
                        -88.107016,
                        35.76231
                    ],
                    [
                        -88.106868,
                        35.762156
                    ],
                    [
                        -88.106593,
                        35.76154
                    ],
                    [
                        -88.106482,
                        35.761288
                    ],
                    [
                        -88.106445,
                        35.761141
                    ],
                    [
                        -88.106324,
                        35.760617
                    ],
                    [
                        -88.106157,
                        35.76038
                    ],
                    [
                        -88.105927,
                        35.760168
                    ],
                    [
                        -88.105775,
                        35.760133
                    ],
                    [
                        -88.105645,
                        35.760066
                    ],
                    [
                        -88.105568,
                        35.759923
                    ],
                    [
                        -88.105527,
                        35.759682
                    ],
                    [
                        -88.105553,
                        35.759518
                    ],
                    [
                        -88.105859,
                        35.758767
                    ],
                    [
                        -88.10596,
                        35.758517
                    ],
                    [
                        -88.106042,
                        35.757893
                    ],
                    [
                        -88.10605,
                        35.757676
                    ],
                    [
                        -88.106047,
                        35.757363
                    ],
                    [
                        -88.106034,
                        35.757069
                    ],
                    [
                        -88.106017,
                        35.756775
                    ],
                    [
                        -88.105986,
                        35.756479
                    ],
                    [
                        -88.105902,
                        35.755849
                    ],
                    [
                        -88.10579,
                        35.75542
                    ],
                    [
                        -88.105934,
                        35.755505
                    ],
                    [
                        -88.106321,
                        35.755581
                    ],
                    [
                        -88.106633,
                        35.755644
                    ],
                    [
                        -88.106868,
                        35.755651
                    ],
                    [
                        -88.107396,
                        35.755537
                    ],
                    [
                        -88.108068,
                        35.755363
                    ],
                    [
                        -88.108396,
                        35.755275
                    ],
                    [
                        -88.108665,
                        35.755225
                    ],
                    [
                        -88.109026,
                        35.755281
                    ],
                    [
                        -88.109342,
                        35.755408
                    ],
                    [
                        -88.109679,
                        35.755718
                    ],
                    [
                        -88.109985,
                        35.756066
                    ],
                    [
                        -88.110289,
                        35.756411
                    ],
                    [
                        -88.111687,
                        35.756163
                    ],
                    [
                        -88.112029,
                        35.756028
                    ],
                    [
                        -88.112206,
                        35.755881
                    ],
                    [
                        -88.112402,
                        35.755745
                    ],
                    [
                        -88.113324,
                        35.755117
                    ],
                    [
                        -88.113622,
                        35.755062
                    ],
                    [
                        -88.113957,
                        35.755032
                    ],
                    [
                        -88.114833,
                        35.755027
                    ],
                    [
                        -88.115694,
                        35.755027
                    ],
                    [
                        -88.116177,
                        35.755024
                    ],
                    [
                        -88.116358,
                        35.754945
                    ],
                    [
                        -88.116636,
                        35.754779
                    ],
                    [
                        -88.117353,
                        35.754334
                    ],
                    [
                        -88.117697,
                        35.75422
                    ],
                    [
                        -88.118461,
                        35.754097
                    ],
                    [
                        -88.119379,
                        35.753972
                    ],
                    [
                        -88.120024,
                        35.753885
                    ],
                    [
                        -88.120615,
                        35.753807
                    ],
                    [
                        -88.121164,
                        35.753732
                    ],
                    [
                        -88.121703,
                        35.753638
                    ],
                    [
                        -88.122115,
                        35.753572
                    ],
                    [
                        -88.122482,
                        35.753489
                    ],
                    [
                        -88.123162,
                        35.75333
                    ],
                    [
                        -88.123455,
                        35.753237
                    ],
                    [
                        -88.124023,
                        35.753329
                    ],
                    [
                        -88.124828,
                        35.753699
                    ],
                    [
                        -88.12525,
                        35.753841
                    ],
                    [
                        -88.125752,
                        35.753848
                    ],
                    [
                        -88.126583,
                        35.753795
                    ],
                    [
                        -88.127282,
                        35.753828
                    ],
                    [
                        -88.127597,
                        35.754209
                    ],
                    [
                        -88.127818,
                        35.754691
                    ],
                    [
                        -88.128024,
                        35.75522
                    ],
                    [
                        -88.12797,
                        35.756315
                    ],
                    [
                        -88.128226,
                        35.75716
                    ],
                    [
                        -88.128421,
                        35.757506
                    ],
                    [
                        -88.128806,
                        35.757894
                    ],
                    [
                        -88.129159,
                        35.758043
                    ],
                    [
                        -88.129624,
                        35.758125
                    ],
                    [
                        -88.130118,
                        35.758092
                    ],
                    [
                        -88.130567,
                        35.758062
                    ],
                    [
                        -88.130975,
                        35.758106
                    ],
                    [
                        -88.131346,
                        35.758253
                    ],
                    [
                        -88.131687,
                        35.75859
                    ],
                    [
                        -88.131927,
                        35.758823
                    ],
                    [
                        -88.132324,
                        35.759109
                    ],
                    [
                        -88.132675,
                        35.759302
                    ],
                    [
                        -88.133227,
                        35.759562
                    ],
                    [
                        -88.13345,
                        35.759943
                    ],
                    [
                        -88.13375,
                        35.760282
                    ],
                    [
                        -88.134216,
                        35.760284
                    ],
                    [
                        -88.134374,
                        35.760202
                    ],
                    [
                        -88.134552,
                        35.76002
                    ],
                    [
                        -88.134721,
                        35.759828
                    ],
                    [
                        -88.135045,
                        35.759439
                    ],
                    [
                        -88.1359,
                        35.75901
                    ],
                    [
                        -88.136008,
                        35.758778
                    ],
                    [
                        -88.136604,
                        35.757454
                    ],
                    [
                        -88.13666,
                        35.756608
                    ],
                    [
                        -88.136504,
                        35.755941
                    ],
                    [
                        -88.136276,
                        35.754973
                    ],
                    [
                        -88.136186,
                        35.754597
                    ],
                    [
                        -88.136349,
                        35.75416
                    ],
                    [
                        -88.136674,
                        35.753922
                    ],
                    [
                        -88.13747,
                        35.753607
                    ],
                    [
                        -88.137845,
                        35.753502
                    ],
                    [
                        -88.138284,
                        35.753239
                    ],
                    [
                        -88.138661,
                        35.752969
                    ],
                    [
                        -88.139033,
                        35.75269
                    ],
                    [
                        -88.139675,
                        35.752113
                    ],
                    [
                        -88.139916,
                        35.751902
                    ],
                    [
                        -88.140344,
                        35.751553
                    ],
                    [
                        -88.140724,
                        35.751082
                    ],
                    [
                        -88.141157,
                        35.750545
                    ],
                    [
                        -88.142179,
                        35.750452
                    ],
                    [
                        -88.143522,
                        35.750543
                    ],
                    [
                        -88.144914,
                        35.750634
                    ],
                    [
                        -88.146007,
                        35.750672
                    ],
                    [
                        -88.146678,
                        35.750694
                    ],
                    [
                        -88.14716,
                        35.750719
                    ],
                    [
                        -88.147922,
                        35.750768
                    ],
                    [
                        -88.148278,
                        35.750789
                    ],
                    [
                        -88.148642,
                        35.750818
                    ],
                    [
                        -88.14881,
                        35.750834
                    ],
                    [
                        -88.148937,
                        35.750844
                    ],
                    [
                        -88.148811,
                        35.750343
                    ],
                    [
                        -88.148773,
                        35.75018
                    ],
                    [
                        -88.148788,
                        35.749816
                    ],
                    [
                        -88.148806,
                        35.749475
                    ],
                    [
                        -88.148823,
                        35.749112
                    ],
                    [
                        -88.148837,
                        35.748879
                    ],
                    [
                        -88.14883,
                        35.748666
                    ],
                    [
                        -88.148828,
                        35.74822
                    ],
                    [
                        -88.148825,
                        35.748039
                    ],
                    [
                        -88.148757,
                        35.747774
                    ],
                    [
                        -88.148649,
                        35.747325
                    ],
                    [
                        -88.148591,
                        35.747077
                    ],
                    [
                        -88.148346,
                        35.74663
                    ],
                    [
                        -88.148126,
                        35.746226
                    ],
                    [
                        -88.147855,
                        35.74581
                    ],
                    [
                        -88.147445,
                        35.745185
                    ],
                    [
                        -88.147201,
                        35.744809
                    ],
                    [
                        -88.14684,
                        35.744143
                    ],
                    [
                        -88.147349,
                        35.744266
                    ],
                    [
                        -88.147516,
                        35.744291
                    ],
                    [
                        -88.147724,
                        35.744301
                    ],
                    [
                        -88.148069,
                        35.744311
                    ],
                    [
                        -88.148665,
                        35.74429
                    ],
                    [
                        -88.149022,
                        35.744264
                    ],
                    [
                        -88.149557,
                        35.744188
                    ],
                    [
                        -88.150081,
                        35.744156
                    ],
                    [
                        -88.150393,
                        35.744175
                    ],
                    [
                        -88.150707,
                        35.744213
                    ],
                    [
                        -88.151419,
                        35.744368
                    ],
                    [
                        -88.152396,
                        35.744576
                    ],
                    [
                        -88.153979,
                        35.744919
                    ],
                    [
                        -88.155778,
                        35.745269
                    ],
                    [
                        -88.156065,
                        35.745321
                    ],
                    [
                        -88.156863,
                        35.745535
                    ],
                    [
                        -88.157284,
                        35.745711
                    ],
                    [
                        -88.157798,
                        35.746063
                    ],
                    [
                        -88.158795,
                        35.746724
                    ],
                    [
                        -88.159362,
                        35.747093
                    ],
                    [
                        -88.159915,
                        35.747471
                    ],
                    [
                        -88.160631,
                        35.747963
                    ],
                    [
                        -88.161036,
                        35.748199
                    ],
                    [
                        -88.161199,
                        35.748278
                    ],
                    [
                        -88.161878,
                        35.748604
                    ],
                    [
                        -88.16257,
                        35.748949
                    ],
                    [
                        -88.162945,
                        35.749129
                    ],
                    [
                        -88.163821,
                        35.74959
                    ],
                    [
                        -88.164495,
                        35.74995
                    ],
                    [
                        -88.165291,
                        35.750385
                    ],
                    [
                        -88.166309,
                        35.750941
                    ],
                    [
                        -88.167362,
                        35.751512
                    ],
                    [
                        -88.168551,
                        35.752156
                    ],
                    [
                        -88.169765,
                        35.752803
                    ],
                    [
                        -88.170796,
                        35.753374
                    ],
                    [
                        -88.171579,
                        35.753824
                    ],
                    [
                        -88.17182,
                        35.75399
                    ],
                    [
                        -88.172039,
                        35.754188
                    ],
                    [
                        -88.172497,
                        35.754634
                    ],
                    [
                        -88.172862,
                        35.754998
                    ],
                    [
                        -88.173305,
                        35.755506
                    ],
                    [
                        -88.173568,
                        35.755807
                    ],
                    [
                        -88.173939,
                        35.756231
                    ],
                    [
                        -88.174268,
                        35.756608
                    ],
                    [
                        -88.174556,
                        35.756935
                    ],
                    [
                        -88.174514,
                        35.758333
                    ]
                ]
            },
            "bbox": [
                -88.174556,
                35.744143,
                -88.096931,
                35.774542
            ]
        }
    ]
}